     0.02500000      -3825.420       2925.642      -12345.00      -12345.00
      -29.99999       217.1000      -18.10000      -12345.00      -12345.00
       0.000000       13.56000      -12345.00      -12345.00      -12345.00
      -12345.00      -12345.00      -12345.00      -12345.00      -12345.00
      -12345.00      -12345.00      -12345.00      -12345.00      -12345.00
      -12345.00      -12345.00      -12345.00      -12345.00      -12345.00
      -12345.00      -31.57700      -67.87020       833.0000       0.000000
      -31.06700      -68.46300       0.000000       100400.0       0.000000
      -12345.00      -12345.00      -12345.00      -12345.00      -12345.00
      -12345.00      -12345.00      -12345.00      -12345.00      -12345.00
       79.88167       135.2151       314.9085      0.7182319      -12345.00
      -12345.00      0.3325308       90.00000       90.00000      -12345.00
      -12345.00      -12345.00      -12345.00      -12345.00      -12345.00
      -12345.00      -12345.00      -12345.00      -12345.00      -12345.00
      2008       164        19         3        55
       900         6    -12345    -12345      9885
    -12345    -12345    -12345    -12345    -12345
         1         7        13    -12345    -12345
    -12345    -12345    -12345    -12345    -12345
    -12345    -12345    -12345    -12345    -12345
    -12345    -12345    -12345    -12345    -12345
         1         1         1         1         1
NIKI    -12345          
        -12345  -12345  
-12345  -12345  -12345  
-12345  -12345  -12345  
-12345  -12345  -12345  
-12345  -12345  -12345  
-12345  -12345  BHE     
ZL      -12345  -12345  
[...]
       536.1289       532.0227       529.6929       524.3446       522.9766
       511.9214       507.1057       499.2026       493.6565       483.8221
       476.0582       464.2720       455.5940       440.3661       429.8118
       416.6577       402.1960       382.7336       370.8926       354.0281
       341.0781       323.6177       309.0559       290.5009       279.0779
       260.9363       243.7824       224.5834       211.8160       191.7436
       174.9630       156.8901       145.3792       125.7626       111.1223
       86.21742       67.84660       46.40108       35.01305       12.89141
     -0.6274796      -20.18504      -34.14038      -56.12790      -68.93512
      -89.51590      -105.4185      -126.0329      -136.2997      -152.3766
      -169.4309      -189.2272      -200.5886      -219.8026      -232.1750
      -249.9011      -262.0303      -277.6655      -288.7887      -304.4065
      -314.5913      -333.6339      -343.3457      -359.2664      -368.9946
      -382.8029      -392.9005      -407.1765      -414.9091      -429.7196
      -441.3979      -454.4352      -462.2761      -474.4724      -481.8466
      -495.1532      -501.9526      -513.4106      -520.5107      -531.3577
      -538.4104      -548.4255      -555.5288      -570.9849      -577.2542
      -585.7085      -590.8492      -603.9072      -606.4136      -612.5564
      -615.5977      -625.8988      -626.9141      -635.0939      -638.8210
      -648.1475      -649.6511      -657.8867      -658.9580      -670.5032
      -672.9758      -680.1182      -681.4319      -689.1855      -693.1143
      -699.2632      -698.8276      -710.6631      -710.3350      -715.3491
      -723.0696      -730.3994      -728.7329      -736.1885      -735.8474
      -738.1362      -736.8203      -739.7051      -736.5356      -733.9790
      -727.6304      -725.5122      -715.8835      -708.3655      -697.8335
      -691.2642      -681.7595      -672.3143      -658.6854      -648.9143
      -631.0601      -617.3701      -599.5676      -582.4723      -561.8954
      -544.2329      -528.3931      -510.1403      -486.7361      -466.0051
      -443.0688      -422.1586      -396.7224      -373.7554      -347.2438
      -319.4908      -288.9056      -262.4096      -232.9849      -205.0038
      -173.6091      -144.0192      -111.3429      -80.87972      -45.48670
      -15.24094       17.83151       47.70929       81.42502       112.8163
       146.2404       174.7273       205.2543       232.4354       262.9556
       292.4354       325.1359       349.8003       375.5343       400.4980
       429.6066       454.9706       482.5256       506.5448       527.6056
       546.6044       569.1195       588.0896       619.5931       639.7031
       654.3459       666.5752       688.8982       711.9592       722.5962
       729.9502       752.8413       765.7346       772.9160       780.4053
       796.7952       810.1143       823.6543       824.3999       827.2876
       842.6553       851.3442       851.2329       863.0466       861.9326
       861.6299       864.4338       860.9666       859.1287       868.9707
       863.5073       860.4238       855.1006       846.8262       846.4961
       849.9399       838.9548       828.1709       821.4204       811.8931
       797.4744       795.8242       788.4185       776.7271       766.6392
       750.6504       738.0439       725.5713       711.3799       696.0754
       682.2349       667.3519       648.5775       635.4677       616.2196
       594.6152       586.3566       569.0625       549.0883       531.0409
       515.7123       496.3005       480.1582       467.8855       453.0181
       429.3905       412.3914       393.2092       380.6877       363.3184
       348.4265       331.4050       314.2877       292.8187       273.5881
       250.7558       239.7404       224.1005       203.3409       178.3046
       165.0179       148.0045       133.3904       123.2008       107.2198
       82.67972       71.64557       57.82246       41.56798       28.58482
       15.79731     -0.2711334      -13.99953      -26.57007      -35.03894
      -44.45750      -59.35873      -75.36011      -85.07758      -96.60910
      -108.8546      -121.0475      -132.2026      -149.0620      -158.6476
      -174.2485      -183.8937      -195.6661      -208.4417      -224.0128
      -235.4077      -255.5366      -265.3104      -279.4180      -291.8536
      -306.9388      -315.8790      -332.0487      -337.1708      -370.3131
      -312.2953      -150.5947      -313.8185      -297.4703      -8.080322
      -708.3711      -1039.154      -864.7517      -726.2507       88.68481
      -326.1526      -468.4703       50.15723      -1133.483      -1149.258
      -178.6433      -134.1203       83.47119      -360.6133      -648.5527
      -661.1562      -1228.245      -774.9319      -362.0614      -435.2803
      -455.5623      -652.2128      -202.1241       69.37671      -449.4738
      -448.8510      -365.6506      -931.8167      -954.3494      -361.3030
      -325.8699      -730.4445      -685.9242      -346.7571      -233.7940
      -239.9649      -234.9918      -185.1504      -465.3528      -876.0962
      -739.5950      -480.5208      -613.4473      -689.4961      -494.6001
      -263.2711      -62.03638      -151.1780      -478.1951      -520.9526
      -444.3782      -401.2926      -428.7751      -482.9634      -386.8914
      -248.1793      -257.9215      -447.4952      -482.0358      -251.3076
      -291.0776      -452.6031      -240.2328      -91.98242      -305.3152
      -335.8651      -198.3296      -264.3875      -408.5181      -304.3327
      -106.3629      -158.0811      -290.3666      -253.5026      -118.5859
      -41.10699      -116.3068      -137.6720      -137.4515      -222.7033
      -101.1159       73.99108      -14.10461      -95.24330      -59.98778
       5.733356       41.40573      -55.14116      -113.1758       12.02744
       30.86829       56.22870       225.6946       74.99236      -136.0200
       134.4863       346.1986       164.4330       82.14050       208.0039
       157.4562       74.55130       99.73160      0.7750549      -12.02328
       166.9490       172.0104       312.4542       317.1351       171.0427
       228.6530       87.06274       147.8145       301.7756       49.88458
       95.10400       251.1003       186.9771       194.7161       118.7222
       135.6041       209.2842       226.9927       211.7760       104.5131
       200.6704       88.09668      -14.41373       184.8398       109.3086
       55.14090       117.6311       100.3871       127.1694       33.41074
       103.5428       206.8780       57.90352      -41.05405       5.253067
       5.046524       56.36996       110.8428       19.07221      -26.45484
       39.20639       4.820133       4.266602       41.67826      -5.712151
      -37.23193      -46.78043      -26.86704      -23.80133      -28.67755
       90.40164       115.7923       62.52095       53.68922      -6.681986
       12.59813      -1.278313      -68.11957       70.61729       68.40424
       58.01105       201.7827       159.7823       128.7126       268.9088
       190.4089       44.78055       81.22141       71.42035       151.2200
       247.0187       146.5203       218.9512       210.1484       159.8413
       283.2307       229.7755       137.7714       235.5776       316.6891
       317.6132       349.3977       388.0521       231.2022       204.5372
       335.7605       289.5031       380.9561       477.2513       332.0143
       410.4880       374.7275       313.5863       409.3506       343.7190
       386.7471       392.5990       347.8638       421.6616       352.9622
       426.5093       404.6971       287.9856       430.8511       392.0221
       293.6847       381.1342       310.1038       346.2418       342.8684
       200.8665       261.6801       245.0531       153.3082       208.2565
       231.4163       227.0076       222.3676       171.4343       191.5408
       231.5113       157.9682       145.4456       75.83096       28.31161
       91.31833       73.51596       45.46152       33.43036       94.38223
       79.35969      -53.41685       20.79535       34.13773      -50.77322
      -80.38554      -69.88551       3.824310      -95.70123      -80.46973
      -50.97089      -193.9625      -78.41736      -124.9819      -233.6232
      -179.1677      -205.4377      -113.0484      -105.9226      -262.2047
      -204.1431      -136.2147      -217.2431      -249.8397      -346.5153
      -343.0919      -64.46811      -98.08075      -249.5568      -216.0159
      -355.6047      -367.6921      -250.5557      -291.0372      -304.7936
      -327.0590      -207.1784      -134.7102      -350.0984      -387.4929
      -225.3195      -203.8444      -208.1237      -160.4515      -262.0339
      -408.7827      -394.2368      -226.2706      -124.8011      -275.5292
      -286.3404      -202.3507      -261.2820      -164.6113      -188.9572
      -381.8414      -274.9147      -91.02844      -189.2386      -258.9012
      -151.2120      -138.3113      -222.3862      -194.8940      -160.9570
      -262.3354      -133.1896      -16.64862      -166.1371      -65.69128
      -14.97644      -153.6394      -53.91343       2.908203      -35.39996
      -6.276520      -109.9449      -142.0428       23.97306       43.49586
      -19.35958       20.12832       2.460449      -49.33887       68.06146
       214.6501       78.71703      -66.10945       50.74675       77.27908
      -16.60251       25.99120       64.46190       63.03227      -31.95430
      -55.12561       253.1445       255.7221      -71.96759       74.99808
       233.9245       22.77368       66.05396       188.2557       64.81528
       66.93469       155.4517       98.05792       78.56100       142.3523
       150.3577       124.8743       164.4246       147.6899      -36.34575
       16.90692       174.9776       135.8127       111.3661       62.16468
      -46.94391       97.09918       225.4181       56.38110      -12.67084
       162.1028       215.4416       82.12029      -9.208633       18.08942
       127.4168       157.2159       42.16766       78.22440       133.8472
      -10.62210       64.06287       142.8378      -38.68311       12.53409
      -52.37746      -42.73339       108.2657      -101.8840      -9.242279
       102.3885      -138.6687      -61.21738       68.74524      -58.68225
      -82.48724      -94.46613      -230.4044      -146.1740      -14.92236
      -146.3287      -221.0739      -195.0101      -145.9468      -106.9863
      -129.3320      -149.4390      -175.2415      -126.9530      -178.0534
      -303.7800      -191.8455      -83.96246      -143.2515      -232.2753
      -302.7931      -209.0063      -81.94427      -177.3813      -215.9603
      -217.1740      -291.7158      -279.1476      -261.3920      -230.9214
      -147.1867      -137.3363      -180.5721      -241.9465      -254.5338
      -258.0795      -350.3797      -301.8969      -130.3758      -165.3289
      -256.1277      -214.1464      -144.0938      -158.2849      -184.0202
      -304.6401      -340.8884      -129.9072      -157.3486      -278.7906
      -255.6772      -313.9241      -301.6165      -190.0614      -219.6555
      -177.1785      -151.1014      -243.2619      -162.6395      -51.08084
      -82.20239      -204.9346      -266.8214      -168.3444      -143.0742
      -232.6921      -225.7495      -160.6343      -79.60632      -84.74675
      -95.35394      -35.53819      -61.83827      -31.47184      -10.18259
      -61.47418      -115.3719      -127.7838      -15.05090       83.30209
       142.6505       79.61157      -117.8202      -146.0095       42.14331
       227.5025       183.2751       26.06805       118.5685       199.7391
       140.9841       159.9248       219.2028       207.9568       205.5336
       317.1965       236.2365       42.35315       179.9926       269.5566
       368.4487       527.9178       220.6459       131.4087       412.3981
       294.1346       269.6381       387.4727       473.1029       589.0942
       354.0085       267.5962       425.4321       379.4414       336.9368
       487.2374       550.5594       336.8628       295.8575       567.3236
       560.8315       284.1366       347.6550       529.9019       530.7455
       502.0511       475.5061       499.2845       388.1664       333.8228
       554.9951       481.0198       280.7321       383.2662       393.9305
       265.8903       252.3480       370.8737       356.7856       294.8848
       379.6503       260.9238       301.6897       738.5244       1243.271
       1311.562       381.9776      -241.4922       560.3481       1547.578
       1640.656       999.8977       981.4297       1875.509       1163.154
      -1899.393      -3825.420      -2465.540       342.0996       1647.505
       1069.792       840.1365       932.1890       759.1824       1101.536
       574.9805      -725.5762      -977.8130      -1327.945      -1368.799
      -973.2085      -1368.555      -826.0635       1381.904       2259.506
       928.2812       2002.074       2925.642      -19.06152      -1306.794
      -48.67969       718.5323       532.8958      -239.6642      -386.2333
      -446.7255      -205.3550       703.0491       893.3575       689.0112
       502.4104      -273.1116      -532.0642       319.9639       904.2788
       656.8643       227.0950       166.1680      -50.76801      -433.0772
       155.1981       614.5762       268.2562       386.5361       273.8714
      -74.77551       241.7767       78.02844      -498.0466      -943.6652
      -798.9408       174.1287       551.3449       321.5013       241.5779
       264.7912       322.0370      -263.2957      -472.7119       521.6218
       436.6606      -761.7631      -698.7555       240.4168       348.6882
      -301.9578      -493.8179      -260.3666      -203.5126      -223.0833
      -239.5763       121.0089       226.1665       12.81995      -97.57153
      -819.2637      -901.7891      -209.6584      -331.7251      -644.2987
      -117.4059       115.0095      -591.1489      -991.5575      -391.3044
       129.2614      -181.7568      -204.0693      -369.6582      -1124.925
      -1196.447      -945.5116      -167.6060       418.6772      -397.6201
      -919.1270      -1048.477      -1352.666      -781.1028      -161.1753
      -477.7012      -867.8569      -875.1987      -1039.106      -1225.171
      -919.0747      -534.1155      -646.2432      -882.7981      -1061.258
      -1341.208      -1377.661      -1138.057      -704.6839      -254.7964
      -403.0605      -946.0693      -1162.622      -766.6339      -365.0371
      -738.3369      -1484.780      -1466.344      -766.1278      -450.4238
      -705.5356      -689.3457      -565.8652      -722.9609      -904.4404
      -1074.295      -1082.672      -1125.090      -1103.653      -461.3804
      -32.77710      -218.4380      -591.4092      -741.7805      -516.3298
      -423.1743      -697.4294      -1055.122      -1177.217      -709.5161
      -266.6554      -299.5803      -175.3580      -26.30811      -387.5298
      -413.4467      -328.7758      -651.9932      -463.3348      -25.25421
      -84.03998      -257.7816      -468.0516      -464.5376      -103.4931
       140.0161      -169.7656      -680.1005      -249.9882       465.3919
       59.55487      -411.4353      -116.6688       179.1959       40.69583
      -90.19186       21.13599       184.1006       322.8824       262.6603
      -26.96466       208.5374       481.2684       194.4752       24.94883
      -63.44922       220.8274       898.4487       957.2527       462.7650
      -38.37991       17.12061       468.7930       496.8782       423.9602
       579.0465       491.2412       414.8794       327.0848       195.1802
       514.2949       820.9014       808.3994       778.0828       540.7080
       383.4502       385.4292       498.4844       816.8330       965.7283
       826.5630       502.0134       394.6113       681.4183       698.1630
       588.0806       693.1030       670.5242       666.6157       795.5889
       702.6245       582.3152       459.4648       402.5747       632.9109
       824.0225       768.9399       667.6130       738.5854       880.9463
       737.3672       509.4246       595.3538       856.2889       733.8053
       515.3320       654.8105       858.2629       1012.413       897.7151
       501.1459       321.8047       520.1050       774.4501       652.5837
       365.3020       569.4653       1000.117       988.6320       701.0337
       534.7615       566.5061       574.2141       542.8687       656.7175
       787.9587       772.8921       735.9636       628.0161       507.2253
       484.5884       661.0088       937.9395       758.2919       187.9493
       10.15356       524.8369       863.0278       485.3254       281.7916
       504.5544       654.6396       623.2773       719.8323       693.3192
       404.4935       305.5688       361.2668       169.8830       18.99939
       243.1436       395.6630       245.8986       103.3965       271.0461
       511.9724       474.7056       413.7235       203.7001      -71.51753
      -36.09817       42.23155       32.59811      -95.18329      -280.9115
      -241.1127      -108.8819      -68.62254      -12.75745       208.0588
       248.3144       101.7807       23.60899       44.26843      -124.6404
      -366.4345      -221.8918      -21.73069       8.400391      -69.56372
      -254.6071      -434.9163      -595.3048      -506.3321      -222.7192
      -162.1854      -368.1348      -266.5571      -147.1381      -251.9213
      -251.3809      -289.3025      -392.3457      -536.1470      -705.3423
      -760.1044      -721.2397      -517.9503      -378.5840      -381.5267
      -289.2174      -431.7534      -771.0045      -639.8807      -372.3643
      -435.9568      -621.2928      -575.2292      -400.4290      -440.3895
      -639.4360      -729.1670      -805.4934      -762.7266      -687.7255
      -690.3372      -512.3333      -477.9132      -643.1538      -560.2417
      -586.4713      -688.6941      -405.4888      -402.2542      -892.9658
      -992.3611      -761.1140      -626.7225      -560.0518      -496.8140
      -608.8308      -871.2031      -891.0774      -645.5364      -448.6860
