     0.02500000      -1937.081       1775.254      -12345.00      -12345.00
      -30.01004       219.2149      -20.66000      -12345.00      -12345.00
       0.000000       15.83000      -12345.00      -12345.00      -12345.00
      -12345.00      -12345.00      -12345.00      -12345.00      -12345.00
      -12345.00      -12345.00      -12345.00      -12345.00      -12345.00
      -12345.00      -12345.00      -12345.00      -12345.00      -12345.00
      -12345.00      -30.19290      -68.82820       1323.000       0.000000
      -31.06700      -68.46300       0.000000       100400.0       0.000000
      -12345.00      -12345.00      -12345.00      -12345.00      -12345.00
      -12345.00      -12345.00      -12345.00      -12345.00      -12345.00
       103.0367       340.0420       160.2272      0.9263889      -12345.00
      -12345.00    -0.05167296       90.00000       90.00000      -12345.00
      -12345.00      -12345.00      -12345.00      -12345.00      -12345.00
      -12345.00      -12345.00      -12345.00      -12345.00      -12345.00
      2008       164        19         3        58
       460         6    -12345    -12345      9970
    -12345    -12345    -12345    -12345    -12345
         1         7        13    -12345    -12345
    -12345    -12345    -12345    -12345    -12345
    -12345    -12345    -12345    -12345    -12345
    -12345    -12345    -12345    -12345    -12345
         1         1         1         1         1
PACH    -12345          
        -12345  -12345  
-12345  -12345  -12345  
-12345  -12345  -12345  
-12345  -12345  -12345  
-12345  -12345  -12345  
-12345  -12345  BHE     
ZL      -12345  -12345  
[...]
       57.27754       59.55296       55.43634       55.72388       53.53384
       53.83328       50.10052       52.30365       46.99324       44.97218
       40.85574       40.35606       35.68098       36.97854       32.08862
       30.25452       23.38211       22.51818       18.05662       17.91038
       11.82948       9.716787       2.962204       1.136808      -3.727703
      -3.486504      -15.23345      -20.10513      -21.07072      -20.35208
      -28.69205      -30.72226      -39.79106      -43.34296      -45.87552
      -46.24837      -54.31194      -54.31779      -59.63342      -64.03278
      -68.74809      -68.42795      -75.41472      -75.76160      -76.81903
      -77.83252      -84.07530      -82.25558      -86.32184      -89.05881
      -94.75964      -93.45041      -91.54816      -87.07703      -96.27481
      -100.7763      -98.67575      -95.37634      -101.4360      -97.91641
      -103.3036      -104.8305      -104.0177      -102.4655      -108.8259
      -98.68149      -97.97375      -105.3796      -109.1434      -98.45499
      -101.7217      -97.92462      -99.24979      -103.0646      -101.9054
      -88.46506      -91.16269      -90.20282      -90.79300      -88.33502
      -88.11264      -79.65942      -76.35947      -70.53741      -76.29669
      -75.54294      -70.68311      -60.02022      -61.31316      -57.77991
      -55.58984      -48.41405      -44.06879      -35.07562      -36.78721
      -31.84441      -31.36794      -24.47547      -19.70990      -11.51365
      -16.30514      -11.69728      -10.50141      -2.649090       6.949253
       16.67749       11.36597       22.26206       32.48399       37.26984
       35.16931       46.96149       55.47430       70.83607       75.93347
       81.16272       80.70782       86.48511       94.58902       113.4039
       117.5847       123.4763       121.1159       126.2800       139.0513
       153.6097       150.9806       150.1032       146.7386       161.4385
       173.1346       173.1006       164.5823       164.2867       163.1278
       175.7551       183.7829       186.7806       174.4057       166.7922
       166.4313       178.5233       181.7992       177.3491       166.9670
       173.1084       173.4217       169.5438       165.5396       173.7932
       163.3870       151.3529       156.2577       169.0927       152.7113
       140.8036       138.4042       143.8383       144.3164       144.1819
       128.5942       124.1635       121.2231       118.2018       106.9883
       103.7012       94.57785       93.13080       89.34406       92.00684
       90.72688       83.86409       68.68854       71.15657       79.69751
       81.46364       59.99545       57.53964       59.25909       60.52295
       52.11346       46.76736       33.25285       27.32449       25.86374
       24.50034       17.74346       16.81707      -2.580426      -4.675301
       7.004173      0.7881927      -14.06435      -13.59517      -31.10049
      -34.11366      -31.87920      -39.94855      -55.40158      -52.23035
      -62.95515      -78.85751      -81.71051      -75.85516      -79.95877
      -89.13269      -102.6220      -95.94824      -99.60922      -109.1879
      -125.5591      -136.3911      -136.6213      -127.7129      -141.0928
      -156.1002      -158.3503      -160.1512      -177.3102      -178.0861
      -189.7396      -206.1561      -219.5823      -219.4174      -225.1138
      -238.3342      -262.7990      -264.6708      -268.8671      -287.9911
      -306.5857      -303.9066      -321.5514      -335.4474      -330.4062
      -324.1848      -353.7006      -369.6199      -367.6543      -364.6326
      -372.6456      -379.8691      -391.5691      -391.0673      -399.0967
      -403.4398      -400.8660      -403.2614      -422.1648      -416.1254
      -404.6023      -410.5957      -420.7726      -423.7301      -421.2676
      -412.1841      -430.0823      -438.0225      -429.9006      -429.5084
      -418.8965      -405.7327      -418.7284      -423.2720      -422.9141
      -420.4257      -406.6958      -387.5466      -389.2802      -411.7395
      -419.9751      -386.7339      -362.4250      -365.8229      -374.6135
      -370.1608      -360.7355      -335.4048      -327.2576      -328.3308
      -317.5789      -306.4108      -303.1328      -286.0597      -264.8965
      -249.8707      -244.1229      -237.6047      -227.3441      -195.7819
      -168.9037      -166.5320      -165.5619      -143.6356      -126.5639
      -108.3868      -81.03226      -62.44531      -59.94769      -42.49548
      -25.80633     -0.1938553       28.66721       29.46553       19.09335
       52.22643       77.51361       68.54102       78.78079       109.9329
       127.3266       145.5608       145.4623       145.5343       165.9701
       187.2844       184.6805       197.3218       210.0056       218.3663
       228.1073       244.7082       251.3916       257.7821       261.1585
       264.9265       275.4031       291.1603       300.8799       310.9205
       312.3561       320.3074       323.3900       343.2462       367.1190
       368.4321       360.4783       380.2537       405.7019       410.8120
       409.4788       431.8735       451.5157       465.5945       477.4364
       489.7203       505.4719       537.7009       550.8475       554.1836
       560.4083       584.3470       614.8588       626.8206       614.7629
       630.9097       668.8677       695.2102       687.1741       677.3872
       696.8333       734.1145       725.9956       695.6643       699.1455
       724.2368       720.2512       703.5491       689.4170       697.4255
       696.5195       677.3812       669.0839       670.5754       644.6616
       618.7242       610.0120       603.2255       579.0322       558.4307
       539.5760       528.9692       499.7560       468.8748       458.0773
       442.9940       412.9698       385.8302       366.2911       357.8027
       336.2862       311.5897       284.7130       255.7862       230.9504
       209.1714       185.0533       167.1694       135.5014       113.0133
       94.06464       77.37022       67.19620       49.33317       15.42295
      -3.668404      -9.397469      -15.89516      -37.55313      -58.11584
      -68.75105      -68.25986      -71.46255      -80.08655      -107.4943
      -130.0043      -129.6252      -111.8677      -115.3571      -137.2641
      -158.8760      -152.2809      -136.7599      -128.8721      -157.6628
      -178.9777      -173.2704      -165.7733      -172.1160      -159.7345
      -172.9913      -201.7310      -216.6077      -206.0059      -188.8989
      -196.5524      -218.4321      -210.6383      -208.9339      -214.7323
      -216.6220      -216.8687      -233.3290      -252.6346      -267.0437
      -260.4366      -260.6548      -266.2526      -288.9815      -299.6771
      -287.8721      -283.1017      -303.2029      -307.8662      -310.9471
      -313.0785      -317.3511      -308.0056      -304.5333      -306.9257
      -312.4056      -308.7129      -301.2148      -286.3309      -292.5541
      -292.6633      -288.5234      -275.9611      -261.7291      -243.0505
      -245.3421      -243.6296      -226.2388      -211.9046      -212.2710
      -192.8190      -188.6307      -181.5850      -157.2396      -140.3596
      -130.3856      -117.2310      -112.1703      -90.84874      -72.77814
      -64.11896      -62.29491      -50.72204      -27.74545      -12.94807
      -21.49785      -9.652435       25.81097       33.49154       31.40099
       53.11171       55.56282       52.14777       67.73196       74.91183
       81.70667       101.1886       98.77676       104.0154       114.1582
       112.0503       117.4630       135.4996       133.2098       137.8846
       159.3105       156.6489       139.0148       159.3469       168.5931
       147.8701       145.2737       173.8018       187.1559       175.7701
       167.8318       176.4094       178.9032       172.7806       168.3089
       177.5195       174.3248       148.9188       145.7852       173.0978
       160.2369       123.8607       121.3221       126.6028       114.0256
       98.02542       80.92497       74.72838       63.31158       42.35139
       32.97362       33.77188      0.5627060      -30.12753      -28.35617
      -40.89807      -71.10999      -86.85568      -100.2427      -107.1588
      -115.8932      -129.1697      -151.3464      -166.3351      -176.6774
      -183.2319      -206.2648      -213.4979      -219.0151      -231.9064
      -254.9775      -276.9261      -295.0702      -278.7794      -286.6897
      -319.9785      -344.5176      -353.9916      -381.9813      -391.7633
      -406.8849      -423.3281      -435.1198      -447.1580      -464.7722
      -468.5239      -497.0852      -517.7045      -519.8635      -528.5768
      -550.5411      -555.1077      -566.0029      -582.5276      -598.7788
      -605.8361      -604.9584      -589.0850      -600.4023      -630.5679
      -643.5112      -629.5156      -634.2064      -639.4617      -630.4417
      -635.8116      -669.3726      -666.9475      -655.6188      -660.9690
      -668.5842      -682.2842      -695.6442      -675.9893      -682.8630
      -707.5847      -705.6323      -705.2031      -721.4817      -712.8760
      -715.5652      -726.3901      -719.4609      -717.2607      -739.2886
      -737.1821      -722.1848      -714.3252      -716.9563      -729.2571
      -726.3916      -694.2163      -685.1799      -701.0535      -703.2739
      -670.3276      -653.7781      -652.0087      -650.4075      -635.5778
      -609.1875      -591.2317      -594.4910      -566.9202      -532.0198
      -518.7046      -515.0377      -480.2471      -447.2047      -423.7600
      -402.3429      -374.9490      -360.4779      -330.6935      -303.8583
      -278.7484      -254.8723      -225.1571      -194.7814      -155.2170
      -126.9858      -103.4798      -82.89204      -42.70983       2.029602
       33.88756       53.37802       81.23895       107.0730       151.5761
       189.9684       212.8898       238.7023       286.5022       326.0933
       346.0417       372.0854       413.1035       437.6982       474.4343
       512.2084       534.8339       536.5200       563.6448       615.8374
       655.1396       672.6951       693.4634       710.5750       752.9434
       795.6074       804.7761       803.3516       833.3376       863.4524
       896.0869       920.5562       927.6567       943.0046       971.5034
       972.4700       989.3672       1034.857       1052.032       1034.057
       1050.982       1089.671       1106.157       1096.606       1106.275
       1133.033       1149.185       1144.261       1153.585       1177.615
       1182.719       1167.141       1180.772       1209.532       1231.306
       1222.744       1208.631       1228.313       1273.022       1272.150
       1252.310       1262.001       1275.988       1284.385       1294.854
       1294.008       1293.336       1304.294       1317.262       1313.886
       1320.337       1333.828       1340.650       1335.927       1333.354
       1337.003       1341.047       1336.885       1345.138       1346.678
       1349.204       1336.778       1321.156       1309.250       1314.695
       1304.925       1281.370       1261.178       1262.914       1262.740
       1258.151       1220.497       1185.856       1176.485       1175.283
       1150.083       1128.024       1090.467       1064.770       1049.304
       1034.634       996.0200       958.7139       933.8142       920.5120
       880.1104       836.1431       805.1604       774.6570       727.3503
       687.6287       651.9255       617.6946       572.3397       516.1733
       474.5148       448.7402       407.4880       336.7077       275.4188
       242.7858       204.5884       152.3852       101.3458       48.99989
      -10.24875      -65.59729      -105.9134      -138.3154      -200.0620
      -273.9351      -327.5309      -368.7881      -413.3486      -461.0034
      -514.8181      -570.0691      -620.6060      -666.6238      -706.1824
      -746.7642      -808.6282      -871.6335      -906.8562      -931.9868
      -966.9897      -1019.913      -1078.629      -1112.017      -1140.439
      -1176.551      -1214.823      -1262.870      -1305.024      -1319.459
      -1348.522      -1388.309      -1414.605      -1447.381      -1505.281
      -1528.315      -1520.461      -1559.396      -1617.255      -1629.846
      -1639.973      -1671.040      -1704.788      -1735.283      -1755.441
      -1769.318      -1796.874      -1812.809      -1823.425      -1849.175
      -1865.601      -1864.521      -1880.484      -1895.695      -1898.733
      -1909.006      -1932.498      -1925.120      -1907.357      -1910.097
      -1929.350      -1937.081      -1926.379      -1905.320      -1901.537
      -1892.578      -1889.410      -1877.238      -1845.282      -1817.668
      -1809.898      -1791.867      -1780.653      -1758.535      -1713.149
      -1669.401      -1645.760      -1630.099      -1602.182      -1555.594
      -1502.069      -1463.384      -1449.720      -1421.604      -1379.555
      -1336.758      -1281.335      -1231.649      -1199.833      -1175.230
      -1144.396      -1098.264      -1034.534      -983.1118      -958.5056
      -931.2871      -888.4163      -835.9360      -785.3667      -750.4800
      -732.1292      -689.0630      -624.9777      -580.6736      -542.8005
      -499.7410      -470.1631      -444.3898      -397.8593      -337.1012
      -282.6889      -255.0963      -210.8761      -146.8138      -106.7159
      -68.85736      -20.89224       3.074509       43.39355       104.8338
       155.6317       190.7041       227.9241       263.6701       308.4417
       352.0182       400.0310       426.2693       449.0078       492.3357
       557.7488       592.8158       600.5492       619.3267       671.6116
       722.1094       750.3696       747.9260       775.6968       823.4429
       861.8909       882.3884       897.5645       912.9990       945.0837
       971.8770       992.2803       1001.188       1016.329       1040.668
       1071.673       1084.412       1100.755       1125.676       1150.824
       1164.391       1187.088       1195.373       1215.800       1246.497
       1262.584       1270.994       1299.232       1321.802       1335.087
       1342.030       1380.236       1410.873       1421.686       1416.322
       1446.578       1489.372       1515.663       1516.525       1539.155
       1566.334       1597.383       1620.627       1632.380       1633.643
       1659.682       1677.428       1689.723       1708.712       1725.756
       1720.798       1730.277       1738.604       1758.555       1775.254
       1762.236       1744.802       1760.157       1771.566       1763.213
       1728.344       1720.421       1731.936       1726.773       1705.680
       1699.246       1685.409       1656.111       1615.905       1602.255
       1586.730       1557.535       1530.514       1502.263       1460.827
       1432.693       1412.053       1372.535       1323.109       1296.462
       1266.667       1242.309       1205.736       1152.385       1111.512
       1084.835       1033.845       982.4087       927.5488       887.2253
       861.0159       810.7866       720.6255       661.5020       642.1121
       612.8116       543.1875       454.3627       395.1367       366.9568
       317.6538       273.6379       220.0334       140.8264       79.42143
       50.41045       14.58682      -28.01361      -89.43137      -137.7668
      -175.3806      -224.9611      -265.7452      -291.5552      -333.3629
      -368.3164      -409.5962      -455.1082      -488.3533      -517.5087
      -542.9078      -566.0872      -618.5095      -667.3022      -686.5779
      -717.4182      -757.1118      -788.7161      -839.5923      -873.6694
      -889.9570      -934.5593      -976.9209      -1001.524      -1047.489
      -1081.562      -1107.649      -1144.445      -1161.587      -1175.002
      -1232.148      -1288.551      -1308.343      -1321.271      -1342.841
      -1374.443      -1405.593      -1424.759      -1441.773      -1467.201
      -1485.998      -1506.140      -1524.143      -1536.118      -1546.233
      -1556.990      -1558.110      -1574.966      -1601.420      -1608.569
      -1600.185      -1596.633      -1597.725      -1608.908      -1624.930
      -1628.482      -1621.383      -1604.816      -1592.912      -1601.370
      -1604.647      -1593.016      -1582.686      -1568.654      -1565.275
      -1566.654      -1556.919      -1577.070      -1603.579      -1520.831
      -1362.693      -1320.123      -1537.190      -1780.962      -1647.511
      -1366.326      -1243.738      -1247.583      -1364.453      -1323.969
      -1309.317      -1496.037      -1292.865      -1150.487      -1405.872
      -1222.056      -1174.506      -1585.224      -1390.167      -1057.877
      -1052.464      -857.9146      -877.6694      -1100.883      -1198.162
      -1068.217      -909.8901      -995.4421      -914.5068      -774.9988
      -657.5486      -657.5381      -884.4641      -789.5057      -415.5039
      -359.3822      -500.5457      -562.7272      -624.3097      -569.7491
      -446.1854      -349.6100      -200.5262      -238.5092      -358.7420
      -139.4206       102.4052      -81.28931      -235.3619      -128.4484
      -150.1351      -57.43027       118.9473       48.72522       194.2991
       321.1322       215.0776       378.7078       533.2217       243.4767
       32.63379       251.1958       334.2191       383.5020       705.7793
       824.1812       700.5696       579.0862       582.9639       764.9966
       796.8379       634.5884       538.6458       645.3113       925.9912
       971.9761       940.0156       1039.679       910.6499       803.8843
       876.7209       906.6897       978.9619       1003.997       1009.360
       1081.933       1104.598       990.9712       866.0952       1004.505
       1272.991       1221.544       960.2207       933.2476       1066.740
       1108.114       1163.161       1159.651       1101.727       1072.500
       1048.035       1118.125       1275.805       1324.513       1226.881
       1167.211       1162.001       1097.318       1107.924       1141.063
