     0.02500000      -1396.617       1553.360      -12345.00      -12345.00
      -30.01004       219.2149      -20.66000      -12345.00      -12345.00
       0.000000       15.83000      -12345.00      -12345.00      -12345.00
      -12345.00      -12345.00      -12345.00      -12345.00      -12345.00
      -12345.00      -12345.00      -12345.00      -12345.00      -12345.00
      -12345.00      -12345.00      -12345.00      -12345.00      -12345.00
      -12345.00      -30.19290      -68.82820       1323.000       0.000000
      -31.06700      -68.46300       0.000000       100400.0       0.000000
      -12345.00      -12345.00      -12345.00      -12345.00      -12345.00
      -12345.00      -12345.00      -12345.00      -12345.00      -12345.00
       103.0367       340.0420       160.2272      0.9263889      -12345.00
      -12345.00     -0.2519963       0.000000       90.00000      -12345.00
      -12345.00      -12345.00      -12345.00      -12345.00      -12345.00
      -12345.00      -12345.00      -12345.00      -12345.00      -12345.00
      2008       164        19         3        58
       460         6    -12345    -12345      9970
    -12345    -12345    -12345    -12345    -12345
         1         7        13    -12345    -12345
    -12345    -12345    -12345    -12345    -12345
    -12345    -12345    -12345    -12345    -12345
    -12345    -12345    -12345    -12345    -12345
         1         1         1         1         1
PACH    -12345          
        -12345  -12345  
-12345  -12345  -12345  
-12345  -12345  -12345  
-12345  -12345  -12345  
-12345  -12345  -12345  
-12345  -12345  BHN     
ZL      -12345  -12345  
[...]
      -734.3032      -742.4976      -770.4290      -793.0027      -805.1692
      -813.9678      -831.6245      -848.4875      -868.4695      -889.9033
      -898.7510      -898.8000      -916.4700      -937.5469      -946.3391
      -957.5542      -977.7627      -984.1257      -984.3918      -984.9102
      -987.9263      -1000.798      -1010.160      -1015.536      -1030.506
      -1030.867      -1017.733      -1012.374      -1011.974      -1010.099
      -1005.552      -995.2913      -984.7217      -985.0549      -982.6934
      -964.8147      -946.3015      -929.9043      -917.8091      -912.0244
      -900.9919      -878.1904      -859.8062      -848.3582      -842.9077
      -840.0940      -819.6316      -779.5266      -748.9392      -733.7463
      -708.8767      -683.4364      -670.6814      -664.4086      -645.6797
      -611.4873      -584.1021      -563.4569      -547.0916      -524.9534
      -483.4458      -451.7618      -443.6899      -431.4548      -411.6110
      -377.6787      -347.4000      -336.4498      -318.1261      -296.4750
      -278.5134      -258.2032      -236.2446      -213.1539      -176.4291
      -147.2390      -136.2783      -126.3175      -110.1710      -95.46814
      -69.79390      -47.94178      -30.87144      -3.273781       27.61455
       45.75745       63.39804       82.61990       108.2908       118.9497
       133.2521       152.7897       183.2642       213.4338       240.5087
       261.6926       287.5935       302.9227       319.9689       329.6130
       356.4038       382.8403       405.2126       418.2670       428.2122
       445.4126       476.1431       496.3325       509.6169       518.8263
       531.1779       530.1616       545.9557       564.3109       577.5542
       579.8669       586.7083       599.9000       614.7446       622.3546
       631.6555       639.0703       649.9303       661.4071       671.2335
       664.4683       670.2300       690.6865       712.8599       712.0444
       710.5088       723.8340       747.6807       756.5479       755.9165
       752.0530       765.0940       774.6599       785.5142       779.3511
       775.7615       785.5808       805.2959       804.3303       791.6504
       769.2800       765.6226       761.3818       750.7563       743.8052
       746.9746       733.5112       727.0481       716.2212       699.3340
       692.7734       699.6104       681.5065       649.9088       611.7822
       594.1775       589.9629       592.4822       573.6853       546.1586
       531.1082       525.6155       508.2373       495.7688       473.0876
       446.4707       439.4622       432.5950       399.3778       373.8704
       362.7306       357.1193       345.8978       322.4883       301.3411
       306.2322       295.0046       267.7264       251.9167       247.8544
       242.5545       249.9727       238.5849       216.9716       200.6008
       191.6126       182.9360       179.2925       179.5627       178.0292
       171.0278       167.2987       157.7432       146.4956       130.1342
       118.3942       114.7143       110.4121       99.59790       92.61359
       76.87744       60.54572       48.77396       44.11327       38.49299
       31.17311       9.211529      -10.59625      -21.14230      -36.09763
      -65.84085      -95.35217      -169.1162      -312.1508      -411.3757
      -265.0597       37.22852       145.7425       36.51437      -22.57452
      -228.4407      -553.5890      -527.6105      -257.2986      -130.4639
      -100.6588      -191.5854      -386.8201      -482.8864      -422.8895
      -360.3796      -314.9700      -410.3462      -547.3375      -555.5894
      -387.2985      -113.4146      -237.3093      -679.4844      -797.3329
      -522.5431      -307.2260      -292.9115      -290.5298      -410.2936
      -521.6304      -537.5447      -517.1416      -493.1665      -421.1243
      -380.1372      -353.5024      -405.1008      -485.3215      -474.8003
      -444.8760      -360.2466      -391.2272      -463.5425      -473.2141
      -569.7197      -519.0735      -338.8961      -185.9491      -200.6628
      -524.7990      -705.3431      -392.4696      -259.8699      -423.7657
      -419.8661      -347.0894      -428.0438      -416.4540      -214.4250
      -313.8589      -490.6041      -437.6499      -512.1451      -569.7075
      -477.2002      -389.1229      -293.6709      -244.8221      -379.8831
      -509.0354      -443.3453      -291.3040      -308.3826      -373.7391
      -364.6752      -395.7397      -459.6747      -501.5265      -532.1431
      -488.7076      -343.0926      -284.5369      -389.0331      -469.6254
      -420.0817      -345.0044      -375.2091      -294.6765      -261.9351
      -433.3622      -445.5712      -333.1033      -299.9310      -258.1335
      -358.5707      -496.4427      -476.2592      -370.8099      -202.7258
      -212.8204      -362.8181      -277.4393      -161.0478      -195.3463
      -185.6066      -108.5515      -121.4536      -165.3301      -159.7039
      -160.8989      -146.1701      -103.0814      -226.4389      -245.1310
      -80.94421      -2.813454       27.67051      -5.709930      -92.14369
      -41.75041       52.49979       9.320801      -106.3092      -85.68103
      -49.54904       17.32620       114.6386       40.25606      -26.90488
       21.35003       28.27843      -23.73349      -62.60868      -7.330170
       25.34074       26.45514       74.43213       142.3522       140.1201
      -37.55653      -66.12411       145.4721       177.1781       80.28180
       73.40326       173.3577       233.0129       173.1421       113.7029
       115.3547       118.8019       84.95667       117.8338       220.7952
       243.1910       173.8449       80.62683       95.19647       186.5707
       183.6303       197.8669       233.7195       181.3000       119.4315
       81.21194       95.88284       123.4612       160.0129       242.4142
       261.6379       189.2446       74.56004       28.49091       144.8729
       221.8561       181.3931       151.1053       109.1845       45.16282
      -8.942169       49.38757       241.8356       275.1769       211.9734
       168.8910       94.09720       62.12354       121.5614       134.6451
       113.1366       170.9054       207.0510       179.7354       215.6679
       270.3911       240.0125       195.8871       207.6551       234.3129
       232.8884       235.1700       258.3513       265.8391       338.5709
       326.1539       276.1631       312.1685       363.4260       432.9187
       484.5035       457.2595       386.5349       355.9323       436.9320
       436.5896       397.3434       424.3483       478.4248       529.4883
       533.5581       475.5591       469.5120       482.7031       528.2183
       616.0901       629.5278       589.3528       544.2607       511.3904
       527.1427       542.2581       590.0869       637.1912       604.2628
       576.2185       566.9700       573.4800       638.4490       623.0393
       639.5049       699.0808       744.6433       781.5820       666.2039
       557.1951       613.0575       580.6733       528.7410       613.4618
       635.2673       562.4282       573.4380       603.0020       586.9387
       603.5380       622.7252       527.2178       491.4733       549.4402
       483.7600       444.1919       457.2322       416.8123       421.8372
       465.5596       412.2104       298.9648       325.4833       427.4082
       407.0070       295.6313       255.8416       296.6981       295.9928
       323.3937       332.8338       243.8808       182.6808       122.5139
       75.61993       85.87079       99.03018       91.88031       71.36624
       65.56166       28.62347      -23.20688      -63.49234      -53.63641
      -68.03690      -156.7345      -156.3787      -130.7470      -151.8922
      -167.7001      -209.3401      -251.3699      -293.1163      -332.7985
      -314.5664      -350.2701      -442.9906      -418.8223      -418.8645
      -438.7444      -428.1412      -489.3018      -536.1196      -576.2395
      -602.5073      -581.8799      -570.5125      -587.5552      -657.8756
      -682.8003      -661.7239      -674.3806      -741.0903      -805.7488
      -766.8164      -681.3103      -686.7217      -653.8960      -608.2327
      -679.8096      -769.3330      -764.3589      -718.3684      -737.1938
      -801.0427      -711.0347      -622.3997      -662.6819      -646.1631
      -623.7266      -704.0051      -726.2805      -700.3171      -630.7043
      -538.9246      -525.4089      -562.1509      -612.2390      -629.0061
      -572.6014      -501.0529      -446.8287      -471.6050      -455.4095
      -403.1426      -485.8883      -536.5537      -453.2725      -426.8071
      -436.9424      -385.4530      -352.7515      -332.1229      -291.2372
      -264.0188      -271.4039      -271.4940      -276.3727      -230.5686
      -172.8789      -166.9031      -137.9548      -131.0513      -147.9156
      -119.9373      -96.77196      -79.21674      -86.46449      -106.4567
      -37.39873       3.266468      -17.76411       62.68686       103.4405
       82.60651       129.2479       155.4968       116.0695       94.44159
       138.6686       155.3727       140.3048       198.9390       269.2805
       245.7847       192.6677       245.7273       239.9581       129.8511
       211.5466       328.4204       276.9445       255.0235       298.5024
       298.3521       303.3245       302.7585       245.4995       255.6196
       354.1105       330.2927       229.0475       265.3126       301.9054
       320.0441       358.7092       250.3665       176.8917       250.3424
       321.3577       273.2852       226.6427       275.5381       289.4394
       207.4658       163.3296       188.8606       166.3157       159.2073
       191.9620       170.6635       138.9329       94.99207       79.01596
       32.14273      -42.98132       15.52151       135.4033       129.9441
       71.88506       79.84308       80.74117       60.28000       61.90057
       96.80951       143.9148       148.2311       125.1295       129.1529
       91.52112       57.91745       114.7690       149.1339       108.6668
       70.06606       24.45668       27.42102       121.5463       208.3405
       155.1898       75.33087       80.61682       110.1385       98.99579
       85.65587       42.34500       8.933739       17.92546       10.25851
       21.02078       66.74345       44.40892       12.31613       24.64852
       16.32109      -8.987179       10.03616      -64.13403      -185.8650
      -165.9473      -80.45514      -79.85101      -109.2295      -100.4749
      -77.15527      -151.5668      -221.6431      -198.9362      -211.6837
      -218.9095      -183.7404      -252.4586      -335.6056      -339.9518
      -300.4617      -301.1030      -329.6878      -288.3274      -251.6749
      -351.9965      -379.3120      -311.8137      -310.1017      -332.0728
      -314.3611      -319.4204      -363.8126      -376.5183      -294.8557
      -278.0607      -380.9761      -395.4664      -327.0498      -297.6264
      -269.8735      -305.0271      -353.1744      -281.0532      -252.3579
      -331.4659      -324.9782      -276.4635      -272.4318      -315.9163
      -362.0573      -334.7516      -263.5535      -228.6842      -242.7578
      -242.9235      -241.1799      -212.8831      -210.0031      -260.2441
      -206.3288      -179.6415      -251.5761      -198.6291      -103.1915
      -132.0607      -200.3973      -259.4979      -224.6751      -112.4657
      -71.53656      -99.24744      -173.2588      -180.5208      -63.25238
      -101.1817      -141.4609      -18.09181      -42.10033      -118.9303
      -17.25837       30.69492      -9.480057       34.51352       99.50175
       16.81063      -32.55336       56.30627       109.6388       175.9964
       188.7348       86.60022       49.02844       79.64767       131.0645
       120.3214       90.07471       131.5390       160.8691       202.2524
       258.2662       213.8325       202.6400       256.6942       227.7751
       167.3077       183.5273       249.6594       304.0682       298.6847
       266.4357       204.5285       185.6075       256.4662       229.4532
       181.4283       257.9977       232.4753       206.0187       332.5793
       389.8081       333.2443       304.2279       277.7710       300.4205
       361.2178       260.9484       182.6024       315.1769       343.3412
       255.4046       221.8812       270.2611       352.9943       299.8116
       219.9741       256.4886       282.3781       237.1894       227.6332
       408.0641       525.3079       388.3330       336.3352       265.6032
      -25.27234      -191.7855      -329.8002      -296.0416       113.4197
       593.3472       1097.634       1441.004       1553.360       1509.696
       1075.126       319.3359      -279.9426      -593.2158      -825.3663
      -530.2520       422.5547       1143.910       1176.943       746.1803
       246.1575      -10.19739      -212.5148      -297.9623      -87.85358
      -152.3660      -204.0369       143.3276       318.0828       394.3139
       267.8927       255.7122       632.9922       1017.429       1389.910
       1043.448       151.8269      -109.0786      -155.4878      -155.8331
       297.8621       206.5483      -471.0512      -270.0937       212.7984
       90.19421      -47.02039       118.1013       139.2144      -164.2625
       71.46497       585.6830       383.9324       374.0959       804.3024
       525.5273      -158.5850       107.1748       1013.627       1375.948
       707.2954      -260.7929      -148.5414       144.1281      -345.5248
      -159.5474       400.8538       540.2056       618.5291       415.9868
       199.4464       201.4588      -70.76196      -433.1810      -585.4235
      -255.8497       443.5962       784.1746       715.8346       217.6178
      -192.8260       84.81033       9.623779      -455.4479      -399.0461
       74.91974       336.0544       342.4235       215.9878      -241.2060
      -375.6575      -176.8667      -208.9192       36.77588       210.9959
      -138.9098      -498.1641      -464.1779      -172.7809      -239.1031
      -546.0786      -162.0006       326.7680       134.5134      -234.8628
      -510.1199      -768.7739      -923.9775      -729.7743      -339.4482
      -304.3408      -368.4462      -532.0461      -762.5378      -393.2227
      -49.76672      -536.6705      -589.4215      -117.1553      -439.4873
      -955.8379      -965.3420      -856.7302      -521.6699      -374.8328
      -594.8270      -641.9182      -595.3937      -581.6337      -567.9737
      -382.9194      -138.0159      -523.1890      -978.0081      -875.7224
      -733.4205      -666.0865      -467.4645      -280.8226      -298.9111
      -444.2791      -565.9976      -805.4128      -919.8459      -496.6166
      -23.05646      -211.2534      -526.4419      -517.5555      -612.9148
      -650.7679      -554.8035      -252.4891       147.6479      -257.2031
      -705.2854      -481.6607      -327.5370      -297.8094      -105.5161
       10.80298      -303.3696      -584.7640      -445.4122      -380.9624
      -201.5498       99.49219       32.69299      -256.3330      -363.5590
      -205.8882      -296.2242      -569.8798      -260.5382       63.45642
      -245.2726      -385.3022      -70.18459      -21.49304      -209.9299
      -117.1524       132.3390       65.58557       76.81293       151.5269
      -291.7454      -640.8947      -398.6171      -249.6477      -125.9973
       190.8378       42.73956      -166.9444       59.90305      -51.88123
      -389.0732      -408.2063      -272.1378      -158.7914      -38.81352
       74.87445      -12.33594      -229.6815      -229.6292      -154.8080
      -279.7454      -301.1397      -89.15811      -51.89069      -62.76019
      -129.0200      -411.2898      -343.2332       66.61755       230.1476
       64.37512      -223.2606      -330.5261      -231.2931      -169.5659
      -141.1090      -3.475464       159.3359       244.1885       188.6830
      -144.1634      -391.2916      -230.9291      -75.25000      -155.3685
      -217.4810       31.69757       276.2677       215.7330       41.39499
      -99.65271       4.282166       282.7446       345.4918       299.3215
       164.9658       30.72873       72.05057       112.6746       285.8143
       428.9765       162.6479       80.62085       220.3150      -11.05392
      -72.85278       480.6367       708.8451       364.9321       125.7805
       183.3604       361.4771       322.2485       236.3667       412.1721
       487.2881       363.3340       286.9729       387.8079       506.3384
       559.6458       498.9009       396.5753       503.3923       482.3876
       328.3068       450.3193       467.2546       365.8179       425.8801
       507.8611       530.8583       489.9071       438.8394       361.7809
       183.3450       147.3516       395.9158       588.0413       486.2423
       378.1271       404.0168       282.9043       269.1853       607.4681
       610.5420       282.1798       345.5356       464.0356       328.3834
       383.4142       452.1130       385.7552       446.8756       417.3901
       388.4943       519.2052       550.5570       424.9758       357.7163
       423.1956       453.9784       483.1758       411.0858       221.6852
       246.3983       365.8140       395.7761       419.0397       358.7665
       279.7694       318.0621       379.7030       374.8079       371.1023
       495.2850       512.6157       375.5300       528.6631       722.5201
       621.4739       616.8264       632.2574       409.1165       167.2595
       154.5027       369.5554       583.0884       678.7866       645.9067
       412.6655       298.9590       517.0601       640.4965       567.0703
       598.3912       490.9078       323.9729       421.0961       598.9414
       684.2893       651.0049       561.3850       561.3484       540.4612
       425.5465       328.5625       388.8582       474.6237       421.6227
       300.7809       299.1648       371.1968       441.8698       519.7037
       451.5787       287.2935       312.1429       342.7416       236.4207
       206.1459       280.8405       318.7245       392.2686       406.4806
