     0.02500000      -1938.007       2001.444      -12345.00      -12345.00
      -30.01004       219.2149      -20.66000      -12345.00      -12345.00
       0.000000       15.83000      -12345.00      -12345.00      -12345.00
      -12345.00      -12345.00      -12345.00      -12345.00      -12345.00
      -12345.00      -12345.00      -12345.00      -12345.00      -12345.00
      -12345.00      -12345.00      -12345.00      -12345.00      -12345.00
      -12345.00      -30.19290      -68.82820       1323.000       0.000000
      -31.06700      -68.46300       0.000000       100400.0       0.000000
      -12345.00      -12345.00      -12345.00      -12345.00      -12345.00
      -12345.00      -12345.00      -12345.00      -12345.00      -12345.00
       103.0367       340.0420       160.2272      0.9263889      -12345.00
      -12345.00    -0.04749120       0.000000       0.000000      -12345.00
      -12345.00      -12345.00      -12345.00      -12345.00      -12345.00
      -12345.00      -12345.00      -12345.00      -12345.00      -12345.00
      2008       164        19         3        58
       460         6    -12345    -12345      9970
    -12345    -12345    -12345    -12345    -12345
         1         7        13    -12345    -12345
    -12345    -12345    -12345    -12345    -12345
    -12345    -12345    -12345    -12345    -12345
    -12345    -12345    -12345    -12345    -12345
         1         1         1         1         1
PACH    -12345          
        -12345  -12345  
-12345  -12345  -12345  
-12345  -12345  -12345  
-12345  -12345  -12345  
-12345  -12345  -12345  
-12345  -12345  BHZ     
ZL      -12345  -12345  
[...]
       100.3002       109.7595       121.8485       133.0464       131.8269
       128.7508       139.6079       145.7222       155.9651       170.0488
       180.3911       178.0287       184.3954       189.8067       193.6893
       201.4116       219.0084       222.0792       228.8949       235.4875
       237.5273       247.9537       264.8855       270.6790       277.3871
       278.4890       275.7677       277.8654       292.7237       300.5748
       295.5508       292.6060       299.0851       303.0992       313.7638
       323.1946       321.1375       310.4083       320.7089       324.4539
       326.8511       332.3904       332.9812       328.9396       335.7822
       338.1575       348.9991       356.4923       354.1942       364.5449
       374.2905       361.2482       367.0308       378.1639       385.0364
       381.3844       381.6052       387.5924       400.7334       400.3088
       401.7993       397.4241       396.4165       402.8832       411.6804
       401.5852       402.8660       411.6886       416.5769       403.0718
       400.5848       402.6426       409.6381       398.6323       382.0743
       365.6178       368.6241       372.6685       374.6829       358.3044
       332.7299       308.1256       316.9919       320.9573       316.4047
       295.7391       277.1165       258.1409       254.1265       231.1776
       211.3583       208.8362       205.4051       177.8754       161.5943
       136.5389       125.0004       127.4934       121.4967       85.84503
       65.91745       51.49654       42.73777       25.82443       6.997635
      -22.24278      -35.61736      -53.50360      -69.31363      -88.43597
      -105.6115      -133.6207      -150.0361      -162.5378      -176.4769
      -198.9135      -218.2498      -245.6628      -263.2716      -284.6583
      -304.9360      -325.4364      -343.3279      -367.4143      -388.2203
      -409.1018      -419.3203      -441.9250      -466.7089      -492.4349
      -502.0867      -518.9563      -529.1594      -547.5583      -564.5525
      -575.0732      -581.2246      -603.7068      -611.8264      -626.1643
      -657.2710      -758.5823      -1100.184      -1582.605      -1408.968
      -194.3184       993.9152       591.1694      -677.3884      -1276.930
      -1489.793      -1209.503      -307.0966      -186.1301      -767.5410
      -860.1787      -573.6189      -278.6748      -355.1096      -842.4377
      -1007.263      -692.6996      -224.5996      -266.2532      -795.0747
      -1088.609      -879.6685      -605.7866      -491.0291      -437.1283
      -335.8350      -489.8344      -646.9021      -583.0201      -541.2576
      -487.2914      -593.7242      -662.3989      -402.6901      -277.2750
      -277.7366      -330.6450      -304.8948      -246.8375      -282.5005
      -300.2461      -456.3105      -641.8643      -509.8794      -313.7971
      -192.4752       69.46080       156.3451      -65.40259      -411.6926
      -559.2897      -248.9121       88.69571       160.6461      -43.73053
      -94.68793      -52.17505      -102.2849       65.33661       223.6174
       41.41232       18.28973       176.1970       145.0918       105.3223
       224.5131       335.7764       415.8600       406.4861       226.9502
       102.5144       399.9935       544.8478       366.4501       418.7596
       460.1067       383.6576       446.8969       505.2317       514.5033
       457.7395       485.7539       527.7563       578.5118       664.5945
       610.7205       467.8701       504.6721       617.6028       628.9620
       606.3055       591.3121       529.7394       561.2128       608.2422
       652.0750       549.4078       505.3098       680.3699       652.0999
       459.6440       548.9833       695.3000       537.7506       379.9061
       424.3251       395.9703       436.6548       605.1052       556.3741
       298.8540       390.9354       644.6805       630.7446       385.5061
       232.8284       326.1598       431.4836       434.6362       534.5167
       522.1863       349.6099       374.6925       428.9509       235.2530
       224.2576       329.8318       300.6466       371.0044       447.7924
       380.5917       331.3222       269.8609       204.2372       137.8011
       178.1411       197.5510       138.2894       239.7926       388.1298
       349.1290       203.6314       141.3039       213.2087       166.2992
       40.68777       32.93524       93.07861       46.65268       3.823029
       43.52995       32.74845       11.06704       57.83873      -8.440994
      -40.04262      -34.57101      -55.94502      -73.97626      -57.91663
      -114.4736      -190.6519      -78.00781       27.83044      -153.7877
      -186.8504      -45.20032      -50.12109      -169.9083      -282.7166
      -356.7278      -375.4160      -321.4809      -158.6105      -155.2552
      -171.1342      -105.2350      -126.4935      -221.3373      -275.0977
      -279.9354      -281.3145      -269.5458      -174.5822      -200.9570
      -291.6941      -294.1291      -255.5070      -232.5253      -237.1875
      -258.3689      -189.9169      -136.1346      -135.4022      -195.3453
      -295.4554      -312.1279      -258.2515      -192.6035      -200.9697
      -204.7897      -111.3121      -138.2281      -126.5889      -126.4940
      -169.3949      -105.0106      -98.99042      -168.5583      -217.7227
      -153.6614      -54.40623      -45.99799      -109.2408      -193.1904
      -136.9686      -87.69739      -151.3062      -130.3696      -43.58672
      -28.12381      -90.23026      -42.85809       38.13979    -0.09786987
      -82.60004      -137.8202      -76.54175       20.31378       120.3836
       88.10793       26.45306       49.78954       71.82431       104.3027
       26.02662      -32.02057       44.87274       60.78558       188.4360
       226.1183       100.8541       161.0134       194.4184       70.89862
       132.1465       168.1133       109.6502       149.2595       198.1597
       125.8434       100.6626       171.7993       128.8021       61.42371
       191.9744       204.6278       144.7872       157.2199       85.28049
      -4.197998       77.42346       159.9358       82.27264       78.02771
       130.3984       79.80566       56.76820       13.49554       49.84427
       70.14532       11.31820       5.459320      -45.43866      -74.00452
      -45.39763      -46.53225      0.7266998      -2.332047      -71.41800
      -113.3198      -126.1359      -120.7720      -130.1699      -198.2027
      -151.5759      -107.4363      -171.9799      -214.1343      -191.2152
      -100.8600      -48.96997      -93.63940      -224.0444      -329.0401
      -291.4743      -306.1467      -339.2034      -351.6417      -374.0973
      -372.4087      -360.4021      -346.8027      -359.9098      -399.5414
      -384.5579      -401.3103      -451.9532      -440.2870      -445.4668
      -524.9275      -529.7152      -494.6783      -544.5992      -568.1617
      -481.8853      -475.8070      -570.0454      -634.9845      -597.8676
      -502.9338      -412.5017      -511.5588      -628.7421      -585.5450
      -547.5125      -562.5203      -556.7280      -583.6296      -608.7343
      -575.5454      -508.5259      -495.0868      -428.1951      -462.6221
      -559.4388      -552.7922      -480.2227      -424.7933      -454.3301
      -456.7787      -391.9882      -433.6589      -421.3689      -396.4869
      -352.4897      -309.8296      -332.1034      -314.0093      -259.9175
      -240.4623      -251.9139      -307.9153      -258.5819      -118.3110
      -86.58182      -164.3781      -163.5583      -170.5524      -167.3481
      -84.42308      -19.83865       17.56641       64.56506       11.94337
      -27.27748     -0.3709717       53.47806       65.74106       82.50879
       85.83112       110.1160       238.9922       286.0981       261.5991
       287.5383       238.4396       277.8533       297.8398       282.5134
       323.8645       343.0746       364.8596       415.6846       468.5229
       506.6483       434.2412       429.0173       504.5330       556.0627
       585.0845       606.2820       554.6521       507.1906       547.9368
       658.1052       647.8179       659.7600       695.5026       614.1443
       602.3384       754.2183       778.6550       709.8687       683.6372
       716.7334       661.4563       691.9724       770.4082       783.0386
       851.2825       817.5018       662.0405       684.3760       769.0547
       750.3184       649.4028       690.3115       751.9150       642.7131
       617.7803       752.9474       690.3254       642.6890       728.3057
       760.3125       701.1143       679.2679       674.8472       651.3545
       661.2622       656.1821       573.3162       578.7159       655.2856
       674.2325       574.6936       560.3203       586.4132       514.4502
       501.4490       628.3794       607.5132       478.8621       422.0474
       465.3000       454.8531       417.1006       417.1267       466.2233
       468.0659       427.4060       385.4404       366.0762       393.7827
       384.3848       271.3417       265.9354       286.7850       265.0443
       228.9067       213.1626       264.6812       264.8036       168.2409
       137.3077       193.7991       249.3715       191.6903       136.9863
       124.8660       180.8127       218.1539       159.6393       96.24329
       121.9718       150.1687       229.9415       245.6440       181.0432
       134.9949       91.38147       102.3940       194.3198       192.3455
       146.3817       126.6518       174.1519       142.3412       69.31873
       119.4320       228.9094       220.4391       164.1402       119.0823
       121.3886       130.7036       154.0026       183.3321       120.4095
       62.21057       168.3926       175.4192       77.07165       1.583679
       5.633484       69.30801       123.3364       129.5690       130.4085
       51.72438      -77.28278      -50.22396       51.47638      -42.83252
      -126.1646      -50.11127       28.38657      -29.06610      -61.39950
      -39.67415      -40.15167      -102.2988      -173.4996      -196.2978
      -207.7876      -234.3271      -212.9844      -174.7778      -184.0004
      -192.8181      -195.6031      -230.0184      -313.4359      -417.3696
      -369.8109      -325.9600      -399.1846      -420.7832      -368.8711
      -428.7485      -539.5688      -592.4905      -478.3528      -328.7974
      -425.4429      -601.8818      -681.1353      -809.5300      -841.1348
      -626.3275      -439.3282      -621.6670      -696.3789      -682.6682
      -811.0420      -769.9265      -763.5776      -856.0271      -737.8992
      -740.3267      -921.4717      -1025.460      -979.3894      -959.0312
      -1009.319      -959.9778      -833.1497      -789.6714      -815.8296
      -1088.498      -1240.825      -1004.456      -943.1108      -1082.837
      -1129.048      -1095.603      -1037.458      -1089.239      -1068.861
      -1109.652      -1251.890      -1188.340      -1081.788      -1182.096
      -1200.144      -1109.344      -1178.082      -1181.931      -1025.496
      -1013.683      -1129.580      -1251.676      -1267.836      -1184.569
      -1185.132      -1182.588      -1096.618      -1162.634      -1002.843
      -885.6406      -1121.928      -1090.052      -971.9526      -1077.275
      -985.2605      -842.4736      -1062.449      -1238.229      -957.5303
      -748.9639      -838.7400      -896.9727      -968.8977      -1129.677
      -843.1418      -613.6863      -748.2241      -768.1145      -754.1960
      -817.2380      -963.4841      -866.7266      -774.8469      -1079.324
      -1215.293      -906.5337      -442.4901      -419.3214      -408.9331
       19.48743       16.03003      -378.6533      -374.1174      -340.8259
      -457.9612      -508.7739      -575.2205      -562.2402      -353.0631
       57.85358       351.0963       316.5856       170.1052       10.72089
       25.15082      -221.8505      -425.7261      -191.7854      -385.5569
      -414.1388       226.5867       575.5413       687.0625       879.6741
       1014.160       857.7871       493.8898       388.5864       463.3690
       341.8704       240.9165       378.8125       677.8115       958.3638
       938.1484       825.1094       751.9250       454.0148       408.3354
       672.2446       875.1079       1116.252       1258.635       1038.195
       960.0210       1347.713       1523.340       1106.413       760.8425
       853.9045       1050.010       1046.961       1116.984       1315.179
       1410.327       1376.890       1163.452       1091.484       1469.236
       1788.248       1600.812       1234.927       1231.048       1253.894
       1215.979       1347.308       1653.652       2001.444       1938.253
       1471.516       1118.346       1024.623       1101.604       1374.559
       1737.115       1772.102       1608.552       1617.294       1602.819
       1546.313       1546.772       1483.571       1744.434       1899.835
       1260.879       934.7256       1369.432       1560.948       1656.275
       1886.313       1727.947       1278.391       1206.614       1413.239
       1400.399       1368.320       1325.825       1177.763       1254.409
       1289.903       1072.585       1095.596       1322.046       1385.297
       1309.653       1275.731       1366.116       1272.282       1038.953
       1157.659       1330.664       1061.623       732.0349       579.9016
       604.5186       793.2944       1037.169       1104.500       920.6973
       959.3943       1036.552       901.7632       928.1892       844.4133
       642.9933       645.6027       647.2303       538.7277       423.3232
       335.8824       352.9329       470.9849       551.4844       730.7256
       830.1458       594.5054       358.2632       181.4556       35.79967
      -11.35897      -22.44537       55.95618       187.4575       245.4310
       118.8307      -77.42529      -151.2996      -159.5801      -204.3925
      -136.3263      -160.7070      -202.5475      -67.49689      -191.8199
      -324.5637      -255.8296      -377.9979      -508.0878      -515.4824
      -658.2183      -739.3213      -657.3381      -747.9214      -814.4985
      -635.6622      -539.6167      -862.7490      -1120.896      -897.5088
      -847.5227      -980.9595      -1019.218      -1069.348      -1007.914
      -950.9497      -1000.087      -1041.164      -1128.777      -1261.965
      -1231.978      -1168.697      -1225.869      -1271.033      -1371.283
      -1555.169      -1562.162      -1500.209      -1527.646      -1500.774
      -1408.203      -1454.152      -1645.514      -1666.430      -1492.201
      -1406.845      -1438.579      -1477.434      -1511.327      -1706.573
      -1901.826      -1810.030      -1776.467      -1861.916      -1805.799
      -1616.992      -1497.885      -1663.333      -1837.017      -1869.251
      -1835.009      -1689.632      -1626.014      -1682.844      -1668.492
      -1625.755      -1689.457      -1718.402      -1689.844      -1697.928
      -1623.205      -1557.887      -1767.367      -1938.007      -1877.936
      -1745.243      -1622.722      -1605.124      -1639.330      -1544.175
      -1518.734      -1532.564      -1501.083      -1500.380      -1424.670
      -1316.996      -1327.876      -1336.793      -1236.697      -1251.458
      -1381.373      -1336.694      -1317.553      -1363.427      -1277.541
      -1082.845      -942.2754      -891.4927      -940.7405      -966.5498
      -1017.586      -1186.021      -1105.958      -881.7041      -827.3408
      -637.6914      -422.4213      -487.7305      -598.4395      -595.2587
      -581.5498      -453.2993      -301.1806      -276.5776      -297.8456
      -346.1926      -393.1946      -291.4351      -53.04382       70.88686
       36.15872       10.68158      -37.08276      -73.74367       34.72241
       168.9832       180.5750       149.6841       227.6667       503.9319
       602.8979       399.8210       339.9336       455.3838       539.6218
       664.6931       824.4666       856.4204       823.5647       854.2456
       837.6162       794.0664       861.7246       1087.159       1228.085
       1203.269       1208.583       1146.435       1076.048       1140.256
       1222.589       1368.384       1528.622       1582.229       1480.356
       1422.335       1458.209       1487.046       1450.218       1374.241
       1418.478       1534.578       1608.982       1680.591       1698.906
       1674.967       1640.228       1630.352       1640.812       1704.996
       1752.591       1805.591       1809.943       1701.256       1693.084
       1772.937       1799.001       1684.775       1596.886       1675.504
       1674.638       1630.492       1605.626       1635.757       1670.411
       1647.656       1619.027       1570.967       1587.626       1628.889
       1607.538       1641.834       1629.923       1565.264       1549.917
       1569.612       1559.565       1508.655       1384.840       1303.645
       1323.755       1356.975       1333.136       1294.016       1210.074
       1092.765       1014.493       961.6138       871.3298       871.6406
       957.9055       986.0767       849.6558       831.3933       855.6296
       726.4513       632.0248       572.6648       513.4832       506.6320
       472.9062       413.7285       276.2081       194.6584       201.0994
       250.2878       351.5546       349.5738       214.9900       175.1872
       140.9510       44.01770      -40.88344      -59.99648      -54.52606
      -96.48303      -223.3650      -283.3658      -274.7642      -252.3141
      -299.9514      -287.7766      -231.5327      -273.8423      -343.1814
      -372.4797      -470.5538      -491.0293      -453.1649      -457.4536
      -425.5042      -345.0149      -393.3417      -489.6201      -593.0891
      -656.5208      -585.3929      -457.4991      -450.7584      -521.1384
      -634.5583      -661.2684      -599.2401      -598.3024      -646.9460
      -675.6567      -724.9978      -725.7737      -676.2944      -578.6952
      -586.9888      -636.2888      -608.8650      -653.0156      -744.3867
      -704.3342      -675.8928      -727.5164      -665.5637      -515.7119
