     0.02500000      -1615.668       1371.266      -12345.00      -12345.00
      -29.99499       223.8050      -24.82000      -12345.00      -12345.00
       0.000000       18.63000      -12345.00      -12345.00      -12345.00
      -12345.00      -12345.00      -12345.00      -12345.00      -12345.00
      -12345.00      -12345.00      -12345.00      -12345.00      -12345.00
      -12345.00      -12345.00      -12345.00      -12345.00      -12345.00
      -12345.00      -30.20850      -67.28640       945.0000       0.000000
      -31.06700      -68.46300       0.000000       100400.0       0.000000
      -12345.00      -12345.00      -12345.00      -12345.00      -12345.00
      -12345.00      -12345.00      -12345.00      -12345.00      -12345.00
       147.5812       50.14154       229.5449       1.326886      -12345.00
      -12345.00     -0.1677938       90.00000       90.00000      -12345.00
      -12345.00      -12345.00      -12345.00      -12345.00      -12345.00
      -12345.00      -12345.00      -12345.00      -12345.00      -12345.00
      2008       164        19         4         2
       620         6    -12345    -12345     10153
    -12345    -12345    -12345    -12345    -12345
         1         7        13    -12345    -12345
    -12345    -12345    -12345    -12345    -12345
    -12345    -12345    -12345    -12345    -12345
    -12345    -12345    -12345    -12345    -12345
         1         1         1         1         1
PAGA    -12345          
        -12345  -12345  
-12345  -12345  -12345  
-12345  -12345  -12345  
-12345  -12345  -12345  
-12345  -12345  -12345  
-12345  -12345  BHE     
ZL      -12345  -12345  
[...]
       538.8650       503.7329       532.5955       564.2913       555.3689
       548.6560       570.0154       596.3118       605.3408       598.0305
       588.5382       604.8745       629.0264       626.5703       632.0739
       666.0669       676.3326       654.0468       647.9893       665.4329
       665.1863       645.6296       671.8740       678.1780       646.3787
       658.2141       667.6844       638.6770       639.0947       638.9473
       627.3107       638.7371       637.3787       613.8970       609.0082
       589.2483       583.7528       592.8997       573.8507       542.7793
       541.9155       545.5088       517.1815       474.2461       481.6259
       525.8953       498.6996       409.8367       386.2661       397.6039
       397.9948       379.5800       359.1324       335.0388       319.6039
       304.8891       290.0732       256.2084       217.0286       222.4656
       228.7722       192.1850       177.6115       183.2495       179.7486
       124.1266       67.96338       72.72754       96.93472       78.38004
       48.75193       30.58246      -1.980370      -15.88835       28.09906
       36.68468      -24.40540      -69.96774      -74.89157      -89.06232
      -86.51431      -64.74017      -83.10583      -120.9405      -124.1652
      -133.4721      -164.2419      -146.3332      -122.3453      -151.7865
      -184.8937      -166.0373      -141.6053      -152.0820      -172.8856
      -188.2444      -184.5442      -176.5030      -188.2142      -203.3855
      -214.2098      -197.8376      -184.5751      -198.7476      -203.0361
      -210.9204      -216.4363      -174.7582      -170.0725      -218.2107
      -200.6326      -166.9267      -197.9164      -210.9943      -183.2527
      -161.4940      -168.2631      -185.6582      -162.5385      -135.1632
      -132.9006      -124.5212      -106.2025      -108.7184      -116.3893
      -82.11221      -33.07822      -39.01654      -55.53241      -45.16567
      -34.68416      -31.38950      -16.33488       19.70131       28.80383
     -0.1825027      0.8820496       41.92233       75.27415       50.41724
       12.30421       18.76851       61.60364       84.21892       77.88846
       66.15469       68.31113       114.5774       159.0734       128.4443
       129.3567       206.9961       373.2893       519.4880       534.3612
       419.6747       343.5510       433.6365       439.3045       148.1682
      -108.8595      -121.3745      -101.2274      -145.0468      -95.91089
       210.0232       502.6579       153.2799      -260.4997      -7.528564
       428.6542       629.7023       338.7944      -231.7849      -174.7373
       327.9354       617.6857       500.8698       53.44791      -91.30884
       307.4110       469.0816       224.1899       31.08163       46.82776
       191.1577       88.94440       30.01721       491.3231       541.1718
      -103.3535      -361.7777      -25.08020       355.9712       644.7046
       541.5647       20.79500      -211.9058       185.3571       493.4150
       197.3609      -67.74890       245.6190       467.9347       217.4265
       65.67969       390.9164       621.1343       310.1481      -90.03217
      -15.47961       302.2012       387.4672       264.9554       289.4207
       294.9600       143.9319       87.88733       202.9176       389.1304
       525.5984       283.2368       101.6299       404.1921       606.1923
       415.2599       194.1135       186.1937       287.4619       176.6852
       87.34724       53.76772       2.181946       123.7921       256.3789
       180.7958       185.0120       347.6854       372.1729       85.69116
      -188.1723      -170.7388      -90.58056      -53.94101       6.978699
      -75.42566      -83.18095       11.99905      -54.94940      -179.6004
      -172.6209      -105.1819      -80.47925      -298.3286      -501.3222
      -349.2822      -179.6979      -319.0098      -383.8671      -339.7877
      -424.7505      -502.0544      -407.7314      -429.9502      -626.1288
      -591.1024      -348.2336      -431.3740      -752.7065      -846.9579
      -628.5503      -528.8616      -585.6274      -680.5698      -863.2905
      -965.7258      -892.9609      -902.1777      -909.0068      -868.2993
      -838.0574      -862.5151      -807.3169      -650.6670      -638.8669
      -950.4961      -1178.944      -987.9028      -706.6729      -823.8398
      -1042.378      -1071.495      -1092.668      -1113.657      -992.6504
      -944.3130      -963.5781      -981.7202      -957.4980      -853.6340
      -757.7629      -830.1838      -824.9961      -708.5161      -955.6357
      -1353.577      -1286.515      -1042.900      -872.1899      -800.7537
      -787.5913      -837.2273      -1070.833      -1212.817      -1001.876
      -787.9329      -719.6331      -710.9406      -685.4248      -579.4082
      -543.5967      -793.1250      -945.3809      -780.3901      -651.1572
      -660.4729      -625.9077      -719.5105      -907.0837      -864.2543
      -629.3162      -647.1343      -800.7848      -677.0496      -438.9221
      -557.1188      -695.4795      -529.5834      -434.5239      -508.3365
      -354.3433      -109.4232      -120.5786      -309.1104      -332.9762
      -285.2688      -439.6345      -585.9196      -480.1797      -302.6706
      -9.360657       140.2399      -3.778107      -113.5707      -15.99539
       72.59260       38.93042      -101.7056      -100.7390       54.82373
       175.7521       184.9443       205.2561       226.2162       225.4883
       165.9030       112.1683       150.5612       202.5925       161.9827
       250.6461       369.9774       342.6135       301.4363       383.4839
       478.2739       497.3513       409.4729       400.0734       387.2802
       330.1808       491.3413       708.9364       691.8312       578.8274
       634.9705       788.1934       714.5620       582.2314       588.1024
       646.3535       574.5662       534.3816       721.8672       936.8918
       927.9351       825.2585       828.6592       928.0198       930.7212
       824.2549       805.8662       957.9619       1021.163       951.9919
       884.1025       899.0859       955.6809       916.6013       863.7075
       1011.157       1052.134       900.7278       843.1150       975.5195
       1073.971       1031.233       994.7441       1047.290       1141.494
       1250.963       1252.606       1186.658       1072.314       996.7759
       1081.702       1200.909       1174.507       1100.958       1097.742
       1178.093       1144.583       1067.244       1172.688       1222.752
       1070.994       1070.969       1146.233       1119.251       1106.127
       1092.157       1046.226       1077.865       1125.578       1088.704
       1060.312       1113.946       1023.475       931.7422       971.4216
       952.9702       926.8535       980.7202       943.6445       940.1045
       1031.338       1021.490       970.4871       969.8914       907.1565
       798.4907       733.2795       789.0591       846.2886       768.5378
       655.3811       699.8555       765.9543       721.8618       689.6565
       688.4299       629.4215       622.4424       604.9396       485.6528
       478.7773       632.4905       662.8015       529.0103       400.4509
       381.8168       388.9862       325.3600       264.8879       276.5980
       233.1282       124.6438       59.61841       126.5261       168.5441
       121.1631       115.0568       129.4008       47.41992      -47.14600
      -39.49631      -4.559460       10.86004      -3.138214      -80.30199
      -92.85355      -67.80829      -195.5197      -349.2628      -299.2647
      -229.9531      -242.2606      -296.1804      -401.0404      -471.3851
      -467.6931      -454.2531      -479.8605      -491.4827      -426.8679
      -464.0049      -559.3469      -523.6677      -558.1963      -676.2292
      -673.7826      -636.8098      -749.5935      -866.1169      -858.5947
      -895.4429      -940.2791      -920.9341      -896.9043      -910.8264
      -928.3608      -896.2417      -917.6802      -944.4487      -890.9819
      -903.9004      -990.7217      -1061.355      -1024.544      -908.7505
      -987.7612      -1131.821      -1128.286      -1093.678      -1073.347
      -1069.523      -1034.260      -1024.088      -1140.754      -1155.986
      -1044.173      -1017.184      -1003.676      -954.1411      -1025.243
      -1128.696      -1132.661      -1124.070      -1191.334      -1174.154
      -1100.260      -1139.670      -1145.106      -1143.589      -1184.203
      -1150.711      -1117.815      -1039.582      -1011.488      -1078.659
      -1100.461      -1139.337      -1168.888      -1084.025      -1052.256
      -1032.176      -957.9536      -996.2878      -1049.594      -1009.027
      -1004.482      -928.6692      -842.5847      -900.0220      -924.0776
      -885.6123      -898.0093      -864.1616      -857.1226      -882.5508
      -889.8323      -880.3110      -835.0813      -820.4785      -820.0811
      -813.1726      -861.4951      -828.2085      -760.1538      -846.0310
      -896.5391      -762.0042      -794.2927      -908.9497      -814.0845
      -782.1028      -726.7407      -604.2120      -647.8635      -616.4451
      -582.2842      -714.5743      -635.4341      -488.7622      -629.1025
      -643.9030      -482.8506      -496.8142      -473.0280      -331.8619
      -302.4465      -326.8506      -349.4221      -320.2623      -264.7965
      -307.3581      -209.6817      -103.2326      -252.1096      -255.7784
      -169.5512      -245.5569      -219.6524      -120.9305      -122.0897
      -157.2860      -126.4343      -51.41579      -27.25912      -27.40413
      -56.59799      -20.86670       118.4501       188.5675       178.1656
       157.9899       121.0855       91.39258       118.4251       187.8168
       195.5527       228.8237       271.0145       297.6473       386.6589
       444.2640       369.8060       354.4032       469.4556       458.7517
       446.6895       621.0819       643.8374       537.0732       591.8672
       690.3706       696.3337       733.0354       775.4453       813.7280
       814.7183       777.6709       903.3052       1005.369       844.7737
       799.6165       987.0559       1035.550       931.1013       979.5684
       1054.424       1075.359       1083.300       1086.390       1132.556
       1124.021       1118.400       1196.849       1227.572       1238.978
       1227.604       1242.394       1237.054       1180.452       1207.134
       1259.104       1303.124       1324.902       1240.265       1258.742
       1342.086       1371.266       1354.988       1285.053       1241.235
       1265.276       1286.976       1236.176       1264.708       1350.603
       1281.366       1270.336       1288.674       1235.528       1245.912
       1299.959       1272.990       1150.775       1137.354       1243.843
       1253.129       1169.375       1156.179       1219.945       1237.788
       1252.712       1281.883       1241.863       1167.729       1157.530
       1209.139       1195.915       1084.632       1051.479       1106.023
       1093.186       995.4810       940.3081       983.4568       1042.104
       1040.287       989.4961       903.7959       830.7690       881.2544
       977.8774       921.3643       846.6135       889.8254       868.1526
       750.0375       668.9490       638.0883       645.4786       646.8887
       575.4049       547.8784       590.4900       584.4778       434.7281
       312.2238       355.4945       410.6098       378.5034       225.3844
       89.26520       177.8909       266.4365       215.5712       116.8302
      -1.819946      -27.43918       75.86200       76.66519      -66.30280
      -187.0439      -139.0547      -86.73560      -215.0598      -277.7452
      -163.8473      -156.3478      -299.3405      -302.0664      -247.7223
      -369.2306      -442.8975      -438.1146      -466.5194      -388.6384
      -405.8743      -554.3342      -544.0714      -540.3857      -603.4575
      -625.0107      -623.0690      -620.1118      -704.5242      -803.8689
      -773.2871      -639.7709      -603.7373      -831.7754      -963.9570
      -871.1543      -871.0039      -999.4402      -1095.768      -1075.225
      -1041.561      -1046.137      -1037.363      -1155.761      -1223.646
      -1162.381      -1176.980      -1187.138      -1181.137      -1230.563
      -1279.740      -1355.447      -1371.325      -1333.584      -1393.029
      -1470.657      -1402.632      -1342.165      -1375.957      -1433.490
      -1502.358      -1454.232      -1430.887      -1557.725      -1565.803
      -1511.012      -1528.387      -1528.172      -1452.183      -1407.517
      -1455.929      -1488.376      -1462.305      -1518.657      -1615.668
      -1550.397      -1422.158      -1473.985      -1550.406      -1489.396
      -1465.873      -1499.083      -1394.116      -1313.339      -1443.390
      -1484.420      -1300.794      -1305.874      -1291.258      -1182.062
      -1239.416      -1164.957      -1113.241      -1146.092      -1097.286
      -1136.962      -1043.345      -961.3472      -1004.574      -964.4629
      -957.6035      -904.3533      -807.7239      -820.8501      -804.8672
      -782.4236      -706.6968      -642.1168      -673.6184      -590.9846
      -558.1581      -582.2163      -461.3489      -467.5916      -455.7151
      -368.5398      -361.5642      -235.9156      -232.4154      -330.7533
      -172.5765      -161.6409      -234.9947      -91.50399      -39.79208
      -8.309143       146.8274       138.5207       105.0718       191.9937
       186.6245       180.3605       215.2155       243.8285       291.8680
       302.7217       402.3811       451.3976       404.6729       428.9705
       466.6467       521.1074       582.5018       602.2769       603.6359
       616.6140       688.3020       727.2217       706.4658       774.5229
       822.3364       781.2737       807.9187       754.2930       726.3584
       803.6445       809.8191       897.5420       941.4282       837.9009
       863.9146       947.3884       945.2175       836.5100       766.7896
       898.1086       965.0588       871.5164       947.5767       1013.649
       867.8618       892.2576       993.1279       899.1406       894.1179
       926.6875       823.6990       830.4133       859.8003       847.4592
       951.7395       982.9480       918.6941       927.6416       947.5588
       941.4946       964.7969       892.0137       800.0776       889.2659
       909.6440       762.8125       826.4937       948.8794       931.1228
       925.8677       822.4839       831.5051       907.4587       749.2754
       770.8953       807.8684       676.3896       706.5286       689.9431
       605.2970       649.4424       674.7275       704.3350       682.5188
       546.5022       534.0225       618.9948       544.7898       500.0603
       562.4413       498.2043       542.3052       524.2363       315.9355
       419.7949       475.4783       384.6995       444.3994       388.4221
       359.3148       364.7388       350.0319       446.8318       405.7490
       337.9592       345.6699       339.4137       343.3141       263.9962
       248.1823       303.2261       237.5781       193.2810       216.9241
       298.4350       242.1011       203.2124       318.2552       217.6277
       156.6096       287.5266       221.6299       176.0071       270.2668
       230.8889       132.3053       112.9262       154.3475       181.4343
       96.33148       78.78937       188.9832       157.9533       96.46902
       150.6414       130.8612       77.69791       75.58972       111.2150
       106.3063       7.255730      -3.173080       64.98831       37.69341
      -48.50402      -46.34315       27.72610      -37.61812      -92.76624
      -31.96893      -16.62430      -4.484314      -40.54147      -97.02681
      -57.29376      -56.91208      -98.15973      -115.0624      -47.93424
       6.721466      -131.0251      -203.6688      -152.4119      -170.6903
      -165.4594      -156.5118      -160.6709      -170.8654      -176.8760
      -203.0269      -272.1470      -239.0911      -220.7502      -305.9197
      -317.4676      -303.0182      -325.4038      -346.0505      -363.9010
      -360.8031      -390.5930      -460.3175      -448.3868      -459.9563
      -544.1310      -462.7439      -422.5612      -542.4077      -428.7437
      -364.2419      -544.9492      -525.5923      -438.5090      -497.5310
      -535.1982      -536.5272      -559.5813      -585.5598      -565.9147
      -556.3352      -567.4521      -586.8491      -582.9197      -556.9355
      -610.0525      -634.4846      -633.0181      -663.2627      -644.2158
      -647.6240      -686.9706      -660.0750      -657.4709      -628.0909
      -595.3545      -650.5062      -678.3087      -603.7480      -564.8380
      -557.1143      -513.1418      -513.9557      -560.8198      -557.5547
      -551.2169      -530.9860      -589.2590      -609.2695      -566.4631
      -531.4941      -501.7727      -496.6597      -475.2825      -458.9702
      -515.6475      -535.2053      -523.4153      -472.4802      -434.5018
      -387.6301      -364.3184      -389.1871      -418.9805      -401.9468
      -408.8888      -425.4248      -376.3458      -310.1042      -308.0052
      -337.0659      -333.4729      -285.2078      -291.7687      -321.2195
      -304.6968      -273.8925      -252.0743      -230.4398      -230.8325
      -195.5885      -172.9457      -208.4579      -178.9649      -117.0017
      -146.9218      -148.8206      -97.54968      -72.05612      -69.39659
      -25.80566       25.25233      -22.38596      -108.4142      -62.26488
      -35.21758      -27.23103      -4.737297       12.81496       42.87427
       55.72626       85.35956       127.9621       119.3669       118.4154
       138.1516       158.3715       165.1761       205.7029       242.6122
       254.4669       257.8690       296.4960       306.4182       299.2321
       348.6874       409.4583       370.4266       320.6217       315.0361
       328.1766       306.5563       301.8262       327.9492       371.2360
       407.6299       420.2285       364.6045       328.5918       358.2344
