     0.02500000      -1122.353       1211.361      -12345.00      -12345.00
      -29.99499       223.8050      -24.82000      -12345.00      -12345.00
       0.000000       18.63000      -12345.00      -12345.00      -12345.00
      -12345.00      -12345.00      -12345.00      -12345.00      -12345.00
      -12345.00      -12345.00      -12345.00      -12345.00      -12345.00
      -12345.00      -12345.00      -12345.00      -12345.00      -12345.00
      -12345.00      -30.20850      -67.28640       945.0000       0.000000
      -31.06700      -68.46300       0.000000       100400.0       0.000000
      -12345.00      -12345.00      -12345.00      -12345.00      -12345.00
      -12345.00      -12345.00      -12345.00      -12345.00      -12345.00
       147.5812       50.14154       229.5449       1.326886      -12345.00
      -12345.00     -0.3554001       0.000000       0.000000      -12345.00
      -12345.00      -12345.00      -12345.00      -12345.00      -12345.00
      -12345.00      -12345.00      -12345.00      -12345.00      -12345.00
      2008       164        19         4         2
       620         6    -12345    -12345     10153
    -12345    -12345    -12345    -12345    -12345
         1         7        13    -12345    -12345
    -12345    -12345    -12345    -12345    -12345
    -12345    -12345    -12345    -12345    -12345
    -12345    -12345    -12345    -12345    -12345
         1         1         1         1         1
PAGA    -12345          
        -12345  -12345  
-12345  -12345  -12345  
-12345  -12345  -12345  
-12345  -12345  -12345  
-12345  -12345  -12345  
-12345  -12345  BHZ     
ZL      -12345  -12345  
[...]
       526.4023       532.7860       533.8989       545.4907       547.5121
       545.0785       549.2487       559.1561       561.7659       562.3895
       560.1910       560.2521       562.9438       562.4275       553.1051
       552.3425       552.8633       548.1052       538.5786       536.6987
       524.4794       516.5853       504.1451       498.5548       483.8826
       474.7405       464.8213       453.0553       439.2762       430.1628
       413.4767       398.8130       385.2446       374.5216       356.4329
       342.1537       330.6282       322.3345       300.5516       285.5270
       277.3270       258.8344       239.5939       230.4461       213.1281
       196.6028       182.7191       175.4700       155.9385       139.3921
       125.2908       113.4019       98.93512       86.66051       65.37216
       53.32211       39.60069       20.32604       8.612389     -0.3158150
      -16.50215      -28.49391      -36.78912      -46.73247      -64.76840
      -77.33801      -86.76569      -95.63989      -105.6239      -111.8482
      -124.7719      -136.5531      -141.8391      -149.3041      -163.1499
      -169.0740      -173.5900      -183.6606      -196.9500      -199.8829
      -207.3281      -213.4385      -224.5568      -226.8308      -234.7448
      -241.8505      -246.6973      -247.5081      -258.7228      -260.0071
      -267.0840      -274.2340      -284.0156      -285.4404      -298.8444
      -301.7880      -309.3711      -321.6704      -333.0769      -331.8810
      -342.8242      -354.0808      -366.4625      -372.9189      -386.0013
      -398.4248      -403.7246      -416.1337      -430.6484      -434.5955
      -444.2437      -452.1410      -464.8555      -475.3230      -479.1917
      -490.8971      -504.6777      -512.2660      -521.0889      -526.2156
      -531.8286      -540.7505      -553.6753      -558.6707      -565.8108
      -571.5286      -580.8264      -590.1440      -594.5840      -602.4097
      -611.3386      -619.7683      -621.2123      -624.9429      -641.6670
      -646.2400      -647.8387      -651.2180      -666.1309      -669.2329
      -665.5112      -665.5900      -673.7185      -679.2043      -677.1499
      -674.4358      -678.2625      -683.8945      -680.2921      -672.7046
      -674.0135      -672.4021      -671.1967      -667.4175      -665.4282
      -659.9141      -651.9473      -656.5474      -650.8224      -637.7625
      -641.9644      -639.3458      -633.3932      -624.7849      -614.3717
      -615.1143      -611.7966      -602.8021      -593.0269      -586.6893
      -580.5371      -566.8167      -557.5854      -547.7874      -539.7740
      -527.6733      -513.0135      -503.1478      -488.8323      -473.8340
      -462.6602      -441.7451      -427.1421      -412.2676      -392.7621
      -378.7732      -354.9829      -329.7892      -312.5236      -294.2823
      -274.3965      -250.7990      -222.8672      -199.7466      -176.9348
      -149.6862      -123.3124      -92.22795      -65.20376      -36.61288
      -12.30609       13.17285       43.15491       69.61768       94.66412
       124.6900       148.9366       170.7346       193.9993       221.5341
       242.7239       268.5042       290.2234       310.9088       332.1631
       361.9335       376.5327       389.2054       406.6057       428.1947
       443.9279       456.8070       469.5343       488.9421       505.0686
       514.0237       523.7012       541.7527       549.7273       556.8680
       572.3573       581.8926       583.3217       600.1609       611.6001
       610.9762       618.6099       630.5035       643.5181       646.7988
       652.5732       664.6195       668.3765       671.9058       678.9216
       683.5212       688.2041       692.2798       690.6050       693.6328
       699.6277       704.3875       703.2251       704.2820       704.1174
       703.6426       701.7744       694.3171       696.2341       698.2368
       688.3257       684.6943       682.8584       683.8796       671.0017
       665.4780       675.5620       665.2926       650.0886       651.5663
       646.6362       633.1097       623.5895       623.1226       616.9402
       603.6392       601.4265       598.3191       591.0240       578.5442
       569.1289       561.7206       553.1953       547.5586       539.0996
       526.1371       516.5221       508.1918       497.1947       486.7871
       477.9009       471.6798       457.8464       448.3855       447.6581
       431.2626       417.7567       411.2603       399.8203       388.8739
       379.4014       366.9246       356.3621       348.8646       336.6461
       323.7264       308.9187       298.9328       292.2538       280.3367
       260.2375       256.0090       247.8105       227.3491       213.6448
       214.1759       199.5192       180.5282       165.1571       155.2897
       142.2197       136.0776       121.1285       110.2581       95.44003
       82.59680       72.95798       55.72362       43.19016       43.85154
       26.29452       8.656863       1.087982      -5.039589      -16.78691
      -29.04288      -35.85062      -44.46921      -56.14719      -66.38461
      -75.29118      -83.26221      -87.83276      -95.35333      -105.5587
      -115.3730      -121.9772      -129.2250      -133.1262      -143.8450
      -152.4960      -156.7039      -161.3385      -169.3982      -171.1728
      -174.0931      -177.9271      -187.9062      -190.9330      -198.7756
      -196.5407      -200.8536      -213.5158      -218.5823      -219.8916
      -229.6840      -229.8971      -234.5754      -244.0505      -248.2507
      -249.2615      -260.0309      -265.8889      -271.0251      -275.7671
      -289.7129      -293.6703      -298.5620      -305.0966      -314.1770
      -324.4243      -330.3179      -331.5189      -341.4861      -351.5356
      -359.9487      -359.0166      -364.5317      -375.7791      -382.1152
      -381.2897      -391.0270      -394.8488      -395.1694      -401.5519
      -406.7635      -406.3428      -408.3718      -415.2878      -419.6782
      -418.3556      -422.3213      -425.2482      -427.7139      -430.3694
      -431.0938      -433.6993      -442.7085      -442.1962      -439.8333
      -450.0542      -457.1857      -458.6637      -463.7872      -471.7764
      -476.5554      -479.4026      -486.0071      -495.4272      -497.8396
      -501.5309      -510.1293      -516.4526      -521.2300      -531.6721
      -537.2582      -540.3193      -546.8037      -548.2239      -556.2715
      -566.4060      -569.3940      -570.2830      -573.9148      -577.6704
      -578.6641      -581.9453      -589.4801      -590.9778      -595.7117
      -594.9551      -600.9624      -605.3303      -602.7583      -602.0973
      -609.1133      -610.0759      -609.0681      -602.9402      -611.6216
      -614.4258      -608.0397      -602.2615      -608.4709      -601.0767
      -595.6890      -591.4480      -592.4880      -584.6957      -575.0923
      -564.9954      -559.5129      -557.7139      -551.1686      -538.1853
      -532.8628      -522.8607      -517.8940      -507.0258      -496.3737
      -487.5168      -474.8083      -461.4402      -452.9857      -437.2043
      -420.7335      -410.6726      -399.3203      -378.4573      -367.5098
      -356.5677      -332.7438      -313.8937      -307.1600      -288.5367
      -262.6614      -239.9022      -222.2726      -200.8967      -177.8446
      -160.1519      -143.6700      -124.5983      -101.2412      -76.35608
      -55.46791      -39.66361      -16.31249       16.30415       38.51935
       54.65381       79.85202       102.6478       118.9167       148.7245
       171.8450       190.6521       216.4921       248.9630       267.6028
       292.1807       321.0480       344.6219       361.0430       394.9644
       421.6968       441.5157       460.6294       492.1204       513.9568
       537.4595       555.5117       582.3000       603.3214       630.4700
       648.2466       671.5938       691.9016       709.8269       721.3477
       745.8877       760.8818       775.1416       786.0486       803.7178
       813.1448       826.4570       841.7971       854.8755       861.2456
       873.8569       885.1460       895.3706       897.2180       904.1365
       910.0615       916.4968       914.5737       916.7656       920.7534
       927.4041       922.6370       922.8472       924.4109       921.7444
       914.6467       915.6135       911.6326       903.7937       893.1711
       891.3994       885.3027       876.2124       872.2771       868.7534
       862.0659       857.5454       846.7678       836.2356       826.8638
       817.7305       802.1194       792.8816       780.8499       775.5579
       766.3796       754.5728       742.2852       733.7944       719.6836
       710.9470       693.0946       684.0634       674.8198       662.2124
       644.2892       638.4790       629.9497       612.2542       599.5552
       594.1509       574.0533       561.0254       551.7391       539.9935
       523.5094       512.9299       500.8433       486.7389       470.1289
       461.1289       439.9757       428.8995       415.4543       408.2634
       393.0333       380.6317       367.3248       362.2086       342.9664
       334.4318       324.6747       315.7631       301.1659       293.3945
       283.5225       277.8287       263.5068       255.2869       241.1791
       236.3486       220.9180       207.3303       198.7549       190.2721
       172.6437       169.0092       156.0616       139.9680       124.1508
       119.8596       100.7305       88.18805       69.42848       58.20785
       38.06778       24.03981       4.631069      -7.513412      -29.55544
      -41.37822      -61.07889      -74.70139      -98.26978      -115.0572
      -140.1369      -151.7731      -177.5059      -199.8011      -217.0691
      -230.5223      -256.8069      -273.0249      -290.4017      -307.8043
      -331.7736      -347.9316      -369.4194      -386.1074      -407.4397
      -428.8595      -449.8027      -461.8342      -480.2286      -498.0837
      -518.0459      -532.4286      -549.7773      -566.3032      -587.9351
      -603.9774      -621.4597      -634.2632      -652.3376      -668.6294
      -688.4512      -699.1709      -716.4556      -728.1804      -744.4844
      -753.9529      -769.9497      -781.7009      -799.5022      -813.7607
      -829.0046      -834.3804      -852.2847      -861.2329      -867.5251
      -873.8608      -893.3982      -900.5613      -907.8804      -916.0479
      -925.4583      -926.5574      -939.5696      -947.6724      -956.0178
      -960.9561      -968.0513      -970.4551      -983.0928      -989.1577
      -992.7419      -989.3726      -998.5510      -1007.357      -1009.142
      -1003.502      -1010.243      -1013.427      -1021.756      -1021.243
      -1016.266      -1016.495      -1024.096      -1025.614      -1025.550
      -1021.517      -1021.347      -1018.339      -1012.740      -1011.087
      -1009.431      -1002.104      -995.2754      -988.2397      -976.9856
      -971.6611      -969.4956      -958.4644      -943.7429      -936.8574
      -931.5254      -918.9841      -906.1768      -895.8594      -880.7981
      -865.8464      -856.2202      -843.8059      -827.7249      -813.1265
      -800.1133      -779.7114      -761.4946      -750.2993      -730.2930
      -710.9258      -700.9407      -679.0452      -658.8400      -641.0748
      -621.2717      -599.8438      -576.9995      -555.1582      -531.0049
      -501.9204      -480.4556      -462.2217      -432.0453      -402.6625
      -380.7839      -354.6597      -322.5555      -295.4900      -270.6058
      -242.8731      -213.5259      -185.9912      -155.6619      -124.3014
      -95.42706      -67.96667      -38.05638      -7.897583       24.29749
       50.93475       80.23669       110.5120       143.8674       175.0215
       204.8864       234.8478       269.8577       299.6503       330.8806
       360.1465       392.0540       423.3361       457.5151       489.3788
       524.3145       552.4578       582.1765       619.1171       652.5886
       675.1487       708.4846       741.0688       769.3738       791.9678
       819.8792       847.8823       876.6292       898.6704       925.3572
       943.6116       964.2319       984.8330       1009.180       1028.496
       1045.716       1060.835       1075.616       1089.562       1105.582
       1115.193       1131.181       1141.910       1146.795       1148.644
       1165.040       1173.333       1172.775       1170.824       1183.229
       1189.905       1193.031       1193.360       1200.285       1201.312
       1205.906       1201.794       1203.634       1204.852       1210.903
       1211.120       1209.437       1201.485       1206.919       1211.361
       1206.312       1200.676       1206.054       1202.857       1198.340
       1194.624       1194.238       1187.056       1178.183       1172.802
       1168.554       1157.568       1150.904       1141.125       1132.773
       1120.212       1106.873       1094.380       1078.858       1066.032
       1050.417       1028.925       1012.406       991.9375       973.1074
       954.4399       929.6782       911.0361       888.8464       865.1216
       843.7788       820.2781       788.3835       759.6851       737.3286
       711.0366       678.3999       650.3206       624.2086       592.2263
       561.5039       536.6292       509.7479       478.5684       449.2271
       420.6792       390.9395       358.1370       327.6577       297.4615
       272.9479       240.1381       209.6503       182.9809       158.4716
       127.3891       98.26384       68.66097       50.17281       18.68526
      -4.455170      -30.14081      -51.74277      -81.65881      -97.94467
      -121.4629      -140.9841      -164.4230      -178.0848      -204.3678
      -219.9175      -241.5804      -258.1203      -282.8096      -298.0068
      -319.3337      -333.4918      -356.4719      -372.1062      -391.2632
      -401.4233      -423.0225      -438.7410      -457.7352      -470.7695
      -493.8191      -503.4209      -518.4421      -533.8157      -549.9747
      -558.2368      -579.0676      -593.9192      -606.6292      -615.4749
      -634.0437      -643.2031      -657.1245      -670.9292      -684.5796
      -689.0542      -705.3662      -718.9597      -728.8452      -732.6221
      -745.8413      -757.8870      -770.8245      -775.8975      -788.5098
      -798.6963      -809.8862      -819.1172      -831.2812      -839.1904
      -850.0203      -861.5239      -867.1506      -867.5164      -877.4263
      -887.8936      -889.1807      -898.4277      -910.9478      -913.9441
      -920.0750      -925.4968      -930.3352      -937.4451      -943.4326
      -940.1663      -940.4097      -943.1655      -945.7607      -948.6023
      -951.2390      -949.6223      -951.2263      -948.5061      -948.4785
      -943.6421      -941.6865      -935.0173      -930.4670      -927.6411
      -923.5854      -917.7744      -913.7244      -905.6140      -899.9463
      -891.4800      -884.4514      -870.3940      -858.2271      -844.0989
      -832.7451      -819.5547      -810.5728      -793.1094      -776.3093
      -762.2715      -750.3220      -733.5779      -718.6504      -701.0773
      -684.1445      -667.6660      -651.2456      -631.8008      -613.0940
      -592.4045      -578.9420      -555.2888      -531.3534      -515.6100
      -498.4761      -474.9631      -454.7109      -428.5861      -411.9993
      -389.6340      -368.2893      -343.8911      -326.2385      -303.8257
      -279.8531      -257.1733      -238.1816      -215.6542      -189.7401
      -165.2543      -149.0924      -134.7119      -111.2595      -87.79939
      -73.99362      -57.67323      -32.96960      -15.30098       4.571671
       19.12476       39.91245       59.93355       75.58990       92.86719
       106.3235       118.0034       139.2123       157.1107       164.3262
       177.5169       198.2214       216.5474       225.8570       234.7302
       247.2597       264.4840       276.7711       280.8090       289.0560
       307.1121       314.5769       317.4924       327.6484       339.8529
       341.2767       343.3284       353.9709       364.4923       371.7532
       379.3625       387.4911       389.7288       389.2708       398.6547
       404.3103       404.7147       409.2529       416.7131       419.4246
       424.4977       432.3375       434.7120       432.9531       442.2628
       448.0986       450.6180       457.7596       463.4631       466.0010
       473.1914       481.5404       484.5835       489.0607       496.8958
       502.4396       506.0513       510.2617       511.8887       524.4832
       526.1011       524.5991       528.2452       539.3611       544.2288
       547.1150       548.0110       560.0031       557.7234       561.6254
       562.6133       569.7180       565.9922       570.3372       567.7825
       574.7168       575.9293       578.6301       572.3259       578.0840
       577.4661       581.3213       576.0608       579.2511       572.7330
       573.6016       571.5317       571.7231       559.9316       565.1475
       558.6140       551.4122       549.4836       552.6639       543.6284
       538.5975       523.7996       527.4771       522.2653       512.2338
       499.2720       504.1460       495.7921       489.6149       485.7571
       479.5190       465.9656       463.8059       456.0522       449.1650
       437.3636       431.8229       432.6589       427.0745       411.3318
       406.5569       400.9736       392.7579       385.4541       381.5321
       374.6897       370.1875       363.8171       357.1316       347.9600
       347.5312       343.5984       333.8375       328.2516       333.8092
       327.9783       319.7880       316.2662       319.7186       315.6659
       311.2593       306.5010       309.0546       306.8082       302.3256
       299.9156       301.7399       296.0056       292.5098       286.2073
       282.7250       275.7352       272.1743       261.3929       262.5786
       257.6027       249.7691       234.8657       227.3982       218.7916
       210.3800       186.5366       180.7248       172.6476       161.1899
