     0.02500000      -1383.960       1195.991      -12345.00      -12345.00
      -29.99499       223.8050      -24.82000      -12345.00      -12345.00
       0.000000       18.63000      -12345.00      -12345.00      -12345.00
      -12345.00      -12345.00      -12345.00      -12345.00      -12345.00
      -12345.00      -12345.00      -12345.00      -12345.00      -12345.00
      -12345.00      -12345.00      -12345.00      -12345.00      -12345.00
      -12345.00      -30.20850      -67.28640       945.0000       0.000000
      -31.06700      -68.46300       0.000000       100400.0       0.000000
      -12345.00      -12345.00      -12345.00      -12345.00      -12345.00
      -12345.00      -12345.00      -12345.00      -12345.00      -12345.00
       147.5812       50.14154       229.5449       1.326886      -12345.00
      -12345.00      0.4402897       0.000000       90.00000      -12345.00
      -12345.00      -12345.00      -12345.00      -12345.00      -12345.00
      -12345.00      -12345.00      -12345.00      -12345.00      -12345.00
      2008       164        19         4         2
       620         6    -12345    -12345     10153
    -12345    -12345    -12345    -12345    -12345
         1         7        13    -12345    -12345
    -12345    -12345    -12345    -12345    -12345
    -12345    -12345    -12345    -12345    -12345
    -12345    -12345    -12345    -12345    -12345
         1         1         1         1         1
PAGA    -12345          
        -12345  -12345  
-12345  -12345  -12345  
-12345  -12345  -12345  
-12345  -12345  -12345  
-12345  -12345  -12345  
-12345  -12345  BHN     
ZL      -12345  -12345  
[...]
      -465.6646      -453.3870      -436.1953      -419.1357      -399.9155
      -380.6418      -363.5247      -350.8408      -333.7198      -318.4365
      -297.6270      -282.1605      -265.2916      -249.4400      -238.9043
      -219.8040      -195.9901      -179.9072      -158.4460      -140.5598
      -130.2311      -112.0907      -95.05530      -87.02975      -75.10916
      -59.93643      -45.72666      -28.57176      -15.98949      0.5175858
       17.74553       25.30757       34.35526       53.67068       65.21835
       72.65952       83.19571       101.1201       110.3882       114.9952
       128.1544       143.7420       175.9368       215.0688       190.1787
       145.1437       171.1795       210.7941       212.9373       212.4180
       197.3972       173.9109       182.2766       256.6600       272.5608
       201.4286       245.6182       321.7297       256.0878       214.5685
       314.2868       353.3070       240.1323       248.4269       350.9723
       337.4565       278.2788       269.2510       263.5411       299.4570
       346.3467       359.3153       325.0477       273.4827       327.9433
       337.0958       258.1318       331.5022       384.3884       281.1654
       239.6854       329.8267       408.4363       364.9022       342.2969
       350.9856       296.0219       296.7507       349.8071       364.2388
       347.5528       325.4373       339.1776       309.2960       279.0729
       367.8389       413.0933       365.9918       348.5159       345.9475
       339.3916       366.8511       429.2417       411.5021       365.3551
       404.6511       390.1621       390.9888       451.0701       416.7837
       377.6614       362.4067       368.0922       446.7772       451.9727
       368.4696       365.5120       415.7479       465.2122       444.2486
       338.0706       315.5032       387.0791       419.0781       384.5300
       337.0281       314.4764       326.1890       366.9500       375.6185
       321.6980       289.1392       293.7172       280.4758       251.1028
       245.3771       257.0116       268.0164       266.1448       243.6799
       169.6116       105.9467       176.6052       272.9939       226.0237
       170.8084       203.5306       198.9555       141.3733       103.2631
       80.16747       78.11081       92.97800       100.8290       84.22660
       45.71170       30.77881       37.92987       48.23820       65.94034
       19.37070      -59.19945      -43.49808      -26.72089      -31.27320
      -15.46393      -49.34421      -113.4641      -118.5212      -84.09460
      -102.9764      -140.3728      -139.9088      -145.6197      -153.3846
      -141.9967      -171.6621      -235.2200      -219.6229      -176.7891
      -211.8809      -247.4097      -228.4333      -217.5538      -260.0879
      -280.1276      -252.1827      -236.3667      -284.7078      -298.2457
      -268.9628      -291.5103      -297.3783      -250.2701      -251.2502
      -308.8120      -369.6042      -381.1521      -346.6645      -288.3640
      -281.9936      -325.6761      -328.2893      -296.0828      -279.9897
      -297.1050      -355.6526      -362.6685      -302.4447      -280.3446
      -323.8511      -334.5574      -320.9238      -313.1833      -290.7249
      -291.8566      -294.1912      -278.9559      -294.6194      -303.1232
      -301.5607      -275.1849      -245.3433      -262.1587      -260.2316
      -263.1068      -283.1397      -235.0671      -191.2023      -217.3091
      -248.0835      -232.8408      -193.8298      -158.7947      -187.8931
      -247.9993      -247.7227      -221.3647      -211.8824      -183.6639
      -145.6469      -133.5404      -129.9708      -116.3381      -118.9698
      -164.5588      -199.7533      -150.4161      -111.6008      -90.83044
      -78.06537      -103.5399      -96.16089      -55.45490      -84.01724
      -114.6393      -105.4439      -82.73297      -48.47894      -78.84915
      -106.9326      -34.93137      -21.00159      -61.73105      -51.30936
      -61.00317      -97.83714      -94.82252      -18.99829       21.82529
      -30.02560      -79.08154      -83.59152      -94.94637      -90.45755
      -66.47733      -50.32391      -94.15793      -108.8276      -72.82292
      -67.81613      -85.10532      -98.71808      -116.5876      -118.7392
      -115.2344      -109.4727      -95.84018      -87.48486      -131.5154
      -128.6928      -84.51202      -90.72473      -84.64752      -75.93896
      -129.5634      -135.5887      -91.10986      -144.5094      -160.0962
      -79.01691      -87.35132      -131.2726      -104.6693      -81.76819
      -106.8881      -124.8461      -119.8576      -123.6407      -126.8253
      -104.7040      -98.58249      -113.7211      -117.1760      -101.6766
      -122.9148      -110.5359      -28.55942      -54.38260      -116.4910
      -60.67645      -50.63115      -93.72580      -67.83881      -50.01642
      -63.11453      -46.79779      -48.34305      -55.60457      -44.05511
      -11.13079      -27.05376      -27.93478       32.74384       41.41601
       16.24565       24.48224       25.79305       61.65390       73.11995
       45.92010       52.36188       84.09741       99.34619       79.50023
       68.19287       114.5069       139.9979       128.7080       107.9402
       120.1353       136.1454       157.4425       167.4505       156.0103
       150.8738       159.6326       148.4113       151.8763       189.6249
       222.0723       213.6725       160.8452       155.1703       198.6523
       178.9539       163.1379       191.0178       215.4844       184.1338
       125.9243       118.4762       155.1852       165.9644       116.5539
       89.86328       116.5817       154.0704       142.4105       135.3984
       163.2621       132.0196       52.82465       48.20218       93.86395
       104.7247       86.31172       76.36075       73.75943       55.95840
       48.82481       66.27251       55.88033       32.71591       45.85948
       66.00610       86.77434       68.04839       17.80707       32.61009
       84.07513       70.08797       29.35809       13.23145       51.32756
       74.99623       44.69841       32.92477       77.86841       84.42267
       46.36029       53.96204       73.08099       34.27663       45.90532
       59.63373       30.61967       74.66354       106.2491       33.25970
       34.52838       102.7908       61.00510      -6.332092       35.11945
       55.95462       21.73589       46.67548       107.7774       115.5246
       81.46829       50.64798       72.50928       116.4464       92.22394
       48.31903       93.37259       109.8400       48.90680       47.67136
       126.7105       164.9727       108.3530       85.06747       117.0331
       112.2508       97.43579       90.65247       108.0682       136.6725
       141.7845       158.3890       142.3600       77.02106       114.8928
       173.7366       154.2532       178.5216       207.0385       165.7087
       136.4320       156.0720       166.1329       160.1667       196.4988
       193.9931       145.8386       170.8297       230.3961       207.6922
       190.5166       205.7986       216.9982       210.8888       224.9359
       221.8550       184.5353       194.5406       256.6769       237.1241
       202.3803       218.8011       208.2115       217.4552       260.7605
       216.8342       204.6876       233.9401       202.4200       209.6392
       262.9941       228.6564       200.1159       219.1320       228.5469
       210.1299       168.9485       202.4717       276.8824       214.9081
       140.3589       194.2681       228.8394       173.5890       162.3041
       190.3702       181.1773       159.6540       148.0906       133.3735
       147.7686       139.5200       120.4257       116.2406       100.6320
       74.12317       86.57584       86.36128       59.69733       55.96806
       90.79002       56.57840      -10.47714      -22.12878       15.02461
       2.873650      -24.89040      -39.13000      -49.69891      -88.67014
      -97.15382      -71.35846      -21.13184      -76.64172      -155.1081
      -137.3279      -103.4460      -157.1253      -170.4660      -144.5455
      -163.1946      -210.9586      -244.9697      -245.6377      -213.6235
      -236.6080      -245.6740      -260.3784      -308.9424      -298.4156
      -268.7595      -341.6239      -381.6226      -350.6721      -343.1797
      -338.6112      -338.6033      -365.7448      -398.8955      -416.1857
      -393.6161      -414.2465      -442.7505      -438.9180      -422.4945
      -405.2834      -417.1173      -449.2216      -440.9657      -478.1133
      -472.4026      -402.2761      -399.7866      -446.9663      -434.2695
      -410.3448      -445.9661      -478.1560      -409.4185      -399.6588
      -431.1113      -428.0679      -446.8862      -447.5423      -352.1515
      -315.7415      -367.9609      -409.4694      -395.3987      -359.3639
      -348.5322      -357.7129      -327.9625      -338.3612      -351.3879
      -308.0129      -278.2037      -302.2703      -300.0038      -298.9958
      -318.0708      -335.6562      -322.1527      -270.3578      -235.6710
      -248.6516      -279.9803      -297.8951      -271.1428      -227.7324
      -245.9120      -299.5248      -250.4219      -192.2000      -211.6126
      -230.3757      -205.7579      -185.3459      -183.9725      -195.7592
      -195.1052      -205.1713      -225.6664      -211.4017      -175.8482
      -163.4539      -184.2344      -168.0244      -131.0352      -131.8432
      -133.9161      -137.4669      -155.6013      -150.7577      -100.2477
      -83.57663      -97.66742      -87.16736      -96.65189      -97.30600
      -69.80656      -50.61360      -42.03171      -48.18217      -61.50005
      -51.63010      -13.64780       19.55998       29.98788       8.000206
      -2.644623       22.51850       30.59753       42.83133       73.85541
       97.07056       94.97821       84.44632       119.4625       147.4455
       121.0696       132.2592       184.5062       175.1618       145.0086
       170.7089       207.6117       223.6872       236.0381       219.8159
       217.6373       261.8110       264.9984       261.5078       312.1512
       317.8229       273.9324       274.6312       316.0194       356.2986
       362.6063       371.9778       383.2095       379.2473       390.1064
       405.4399       415.2915       457.5250       482.0072       444.7490
       416.3428       431.3247       461.0696       498.4174       527.6406
       527.7253       505.1003       509.6614       532.4663       546.8705
       536.1567       526.0337       562.1949       601.7712       603.5426
       574.1223       549.7124       566.9901       638.3499       662.9380
       651.8010       653.0599       619.0803       604.8473       642.7452
       643.8110       660.0769       640.9673       603.7329       657.4175
       694.9377       636.4137       625.3539       667.6230       692.5876
       656.1392       624.6226       648.4922       648.5186       601.0936
       610.0947       629.2083       624.6179       586.2579       565.7058
       584.9202       601.8906       604.7107       585.5137       535.0654
       539.9683       528.6782       482.7012       494.5182       512.2202
       496.5793       481.6289       458.5801       440.7793       419.2179
       418.2440       421.6196       412.0195       367.3352       321.3419
       319.7301       321.2397       279.3325       256.6766       248.8345
       241.4508       234.3464       212.3820       178.3781       161.6329
       145.3086       135.4545       83.63629       33.64027       29.33606
       32.22937       25.04312       53.27469       22.88223      -76.84000
      -118.3148      -82.82050      -41.37300      -50.55939      -94.01324
      -117.2610      -133.6884      -114.3430      -97.52887      -96.47418
      -101.5892      -177.0380      -322.3333      -433.9880      -527.1294
      -573.5300      -527.8121      -453.5895      -207.6019       141.3820
       166.3001       25.82498      -66.55237      -373.2332      -881.9321
      -1165.518      -1169.854      -685.2478       550.3276       1195.991
       41.91821      -1333.402      -1333.566      -633.3380       55.13889
       318.4242      -366.8848      -1070.849      -582.2527       184.2000
      -134.5850      -950.2091      -829.5864      -122.2300      -351.7336
      -859.0977      -614.4097      -434.7832      -637.7581      -830.0593
      -834.9053      -775.7567      -568.4982       100.3229       469.5941
      -215.2769      -1216.961      -1309.142      -750.2454      -775.1694
      -1030.491      -501.7460       171.5857      -92.33594      -1063.371
      -1383.960      -639.0557      -506.8677      -1093.199      -867.1719
      -605.4128      -713.8518      -489.8584      -597.2683      -1007.813
      -808.2417      -307.6895      -276.1718      -521.1738      -696.8853
      -901.0122      -958.0044      -971.5105      -881.1006      -418.4835
      -111.5496      -363.1860      -785.7271      -810.9752      -517.3792
      -654.5918      -1024.026      -813.9585      -354.6838      -466.5076
      -715.9691      -529.5227      -474.7466      -609.2457      -351.6340
      -234.9448      -476.9697      -495.7091      -517.3772      -750.9712
      -618.8903      -319.7591      -326.7354      -334.1040      -329.3785
      -473.2587      -451.6254      -338.0066      -359.5791      -436.7766
      -385.1021      -288.2176      -352.2061      -278.3351      -67.27042
      -127.5912      -205.8653      -183.5219      -196.5404      -189.8299
      -59.69125       67.10095      -72.62024      -189.0251      -40.78107
       70.74823      -61.14050      -261.5941      -65.97287       182.6395
       15.17389      -242.1880      -136.2545       166.3542       247.6172
       113.2977      -37.16362      -11.26324       219.4927       354.9077
       297.1644       162.9492       46.20001       47.03436       200.1626
       183.8162      -23.02002       78.07861       440.9844       501.8304
       236.8679       64.75769       106.6409       59.82205       59.94110
       197.9456       298.5367       302.9552       265.7015       305.8181
       263.0890       164.5015       309.8495       434.8215       364.0110
       336.1356       294.4641       221.9687       287.0781       370.5354
       426.8855       433.1948       397.8373       442.7002       484.5677
       508.5630       599.4873       393.3685       98.62634       282.4052
       565.5840       485.5564       435.8848       616.1791       609.1257
       345.2782       279.8353       430.5382       522.3135       523.7229
       583.7659       649.4298       526.0540       368.0840       382.6714
       440.0775       532.7937       599.4241       600.1356       570.2407
       590.7743       599.0439       586.8287       637.7540       656.8275
       501.1411       395.2051       382.4106       394.0804       454.9751
       552.2775       626.7019       627.8031       570.7926       571.3561
       557.4695       504.7273       411.2805       399.7520       532.8507
       550.5675       384.5321       340.7180       291.1627       151.1512
       177.9890       437.8805       595.6465       426.5685       203.7256
       216.0096       192.7370       122.9825       321.5532       470.8566
       280.8096       203.1149       325.0955       281.7465       64.47797
      -16.62024       129.8386       331.1855       373.0683       267.0396
       96.15564      -105.8573      -180.6916      -42.85498       145.0120
       319.0943       212.7105      -120.9481      -154.1626       38.46704
       107.5267       244.5410       269.4477       13.90883      -103.8306
       15.95251       20.05731       10.91525       112.6931       91.20773
      -14.95176       23.79953      -35.63858      -171.9620      -97.14551
       32.53817       17.09198      -13.22847      -18.04797      -98.37042
      -154.7320      -60.41052      -101.4160      -161.3335      -31.21552
      -40.28452      -162.3163      -99.45114      -80.65704      -185.5298
      -205.1367      -152.3114      -218.3052      -276.9594      -244.4166
      -202.3876      -141.1030       19.47702       118.4197       40.48230
      -72.80792      -132.6241      -213.7840      -187.8121      -176.0099
      -248.0381      -296.8745      -311.5295      -306.4755      -213.1923
      -140.1978      -163.0804      -262.5216      -270.8435      -197.8240
      -246.5016      -284.3808      -124.2342      -52.35327      -208.3687
      -383.2935      -457.3907      -495.5029      -378.9825      -204.2230
      -167.2697      -186.7680      -139.5662      -127.0615      -204.7423
      -312.8498      -320.8860      -234.7282      -153.9818      -163.9546
      -218.6185      -293.4104      -454.0248      -547.7208      -410.4054
      -364.7244      -421.7325      -362.7261      -326.6819      -434.3079
      -501.3291      -387.3661      -321.0531      -413.8696      -396.7751
      -329.5095      -404.2842      -439.8992      -353.7982      -443.0742
      -604.4955      -546.8020      -449.6626      -485.9260      -492.4263
      -421.0525      -369.8849      -400.6646      -398.4661      -369.9984
      -389.1129      -325.1924      -192.1664      -177.7327      -223.4630
      -258.4338      -264.7037      -258.9700      -236.0434      -135.3090
      -107.6602      -168.3562      -143.9253      -193.0612      -252.0063
      -156.9028      -37.48022      -72.25558      -129.3861      -22.59262
       121.7689       128.1721       106.1288       102.2056       56.66479
      -7.766388       66.64993       137.1824       47.32309       37.51312
       157.3541       235.5916       329.4327       371.8926       231.6766
       69.35950       179.9128       308.6412       295.8227       259.6872
       130.0580       103.4127       298.2515       414.8528       318.2446
       302.4692       434.4395       404.1769       334.4653       310.3840
       330.4036       286.5076       237.0945       381.6704       425.1998
       384.6215       288.0122       229.4637       465.7905       549.4100
       401.7903       407.7073       523.5040       433.7401       283.6338
