     0.02500000      -1700.731       1335.016      -12345.00      -12345.00
      -29.99499       220.1800      -21.32000      -12345.00      -12345.00
       0.000000       15.59000      -12345.00      -12345.00      -12345.00
      -12345.00      -12345.00      -12345.00      -12345.00      -12345.00
      -12345.00      -12345.00      -12345.00      -12345.00      -12345.00
      -12345.00      -12345.00      -12345.00      -12345.00      -12345.00
      -12345.00      -30.27030      -67.72450       1286.000       0.000000
      -31.06700      -68.46300       0.000000       100400.0       0.000000
      -12345.00      -12345.00      -12345.00      -12345.00      -12345.00
      -12345.00      -12345.00      -12345.00      -12345.00      -12345.00
       113.1809       38.89222       218.5174       1.017598      -12345.00
      -12345.00     -0.5250482       0.000000       0.000000      -12345.00
      -12345.00      -12345.00      -12345.00      -12345.00      -12345.00
      -12345.00      -12345.00      -12345.00      -12345.00      -12345.00
      2008       164        19         3        59
       120         6    -12345    -12345     10008
    -12345    -12345    -12345    -12345    -12345
         1         7        13    -12345    -12345
    -12345    -12345    -12345    -12345    -12345
    -12345    -12345    -12345    -12345    -12345
    -12345    -12345    -12345    -12345    -12345
         1         1         1         1         1
RINC    -12345          
        -12345  -12345  
-12345  -12345  -12345  
-12345  -12345  -12345  
-12345  -12345  -12345  
-12345  -12345  -12345  
-12345  -12345  BHZ     
ZL      -12345  -12345  
[...]
       201.6317       214.2526       218.1010       228.8129       228.7023
       237.8638       238.7312       247.5778       249.9932       254.8751
       254.9436       258.0423       257.4232       263.3790       259.2550
       260.9375       258.4814       259.8074       256.0615       259.9622
       251.6870       251.3605       245.2251       243.0620       237.2778
       236.5706       229.0286       229.6161       222.5677       215.6223
       203.2457       200.5177       192.1738       187.9242       176.2603
       170.9643       160.4653       156.3928       146.3221       141.2146
       126.9891       120.6168       106.8372       97.87463       84.15417
       77.58279       64.01068       53.89197       37.36450       27.45760
       15.39926       5.887650      -8.429955      -17.99888      -33.73201
      -48.34143      -60.61975      -71.26038      -88.45728      -100.7055
      -113.6477      -124.8174      -139.0429      -148.5555      -160.6155
      -170.9463      -183.7585      -197.4523      -210.5881      -217.6990
      -226.0425      -235.4327      -246.1130      -250.1627      -256.9516
      -267.6463      -276.6482      -282.7709      -290.7441      -297.6458
      -305.4940      -310.2764      -314.2267      -319.0320      -324.4479
      -328.7638      -333.6216      -340.7421      -342.7460      -344.1421
      -348.7061      -350.4474      -350.1764      -353.5897      -358.5447
      -358.9685      -359.9219      -359.8898      -361.0919      -362.8186
      -366.7802      -364.4491      -364.1157      -365.9786      -368.6621
      -368.2899      -372.1899      -370.4786      -373.2592      -371.1536
      -369.1442      -371.8000      -372.4985      -369.8899      -371.6514
      -368.2073      -366.4918      -368.5930      -366.8365      -363.9585
      -360.9766      -360.8558      -360.0228      -356.0769      -348.6233
      -346.7629      -341.7905      -336.7551      -332.0914      -327.9581
      -321.1506      -324.4346      -317.4446      -310.2852      -306.0650
      -304.0881      -292.7351      -290.5604      -287.6915      -287.6699
      -278.2814      -272.8162      -271.7000      -270.3240      -262.7013
      -265.2650      -257.6989      -245.4425      -242.5908      -245.1964
      -236.4362      -234.0570      -226.1376      -224.9522      -218.6288
      -210.8674      -206.7690      -208.3507      -194.8528      -191.9186
      -183.1945      -178.4695      -172.1584      -165.8577      -153.3210
      -149.3347      -137.5915      -132.3039      -120.5847      -112.0058
      -96.81772      -91.69040      -81.27559      -69.16333      -53.05287
      -55.42824      -61.09643      -29.57932       19.76171       10.76160
      -61.19666      -44.39709       156.4953       71.93611      -83.51416
      0.7545166       25.06824       134.8969       248.6326       45.09209
      -68.70541       157.2666       28.69971      -47.65057       330.6127
       121.8543       29.53949       183.9119      -42.22565       136.5784
       228.6824       77.51108       193.4558      -18.39740       81.29071
       307.5935       120.8818       132.2751       276.0327       145.1993
       100.0474       227.1133       162.3455       220.0857       249.8455
       112.7630       64.93872       89.58685       247.9911       236.1040
       109.6629       124.7557       210.0600       79.57550       171.6364
       320.9978       167.4444       51.44141       129.4294       380.0084
       316.5283       105.0814       115.5933       102.1447       180.2877
       329.2060       250.9844       159.9600       188.8627       200.3629
       309.1482       220.0645       162.8545       207.0097       224.0437
       333.3174       277.3556       188.8181       296.6509       275.2560
       181.4318       225.2528       309.8551       331.8564       296.1003
       255.9487       345.1706       244.9973       229.6709       419.4655
       330.1899       253.7825       337.1614       349.1191       206.2961
       261.0061       457.8923       239.9045       279.5952       526.3235
       336.5358       169.3672       411.9615       434.8472       278.1726
       241.5006       352.0962       401.9137       348.7731       343.1703
       300.6759       309.3313       316.5713       368.6591       382.5908
       178.5741       333.1575       477.4001       282.7072       166.5007
       287.8380       405.4121       273.0715       327.8235       320.7711
       192.9215       367.0393       311.3054       286.3071       329.1841
       242.2031       340.3661       282.9969       167.4734       266.6819
       304.2202       343.8405       343.0513       248.6397       161.7655
       278.3101       379.6664       290.3447       258.4521       288.7378
       276.7195       186.2888       127.0234       277.0465       302.2975
       254.2592       259.2901       185.0465       187.2470       176.9117
       235.7723       278.5032       163.7437       198.5441       292.8504
       251.7950       169.7407       127.6718       132.5529       163.7689
       153.1327       219.8320       182.3459       58.04053       86.90735
       156.8396       165.6256       119.6347       61.01559       42.90106
       83.94843       134.7658       116.4162       81.64008      -42.41846
      -5.978668       134.4826       42.40929      -29.02398       8.767385
       2.345650      -9.201202      -69.60132      -89.81613      -92.83499
      -65.84897      -100.4883      -66.40437      -2.500427      -87.30817
      -237.7865      -213.0353      -82.89563      -193.6548      -322.5725
      -197.1837      -141.8203      -288.1486      -313.4019      -186.5872
      -218.6944      -346.1301      -265.2672      -216.7897      -394.7661
      -349.7410      -291.6036      -357.1454      -343.6921      -393.1514
      -432.6315      -352.3518      -385.5640      -427.7844      -412.7375
      -384.4070      -437.8772      -511.2798      -420.6127      -397.5641
      -501.1340      -492.2950      -364.6178      -380.2000      -603.2795
      -578.6030      -417.4031      -418.5309      -530.4689      -490.1564
      -348.9849      -488.0745      -630.6367      -488.9685      -479.2543
      -535.6119      -488.4146      -453.9779      -511.9365      -565.9574
      -507.1486      -466.0270      -546.2769      -450.8076      -390.5100
      -479.2955      -525.3481      -487.5076      -393.8728      -479.6130
      -355.8497      -296.4146      -637.2963      -521.7880      -284.0405
      -425.1713      -487.8918      -385.9819      -274.0424      -357.6553
      -436.9821      -372.7067      -334.4967      -275.6431      -367.1862
      -319.5733      -272.9691      -400.1468      -230.3506      -247.1653
      -335.2298      -155.0272      -196.8022      -261.8973      -197.1775
      -134.7786      -219.9030      -317.3715      -108.7949      -64.29260
      -220.9506      -174.1235      -12.64291      -58.82907      -187.8867
      -97.28886      -43.93921      -18.35123      -13.18414      -11.60431
      -45.82056      -74.46265       152.4796       107.2350      -133.9898
       15.73161       83.66034       45.98181       127.8976       14.55212
       92.56250       243.3336       80.80597       40.31778       115.7335
       176.4647       159.9042       89.70264       277.7498       226.9663
       60.10913       244.0074       234.1411       118.8766       158.5624
       255.1824       293.6090       219.5463       189.6664       189.6875
       260.6332       298.5990       243.8098       270.6577       343.9202
       279.3010       299.9167       282.8950       232.1871       307.5319
       323.4437       349.8040       303.4263       342.0498       443.9979
       264.0757       297.8058       480.5515       360.2732       295.8239
       391.5963       388.0867       388.3123       328.0139       325.7427
       386.5927       424.2185       435.6174       463.5010       392.6450
       322.1428       400.9777       427.8411       440.9402       390.4606
       280.3009       396.4292       436.2700       391.4021       369.1366
       368.8331       412.0763       328.6002       318.6554       481.5973
       381.7943       336.5981       341.8005       292.2367       398.8094
       310.0140       262.5081       396.9470       328.3071       260.7746
       310.7841       301.4302       231.8851       227.4241       278.5970
       309.7899       266.1337       214.5337       194.8373       253.3898
       234.9668       221.7918       218.3447       120.9635       107.8958
       217.1736       161.9734      -5.727814       98.35806       219.2938
       73.90259       86.36172       131.8855       8.563622      0.5292358
       73.49281       42.03300      -39.82771      -91.30652       33.26648
       67.20738      -63.37309      -36.16779      -35.69107      -148.8619
      -54.45392      -106.8874      -141.6697      -72.10406      -108.9263
      -178.6113      -203.8113      -129.1161      -131.0056      -167.1219
      -111.5078      -250.5252      -273.7429      -206.2811      -216.4263
      -160.0203      -267.2854      -308.8506      -215.8952      -266.3292
      -243.1530      -257.9200      -351.0261      -353.8143      -282.7954
      -259.1171      -308.4381      -331.8424      -255.2864      -319.7939
      -326.7364      -277.7505      -406.7665      -388.8889      -234.3502
      -293.1587      -417.1024      -368.0222      -241.4283      -313.3505
      -377.3193      -290.4847      -242.3119      -337.9427      -378.3574
      -283.8635      -284.6517      -315.7870      -217.5236      -266.7375
      -302.8691      -239.5781      -303.1805      -227.8075      -157.9108
      -268.5932      -235.9246      -228.9038      -210.9757      -167.8520
      -209.1265      -156.3981      -162.9083      -207.4135      -136.8879
      -111.0951      -73.91138      -107.8267      -200.8809      -107.1925
      -35.94699      -132.9842      -21.56120       6.123295      -31.07507
       4.331100      -45.28001      -45.93005       15.21015       11.31616
      -2.623886       52.42554       74.71952       18.17630       85.12769
       89.85297       41.11646       140.6284       83.54721       41.47070
       195.0720       128.0086       112.4742       188.1340       148.8539
       197.5256       215.8362       107.1071       145.9426       236.0688
       218.0581       169.8062       287.3144       306.4103       173.0015
       253.8376       317.7755       211.3657       241.8864       264.4794
       238.6924       277.4452       333.1311       299.9701       294.4344
       358.6450       363.2894       311.5862       237.3785       302.9551
       292.8164       190.5082       364.0986       428.1088       310.8983
       319.2966       398.0592       325.9213       188.8379       308.4716
       453.7312       351.3593       277.4211       324.4143       385.1011
       386.5425       299.5728       349.4612       385.5439       313.8156
       292.0757       295.5864       328.4845       294.0698       277.6702
       346.7927       336.7789       334.6724       319.9677       336.3694
       380.3303       341.9998       377.0771       295.4268       202.1880
       328.8519       296.6697       129.2292       228.6652       305.4066
       132.7648       219.0328       353.9458       183.8575       57.14539
       178.4467       264.1643       101.6859       139.2091       205.2343
       34.38840       55.32715       136.7132       54.83711       27.80536
       72.02122      -21.03971      -37.88604       46.75537      -30.53070
      -116.0838      -89.76184      -76.28802      -90.34833      -131.1418
      -165.3723      -116.5560      -205.5020      -219.5179      -61.21570
      -212.8333      -328.2645      -202.6321      -142.1546      -279.9170
      -322.9800      -242.2090      -326.5164      -339.9032      -287.2749
      -354.0664      -435.8823      -504.2205      -413.0216      -332.4680
      -424.1616      -501.1060      -483.6650      -523.7639      -583.0081
      -556.8468      -584.7271      -638.5120      -458.6439      -500.0862
      -759.9487      -736.5464      -694.0215      -664.6431      -746.1196
      -746.0547      -577.5474      -729.6741      -843.6301      -702.0762
      -761.1084      -967.5250      -620.1978      -70.13770      -442.5420
      -1168.371      -1119.235      -888.7190      -843.3945      -585.0447
      -527.0881      -881.8242      -996.9641      -958.1777      -704.5715
      -390.5889      -724.5261      -893.2168      -627.0967      -645.4688
      -549.6494      -764.6284      -1174.279      -927.3916      -1145.083
      -1631.080      -1352.125      -332.9793       498.7031      -594.2534
      -1700.731      -609.7026       296.1794      -221.9482      -773.8254
      -1004.670      -799.0603      -477.6533      -608.9236      -712.5337
      -683.9758      -974.2983      -973.0339      -504.1709      -423.5248
      -618.5426      -194.4976      -136.8604      -468.5598      -42.01642
      -70.24060      -652.7305      -604.5451      -376.8921      -205.1553
      -184.1761      -379.5719      -326.0382      -140.2975      -123.9766
      -53.33365      -91.09506      -123.8493       92.68750       152.6621
      -10.41164      -133.3336       177.9029       432.5316      -84.87938
      -97.54388       251.1777      -5.630661      -86.98953       132.6481
       235.7222       553.0612       586.0204       438.7285       767.3312
       676.7569       153.2495       116.9415       443.2959       589.6565
       561.1963       679.1796       615.3069       729.3706       745.2780
       375.7185       563.8604       879.0835       880.2178       793.1450
       755.4546       739.8865       519.9526       670.1035       898.0427
       972.2136       1207.082       1110.293       623.5730       906.0417
       1335.016       949.6052       756.6228       638.4810       797.9114
       1051.597       799.3330       807.0698       637.1091       620.6201
       1066.222       988.4492       998.2544       1084.403       858.4185
       1154.639       1224.308       848.9280       782.1025       836.0269
       969.3660       1047.563       954.9641       699.3608       740.7153
       955.6035       892.0054       844.3728       686.3982       777.6104
       1020.820       1027.650       1049.339       900.4907       768.0127
       870.7446       922.2471       813.7454       792.5461       711.0000
       684.3115       861.2561       665.2700       464.8751       545.4908
       531.3824       583.8251       619.2483       556.6108       694.9199
       754.4856       632.5757       704.9868       719.6707       648.6741
       559.3585       542.9531       756.4082       736.9348       865.5554
       705.9285       195.9805       325.5991       639.3842       578.0645
       230.0371       287.9919       577.6444       462.5868       393.6724
       480.3288       326.0706       173.1964       162.5178       83.00348
       207.1758       464.9996       467.3640       245.5974       274.5193
       512.1835       280.2081       13.50989       216.2505       363.4900
       260.3439       133.6678       230.2505       323.4912       231.4699
       30.86887       50.65369       278.6689       132.2548       46.26884
       42.08084      -53.91785      -65.68562      -140.0259       42.88535
       199.7946      -79.82162      -173.7614       23.09479       28.54962
      -19.33914      -106.3842      -110.8113      -148.1268      -173.4847
      -201.4595      -302.8003      -204.6691      -159.9970      -165.6952
      -290.1685      -367.1704      -373.2623      -470.1797      -466.3669
      -410.2529      -395.9175      -540.3999      -526.7672      -434.3365
      -422.7633      -419.4222      -483.2748      -419.4736      -461.0886
      -642.9128      -611.3549      -548.3413      -519.5938      -558.5342
      -796.3398      -837.2839      -573.1309      -629.4250      -826.1255
      -810.6592      -806.6904      -790.9629      -754.8850      -860.8848
      -895.3940      -806.6758      -880.2817      -863.9150      -784.7891
      -919.6238      -869.6978      -842.7383      -1046.833      -1124.040
      -891.9700      -683.4180      -903.4565      -1126.307      -1143.359
      -987.8452      -848.1006      -986.4841      -1075.850      -1057.785
      -1098.694      -1175.138      -1070.454      -938.1753      -975.5327
      -1032.329      -1059.828      -917.1455      -940.1589      -1129.861
      -1033.202      -1039.428      -1095.038      -925.1897      -824.3486
      -953.1802      -1205.296      -1053.892      -868.9612      -970.6143
      -971.7854      -957.6428      -929.6309      -951.0869      -990.8760
      -964.8701      -901.3645      -783.5984      -849.9402      -875.3982
      -780.0825      -773.3428      -867.5670      -721.0665      -575.1870
      -749.3289      -765.4688      -711.3628      -741.4865      -627.9824
      -547.6525      -610.8838      -550.9248      -605.1572      -701.2041
      -512.9625      -472.7521      -559.3457      -475.7842      -420.2462
      -539.9366      -509.9399      -284.8865      -331.5664      -417.3863
      -260.0157      -227.9031      -312.6279      -370.5562      -224.3519
      -178.3842      -282.5441      -220.4235      -189.2656      -290.1775
      -257.7257      -34.02180       34.43449      -119.9465      -6.039734
       63.27774      -125.2499      -38.40881       131.1408       30.77643
       12.79987       146.1548       169.0778       116.9564       108.9221
       120.9127       258.3442       272.7590       140.6725       91.17761
       152.8672       217.9911       384.3733       419.1621       329.9117
       415.0803       388.1234       365.0830       488.6151       489.1307
       342.4720       431.6459       553.7648       437.8401       462.3601
       560.0364       629.1161       536.2900       470.6764       596.0042
       626.2102       502.8881       489.0261       603.1165       714.6550
       757.8267       704.4585       685.5911       618.5034       577.8235
       682.2839       773.8262       789.3652       725.2524       770.8892
       849.5420       811.8513       748.9600       808.1375       797.6824
