     0.02500000      -1595.728       1041.722      -12345.00      -12345.00
      -29.99499       220.1800      -21.32000      -12345.00      -12345.00
       0.000000       15.59000      -12345.00      -12345.00      -12345.00
      -12345.00      -12345.00      -12345.00      -12345.00      -12345.00
      -12345.00      -12345.00      -12345.00      -12345.00      -12345.00
      -12345.00      -12345.00      -12345.00      -12345.00      -12345.00
      -12345.00      -30.27030      -67.72450       1286.000       0.000000
      -31.06700      -68.46300       0.000000       100400.0       0.000000
      -12345.00      -12345.00      -12345.00      -12345.00      -12345.00
      -12345.00      -12345.00      -12345.00      -12345.00      -12345.00
       113.1809       38.89222       218.5174       1.017598      -12345.00
      -12345.00      0.1255880       180.0000       90.00000      -12345.00
      -12345.00      -12345.00      -12345.00      -12345.00      -12345.00
      -12345.00      -12345.00      -12345.00      -12345.00      -12345.00
      2008       164        19         3        59
       120         6    -12345    -12345     10008
    -12345    -12345    -12345    -12345    -12345
         1         7        13    -12345    -12345
    -12345    -12345    -12345    -12345    -12345
    -12345    -12345    -12345    -12345    -12345
    -12345    -12345    -12345    -12345    -12345
         1         1         1         1         1
RINC    -12345          
        -12345  -12345  
-12345  -12345  -12345  
-12345  -12345  -12345  
-12345  -12345  -12345  
-12345  -12345  -12345  
-12345  -12345  BHN     
ZL      -12345  -12345  
[...]
       389.2192       382.9625       383.4822       377.7581       374.7610
       365.9733       361.9978       351.6399       344.4244       336.7999
       329.4601       315.8050       305.8484       292.3835       284.2361
       272.8126       261.6591       245.6624       234.8712       222.7903
       211.4860       195.1598       181.9165       167.8033       157.9790
       144.0920       132.9263       117.8224       107.1485       96.05963
       83.93184       71.48921       60.86409       46.56380       39.32568
       26.77533       17.41880       4.893179      -5.121826      -13.73250
      -22.79250      -34.15031      -42.00166      -54.74695      -60.14709
      -70.28523      -79.69968      -87.36517      -95.33597      -104.6990
      -111.8469      -120.1529      -125.4373      -136.9834      -141.6302
      -151.0901      -155.4405      -160.1283      -167.0081      -173.0543
      -177.9155      -183.3868      -184.2145      -186.0046      -189.0726
      -192.3602      -194.4661      -196.9380      -196.2142      -198.0878
      -197.0895      -193.7198      -192.0513      -193.3688      -190.4651
      -191.0258      -188.4320      -184.4936      -180.1697      -183.0390
      -177.2210      -174.7129      -172.9122      -171.4642      -164.5717
      -167.0306      -160.9131      -157.3455      -154.4077      -150.7435
      -144.9504      -146.6588      -141.9512      -139.6212      -137.5201
      -134.2993      -129.3819      -125.2342      -120.0024      -115.9863
      -109.9019      -107.8312      -99.68289      -93.62518      -89.76712
      -88.10063      -75.90701      -69.95157      -60.50803      -55.52553
      -43.08815      -40.62681      -30.58834      -23.35340      -11.71377
      -4.754601       8.626274       15.03206       26.96014       32.92291
       44.21893       53.07803       67.33786       74.79160       84.17651
       93.47049       110.7962       119.2617       127.7556       133.6082
       146.4516       160.3897       171.2571       175.5438       190.6307
       196.2698       203.2570       215.2850       226.6167       228.2787
       234.7667       241.3509       250.3130       253.7770       260.2156
       261.6313       265.6721       268.4449       278.8757       282.5475
       280.8042       275.5983       283.5293       283.3665       283.9807
       281.0608       279.5797       280.8625       281.3759       270.7422
       273.0659       271.7279       266.1539       261.5235       260.0897
       251.8292       248.6346       246.3866       239.7242       224.9791
       228.5388       232.7681       208.5345       178.0630       181.4207
       225.2786       221.7381       100.3491       114.2346       221.0208
       214.1026       149.3649       34.25278       35.73676       148.7224
       175.2184       138.0497       76.62486       30.85008       54.11267
       112.8402       43.66862       31.94220       84.60315      -38.01328
       3.665565       88.89961      -51.19907       60.32954       59.43213
      -140.3755      -49.41898      -4.716995      -98.08949      -43.23059
      -45.11365      -167.8997      -84.12817      -64.43674      -127.2963
      -108.7663      -94.00891      -70.03912      -256.2335      -208.8069
      -11.12640      -182.0822      -230.5049      -111.2251      -211.4647
      -344.2571      -192.8811      -62.87848      -181.5215      -408.6839
      -352.3259      -79.16565      -197.7432      -291.3910      -234.7709
      -419.5666      -374.8885      -171.2527      -269.8604      -334.7980
      -309.8275      -375.7836      -333.7572      -225.4493      -316.2788
      -458.1687      -411.1978      -270.8170      -339.5852      -441.2969
      -328.5220      -369.3344      -422.3721      -394.5796      -400.1155
      -314.2306      -378.5228      -422.1259      -299.3372      -448.4902
      -453.0604      -284.0109      -416.1416      -379.4628      -298.6592
      -384.8458      -415.1428      -344.7886      -321.1414      -387.4526
      -388.9965      -351.5364      -296.2249      -341.5905      -408.4110
      -243.0800      -186.9629      -457.2620      -419.9176      -223.7966
      -261.4094      -292.4139      -316.9708      -339.7966      -312.4892
      -202.7501      -210.1647      -323.1991      -254.9081      -163.5573
      -243.0036      -295.9511      -193.1705      -228.1147      -286.8900
      -133.6430      -106.6671      -213.9208      -255.0579      -153.8658
      -96.45386      -186.9602      -163.8088      -93.61005      -88.51477
      -48.35492      -186.7733      -229.5045       28.13176       58.61938
      -115.9095      -192.4130      -69.85509       76.34105       12.46765
      -56.44674      -25.87146       84.31012       113.7179      -19.96217
      -47.92194       113.7859       93.92117       50.79922       169.4743
       61.99173       70.51428       205.0617       130.1566       97.84088
       138.5912       145.3311       219.3820       290.0008       174.3359
       132.3142       271.7930       284.6112       219.5067       287.5582
       290.9231       178.4624       283.4227       468.8318       349.6069
       263.0686       387.7264       302.2739       265.3342       534.0781
       488.2958       208.1250       346.3163       525.4492       433.1907
       408.0684       404.6724       418.2902       499.6654       505.4541
       457.4333       473.7048       471.6692       409.9669       421.3186
       562.4507       583.3536       372.6815       415.7251       589.4066
       460.4752       440.2791       507.6733       456.3516       430.3496
       481.4799       498.5735       430.2535       432.6516       441.1953
       434.3672       510.5979       452.5193       380.0146       386.8103
       436.6348       426.8669       333.7595       364.9502       443.5804
       342.0162       223.3387       409.2141       375.7393       165.5076
       311.6443       336.8612       185.7972       141.9419       259.8215
       346.6223       129.7292       86.61108       239.2373       213.0087
       129.9448       73.84302       105.4221       157.2658       95.97400
       41.41311       28.07312      -4.868988       37.87573       106.6909
      -2.082947      -60.90085      -10.18871      -24.16507      -104.1284
      -84.73511       19.89291      -83.07556      -119.3912      -50.47827
      -194.3286      -184.7585      -26.51898      -60.94727      -165.7161
      -251.3216      -195.3752      -83.53357      -196.0830      -276.0970
      -158.6770      -140.5552      -231.4530      -241.4272      -176.1982
      -269.8718      -317.5698      -214.7390      -244.7805      -259.2335
      -249.7516      -289.0793      -267.6707      -330.4990      -305.8108
      -313.1592      -267.7562      -234.7589      -382.5966      -302.0240
      -280.0997      -315.4415      -345.7211      -408.2406      -244.1776
      -303.5154      -422.4861      -318.8625      -368.3626      -337.6827
      -253.5486      -385.6761      -473.4060      -347.0395      -210.3472
      -379.4821      -466.7543      -289.3195      -301.7172      -351.5676
      -303.6025      -397.7988      -410.9166      -272.3799      -235.3726
      -379.9047      -341.6940      -246.6372      -425.2675      -340.7985
      -157.0978      -322.1632      -370.7589      -261.1711      -215.1019
      -267.7543      -286.7872      -227.2084      -225.3042      -174.1989
      -159.0806      -224.6957      -222.6902      -129.4293      -138.6259
      -239.1895      -167.1458      -23.77173      -146.9510      -189.7799
      -86.07025      -109.8566      -37.43863      -48.27050      -94.05207
       64.98746      -27.55640      -197.2351       27.68818       72.39400
      -87.30827       17.04999       45.83002       44.38356       75.78441
      -10.69031       41.58023       96.28397       38.81976       109.0667
       77.39218       59.34619       138.2450       83.30811       86.83221
       200.6674       182.0509       44.61859       104.5320       273.1397
       178.0290       83.62646       155.8312       232.0602       273.3485
       176.4100       122.8093       261.8529       220.7375       184.5110
       317.0509       252.3075       174.5159       268.6926       251.1765
       242.1426       263.7404       272.9145       276.0261       324.7281
       240.2783       162.0952       354.1373       274.4686       221.7024
       321.9918       191.7274       263.2057       403.5753       244.3948
       164.5321       316.1917       325.5121       221.4279       249.3263
       260.8818       174.1050       299.6780       303.5677       167.3807
       245.9149       250.0806       177.6221       256.3831       232.4033
       81.22064       180.7007       243.2240       120.1667       127.4349
       203.4951       185.3928       117.8887       129.9281       63.97253
       52.56525       199.3596       117.8952      -46.15280       41.53946
       116.1677       8.776527      -8.541359       44.82440       2.940262
      -78.37175     -0.9238129       43.97009      -138.8224      -135.6465
      -71.23358      -54.84470      -9.830994      -148.4080      -169.4161
      -106.6902      -171.1641      -169.2780      -145.3884      -145.6719
      -246.1185      -245.6232      -87.05579      -259.8929      -294.4712
      -131.1685      -250.1121      -213.1542      -269.2623      -350.6187
      -191.2184      -261.8841      -293.4513      -232.3569      -279.8353
      -272.5667      -285.2477      -318.0245      -292.8658      -296.7700
      -354.6386      -269.3569      -223.4832      -410.9273      -350.2693
      -149.1625      -299.1967      -401.4500      -309.5920      -277.0209
      -273.0419      -329.9524      -268.3274      -234.4688      -370.0031
      -335.7990      -207.6495      -243.0093      -260.9913      -260.2870
      -293.5559      -256.6740      -250.0839      -260.1100      -133.2556
      -188.8007      -282.4163      -133.8599      -201.1966      -233.3221
      -52.97675      -133.5835      -182.0583      -147.1468      -96.19928
      -90.38226      -136.6592      -58.23747      -28.41591      -73.29976
      -25.20772       3.372559      -92.11488      -73.64487       72.81609
       19.28563      -43.75705       36.13400       79.12784       106.5117
       44.71687       42.51834       131.2286       73.08762       139.3154
       143.1140       85.34155       167.4003       134.9453       220.8567
       223.6064       54.62787       195.4104       286.7234       164.4794
       141.7574       248.2456       271.1840       273.9376       322.1033
       305.9775       281.0645       304.3475       248.2792       218.3884
       394.0092       410.7036       224.6730       416.0720       491.2705
       187.4596       263.7482       453.1006       373.8131       362.2026
       378.0175       371.6079       373.0331       345.5463       362.1073
       457.0815       480.3879       379.4480       332.5045       400.8279
       430.7251       412.3419       363.5793       340.3738       365.7700
       354.5044       358.1251       349.0367       425.0259       445.3264
       222.2238       382.0334       491.7982       185.4521       391.1476
       509.6992       241.1116       364.3563       351.9027       270.9351
       381.5092       369.1133       270.0743       242.8618       420.9191
       365.2746       167.3319       322.1034       300.4811       206.1318
       303.8195       274.7190       233.9831       170.6854       193.9102
       352.4217       192.5238       119.5292       217.8488       120.1241
       181.4059       263.8118       104.1919       127.6915       91.67439
       47.78204       100.1454       40.58325       131.0410       13.01616
      -73.27136       226.3724      -9.582947      -261.7311       8.478546
       104.3353       2.155792      -97.46997      -139.1831      -79.16599
      -72.91800      -85.51395      -94.92877      -176.9479      -227.3436
      -89.35551       1.097473      -84.30713      -207.3619      -179.3050
      -207.8321      -231.8739      -162.1014      -380.1826      -633.1505
      -526.2704      -418.4990      -292.0907      -341.2102      -902.4434
      -1158.924      -463.7087       374.7348       493.9801      -113.2917
      -847.5426      -566.0007       15.44910      -394.2080      -697.0059
      -917.4919      -883.5334      -288.1416      -904.1509      -1432.584
      -647.6999      -199.4476       27.98108       402.8209       190.8545
      -149.3348      -410.0078      -681.4531      -552.9824      -993.2837
      -739.2086       293.0015      -90.50525      -429.3796      -678.2048
      -1173.766      -704.1001      -489.2483      -862.5407      -446.5138
       388.5437      -415.0959      -1595.728      -673.8367       92.41992
      -818.2195      -1116.819      -416.6053       8.012634       559.7018
      -267.9287      -1393.464      -473.3687      -299.5551      -578.7156
       31.95117       252.8633      -547.3586      -1120.914      -266.4878
       61.33301      -482.7000      -668.3090      -698.8488      -280.9340
       132.8122       59.64294      -218.4645      -557.9352      -442.3523
      -496.3452      -267.0732       337.0100      -42.32642      -785.9098
      -715.6409      -38.14679       99.29520      -92.03952      -62.55893
      -70.00037      -305.3760      -407.8739      -115.2995       32.15358
      -28.66544       1.214859       131.6207      -46.97229      -483.8081
      -303.4402       281.1309      -373.3303      -485.8713       864.3052
       485.2756      -641.1508      -369.7725       490.7211       345.4383
      -306.9149       100.8952       29.23224      -62.84375       492.9907
       395.5752       181.5402       28.52398      -93.71838       127.6633
       296.3123       170.7227       383.5170       583.3784       33.84451
      -39.56042       430.0093       535.9712       201.1977      -137.4469
       214.1211       438.7025       178.6076      -1.895363      -41.65399
       150.0408       514.3831       647.0719       472.3417       401.3735
       314.0010       220.1223       607.3776       764.2767       477.4211
       447.7135       431.0256       557.2017       265.1018       142.0879
       621.4021       633.8192       658.2502       295.5406       225.7100
       1041.722       786.1727       93.21460       345.2461       655.4635
       424.1687       464.6709       722.2236       721.1498       308.3253
       107.3350       798.3542       916.3307       332.9724       121.6873
       392.2964       448.1023       305.9443       718.1356       601.2043
       256.8113       397.0437       441.0774       703.8279       814.6338
       440.0112       226.3569       289.1111       390.2379       671.5839
       511.3082       31.35803       254.6572       392.7002       416.3622
       676.9812       134.1605       39.83313       608.1409       242.9270
       22.53870       170.1890       279.6569       271.7070       142.4266
       348.8011       421.6050       42.68887      -182.4561       85.31238
       359.0881       410.5453       226.2105       126.8425       148.6336
       50.05634       79.38876       145.9600      -20.73454      -117.3305
       221.2942       175.0768      -247.6676       55.26465       335.9871
      -117.4700      -277.3321       44.86215      -44.08124      -130.9257
      -128.8439      -177.2876       196.2490      -54.37500      -314.0767
       142.6754      -26.18225      -378.9263      -221.8907       99.64206
       123.5682      -153.6328      -150.5829      -13.10571      -233.5415
      -223.4682      -29.66235      -299.1365      -299.6599       41.01080
      -42.82971      -168.2483      -118.3287      -205.8876      -193.4484
      -290.9246      -277.0778      -15.83966      -146.0362      -88.52780
      -62.03613      -240.2056       14.90326      -86.04138      -266.3909
       41.82794      -7.519012      -99.72180      -141.3417      -303.0588
      -76.18726      -104.9590      -290.6430      -151.7173       75.35794
       266.1260      -36.63367      -410.3082      -208.2525       83.34131
       23.99438      -101.1767       20.58038       36.09433      -210.3148
      -53.19165       24.45850      -320.5677      -186.8205       32.97442
       37.35486      -172.9030      -295.5356      -10.71471       87.60681
      -77.56531      -231.4686      -217.0107      -34.52861       33.47882
      -50.92090      -99.89255      -170.7347      -31.95230       178.9295
       77.07788      -250.8895      -246.7102       102.7986      -149.5710
      -479.5856      -226.7796      -2.559387      -86.89502      -322.0880
      -115.1246       123.2324      -204.5677      -306.6403      -154.7365
      -228.3234      -176.0068      -91.13635      -193.9478      -186.6521
      -154.1325      -154.3214      -196.7390      -89.15454      -167.5588
      -380.4314      -207.9885      -92.82263      -252.1685      -261.5583
      -25.76465      -116.3019      -284.0964      -278.9470      -271.4238
      -144.0321      -74.22015      -93.24500      -211.1698      -455.8934
      -282.4034      -49.08350      -250.3010      -195.8032      -110.5497
      -357.7997      -279.8460       50.00378      -103.5331      -404.6319
      -320.7038      -180.8405      -122.2963      -172.7141      -297.3575
      -315.7973      -153.6273      -128.3001      -267.2540      -250.2743
      -273.9980      -247.3240      -183.7041      -124.1045      -84.56396
      -401.7356      -495.4212      -35.78969       66.23035      -313.8552
      -356.8373      -221.2057      -86.37558      -65.72144      -364.0433
      -342.8879      -223.0913      -263.6765      -170.0573      -6.149490
       20.22522      -178.5566      -165.3082      -101.6245      -218.0826
      -202.1240      -151.8344      -164.6188      -228.8107      -66.04838
       29.30869      -90.24159      -11.32513      -144.1975      -167.7505
      -109.4626      -115.9093       107.6025      -23.58322      -105.0354
       64.33464      -60.94028      -70.35423       24.83502      -93.24251
      -91.88867       189.8778       65.67682      -282.0967      -15.89252
       172.3527       9.423248       36.86267       96.36649       79.29254
