     0.02500000      -1399.219       1790.042      -12345.00      -12345.00
      -29.99499       220.1800      -21.32000      -12345.00      -12345.00
       0.000000       15.59000      -12345.00      -12345.00      -12345.00
      -12345.00      -12345.00      -12345.00      -12345.00      -12345.00
      -12345.00      -12345.00      -12345.00      -12345.00      -12345.00
      -12345.00      -12345.00      -12345.00      -12345.00      -12345.00
      -12345.00      -30.27030      -67.72450       1286.000       0.000000
      -31.06700      -68.46300       0.000000       100400.0       0.000000
      -12345.00      -12345.00      -12345.00      -12345.00      -12345.00
      -12345.00      -12345.00      -12345.00      -12345.00      -12345.00
       113.1809       38.89222       218.5174       1.017598      -12345.00
      -12345.00    -0.03931863       270.0000       90.00000      -12345.00
      -12345.00      -12345.00      -12345.00      -12345.00      -12345.00
      -12345.00      -12345.00      -12345.00      -12345.00      -12345.00
      2008       164        19         3        59
       120         6    -12345    -12345     10008
    -12345    -12345    -12345    -12345    -12345
         1         7        13    -12345    -12345
    -12345    -12345    -12345    -12345    -12345
    -12345    -12345    -12345    -12345    -12345
    -12345    -12345    -12345    -12345    -12345
         1         1         1         1         1
RINC    -12345          
        -12345  -12345  
-12345  -12345  -12345  
-12345  -12345  -12345  
-12345  -12345  -12345  
-12345  -12345  -12345  
-12345  -12345  BHE     
ZL      -12345  -12345  
[...]
       132.4734       133.9488       137.6146       137.8693       143.4365
       148.1881       152.3515       153.4451       160.8330       161.2278
       166.4244       168.9612       172.1765       175.9016       183.0675
       181.5856       184.9160       187.4751       193.7929       195.1502
       201.0918       203.0160       208.8180       208.3796       212.9776
       217.3607       221.7983       222.5361       226.0021       226.2581
       230.5038       230.9436       235.6469       233.2591       236.7190
       239.9600       245.0995       240.2716       244.4525       244.9321
       249.0043       245.1525       249.4802       248.4963       252.5937
       248.4457       249.9001       247.2177       249.9662       247.3366
       248.4846       245.9802       248.8097       245.7649       243.5587
       241.3253       245.6556       240.9470       240.3585       236.8710
       236.6022       236.7793       235.5092       233.1157       231.5186
       228.5423       227.0830       226.3230       223.9122       223.1467
       221.9579       221.4398       220.0459       217.9276       214.9222
       213.4876       212.5507       207.9094       205.2542       201.8053
       199.1492       196.5122       194.7576       190.5330       188.3197
       180.8177       180.5338       173.6826       171.7216       167.6433
       163.2852       155.8560       154.9115       146.4780       142.2528
       134.3319       127.6554       122.3105       115.0602       106.5729
       101.8376       93.21777       86.92294       83.06784       76.42329
       67.11696       58.53912       49.10124       40.57306       34.60340
       27.52918       18.23264       11.01222       3.589954      -5.126259
      -12.90533      -23.70045      -29.44159      -39.48729      -49.12979
      -57.29211      -65.68155      -76.59906      -86.99500      -95.64160
      -104.2113      -115.6669      -125.4409      -135.9806      -147.5389
      -160.8826      -170.8432      -181.9147      -191.2785      -201.4285
      -212.6665      -227.1346      -238.5042      -251.6355      -265.3192
      -280.6958      -287.9338      -299.1934      -313.3087      -328.7733
      -338.5618      -351.5765      -362.9073      -375.6072      -386.2433
      -403.5964      -414.9369      -424.9824      -431.0703      -444.0840
      -452.7809      -466.4968      -476.3182      -484.9915      -488.1627
      -500.8090      -511.3461      -519.8704      -523.7292      -530.7737
      -535.3744      -543.4749      -543.3052      -551.3170      -558.5356
      -559.5667      -557.3033      -560.6887      -563.3595      -565.4611
      -565.2560      -565.6346      -557.8314      -555.5623      -553.4668
      -551.2439      -546.7991      -541.4575      -533.5510      -529.7290
      -520.3702      -505.1326      -495.6351      -487.3533      -476.7170
      -456.4258      -429.4410      -446.6323      -447.9915      -394.8027
      -352.4230      -348.4203      -401.1478      -482.8702      -320.8757
      -165.4487      -358.9109      -353.5607      -182.5085      -316.7133
      -215.1402      -97.60065      -291.5697      -179.4557      -133.9353
      -224.2667      -99.61490      -129.6525      -18.85066      -4.189575
      -194.0791      -37.80115      -7.422363      -64.49223       51.97586
      -59.96297       15.28139       64.28706      -93.75323       95.62305
       185.5370       30.70743       59.99860       109.9325       62.06873
       149.9666       189.3373       156.2906       166.2784       70.48752
       128.3973       256.1510       231.3665       131.6452       132.7072
       132.4062       211.0834       281.8950       195.3521       132.3137
       142.1051       239.1908       200.2443       209.4027       250.5963
       129.1680       163.4277       211.1503       190.4104       231.7488
       200.5524       122.4306       158.5710       193.3774       208.3368
       191.6340       145.3293       182.3978       165.5480       137.3707
       187.2649       146.6144       179.6965       188.2175       77.36316
       137.6795       195.7131       164.3660       161.3018       92.82980
       129.7640       199.7263       89.07010       139.9792       223.3294
       108.3374       93.84372       132.4770       129.9495       75.34528
       76.67371       192.3449       166.2699      -2.127441       86.20123
       180.6783       122.7164       96.03592       68.51212       69.87720
       118.1349       111.7391       132.9733       57.27718       8.018188
       156.8077       149.2029       28.60205       48.49329       93.28720
       90.35828       76.47995       59.63898       52.59875       92.24158
       152.6260       48.53410      -13.29507       145.5173       118.9148
       62.46313       96.40167       88.47165       90.67636       109.0545
       112.6191       46.39108       58.16357       102.4671       102.0929
       130.7301       88.31345       64.92419       179.4714       217.9620
       142.5718       62.47522       90.90869       218.3298       196.9926
       108.8833       105.2806       173.1355       238.0657       193.5294
       75.74771       104.5149       248.2110       185.6969       114.4692
       226.7932       201.3892       199.1090       265.4026       129.8662
       107.2885       268.5183       238.7158       210.2622       225.1025
       160.2195       162.2047       227.8307       258.9602       221.6671
       263.1763       215.2239       111.5300       236.7825       298.2303
       229.0110       222.6729       204.2765       193.2229       266.5466
       284.0804       205.8031       232.0338       293.4877       244.9650
       202.9316       193.5938       257.8585       285.8376       269.3140
       243.6329       187.4307       312.2020       300.0312       121.2806
       221.7634       292.9503       245.6387       209.6431       196.6741
       272.9855       275.2842       275.9308       214.0305       188.9792
       299.5992       247.1458       167.2012       234.2994       235.2078
       213.4158       259.2605       184.6744       110.7667       207.3353
       244.1331       150.8248       118.5843       191.3328       190.2079
       181.7733       158.5760       82.13977       112.3861       119.6005
       182.1060       186.7335       62.00772       88.58215       80.07281
       115.8245       146.2176       10.85794       65.57318       78.71672
      -12.87814       51.28560       73.14814       54.16028      -24.43516
      -84.33374       47.66610       35.98039      -62.28897      -49.53329
      -115.4430      -100.5331       18.23727      -18.79260      -156.7193
      -159.1375      -79.47870      -104.6517      -89.90692      -111.8322
      -246.0560      -142.3676      -169.4056      -277.9814      -130.5957
      -160.1859      -234.8261      -216.4449      -289.0797      -266.3439
      -262.2573      -280.1966      -214.4908      -260.1685      -387.1014
      -351.0618      -224.1342      -246.3130      -402.5896      -399.6227
      -309.4651      -274.8149      -375.5365      -457.2931      -353.9343
      -319.4536      -391.2256      -378.9001      -434.9008      -422.4352
      -385.7585      -416.3271      -352.3054      -411.0802      -506.2977
      -435.3518      -368.9242      -428.4072      -443.5306      -448.1636
      -467.8177      -411.4159      -367.5204      -425.3247      -543.3123
      -446.0922      -386.7205      -407.1077      -407.0780      -486.7474
      -440.7058      -375.1202      -430.9393      -397.8972      -404.6682
      -375.3687      -363.0046      -429.4595      -380.3521      -337.5564
      -321.5780      -371.9270      -352.6952      -269.7000      -354.0392
      -317.7964      -209.9313      -280.9535      -366.7014      -278.1775
      -192.1824      -252.0266      -297.3903      -173.6053      -139.1711
      -206.1198      -233.5396      -231.6418      -78.28259      -108.5867
      -262.7179      -105.0126      -35.14777      -111.2902      -114.3029
      -44.38647      -41.91068      -129.2551      -81.29700       7.184929
       55.57584      -4.516624      -75.38744       25.01251       50.46205
       69.87315       88.69664       50.51219       50.59750       109.2875
       115.2166       80.08575       201.6982       186.1874       36.07947
       96.48914       151.5441       215.4672       240.1276       140.6963
       171.0633       176.7930       138.2622       332.2378       342.6348
       135.3552       187.8398       321.0438       264.6632       184.6807
       299.7411       322.1499       182.1125       272.4270       264.5002
       267.0314       376.6515       256.2006       158.7480       348.2700
       385.9430       291.3868       328.6208       348.9874       294.2517
       217.2196       328.7943       381.6725       262.0103       348.0536
       301.0460       287.3879       418.7609       335.9542       271.7302
       346.6282       359.6621       326.0260       369.8444       348.4343
       298.4847       375.6453       383.1859       361.5732       360.4639
       361.4848       337.8553       298.5323       346.2676       456.0734
       347.3922       330.8458       434.7979       283.8756       334.1753
       466.9694       271.8719       310.5083       428.4186       337.8507
       336.6842       348.3528       344.5557       364.2539       319.4441
       323.1232       320.2020       318.7490       337.7011       293.7360
       253.3505       254.9253       287.1929       319.8335       313.3802
       247.8478       241.4424       311.6697       209.9336       199.5800
       220.1917       137.1390       256.7227       278.7256       146.9842
       127.2162       105.8275       179.8005       219.8276       119.1756
       90.88336       111.3294       111.5433       92.88361       11.76639
       122.7489       115.8280      -35.22565      -20.85961      -4.981628
       83.54075       70.82031      -49.04976      -65.62943      -26.32327
       35.75439      -68.77332      -93.88634      -24.69437      -100.8192
      -71.42841      -28.74142      -164.7687      -163.8398      -94.45294
      -84.82684      -118.7491      -206.1930      -190.1447      -137.8043
      -154.7394      -105.7731      -175.3967      -272.3800      -151.1514
      -135.5273      -302.9420      -204.2429      -130.8093      -149.0671
      -184.4726      -329.3247      -224.8480      -150.6637      -305.7139
      -302.6234      -209.0718      -211.4267      -244.2847      -291.2342
      -265.3900      -258.0502      -348.0891      -246.0333      -215.0933
      -313.9366      -311.5626      -335.7679      -355.2849      -310.1296
      -270.2156      -292.8872      -370.0393      -375.4053      -338.5824
      -368.3074      -311.0773      -327.4150      -435.1240      -349.9892
      -298.3059      -341.2021      -347.9146      -407.4279      -391.8225
      -414.7405      -466.2563      -328.8435      -328.1184      -473.1079
      -414.5426      -348.1439      -442.5396      -448.7190      -376.1354
      -405.4200      -494.2278      -467.5186      -359.3076      -375.1537
      -359.6099      -411.4331      -492.9368      -426.8708      -372.2908
      -283.9924      -350.0968      -434.7336      -345.4048      -383.7993
      -495.3999      -432.1036      -328.1438      -344.2554      -359.2052
      -382.9095      -368.9739      -280.7647      -296.2007      -299.8726
      -270.5968      -283.0585      -310.4228      -304.3137      -219.8720
      -111.9395      -198.8687      -404.2374      -301.0117      -45.85248
      -53.49908      -257.1042      -300.5516      -99.03909      -100.4877
      -95.01324      -54.32898      -188.2487      -140.8936      -47.06583
      -32.71585      -32.45312      -110.9106      -29.31001       80.47963
       5.455444       15.10071       104.9626       16.63533      -65.05713
       42.92047       147.6004       84.14044       53.86255       175.5533
       127.9871       48.09253       175.7560       180.7396       192.0233
       241.5704       152.6567       161.1549       229.7252       319.1577
       289.2800       166.1340       240.1610       306.7094       311.2136
       307.1600       256.6478       187.9075       126.1509       83.47659
      -53.59738      -123.9018      -10.53186       187.7682       617.5563
       693.8528       345.2550       460.5610       723.7690       866.9070
       1064.957       269.1476      -867.5000      -132.4077       1544.000
       1498.822       120.8002      -256.2721      -18.12708       101.8469
       1082.857       1474.810       403.2802       342.7766       836.3413
       732.5664       856.0063       232.8396      -336.4648      -293.3193
      -255.6411       880.7920       1790.042       1086.365       703.5061
       936.5773       294.9905      -57.58936       627.9150       1305.005
       795.2551      -866.5760      -815.4482       1215.670       1628.381
       151.8851      -575.1748      -46.11670       859.8052       388.9731
      -63.85327       979.8879       693.3193      -516.5066      -112.7246
       987.4024       593.9148      -414.2372      -69.50134       441.4818
       249.9155       114.4939       493.2390       606.0391      -20.74469
      -301.5345      -46.68054       417.0822       195.6993      -187.1743
       13.81439      -123.7104       660.5369       1352.729      -276.0640
      -1066.778       175.9927       512.0701       153.8294       107.9108
      -231.6285      -306.7419       133.0889       643.0344       652.4476
      -200.9262      -306.3862      -56.64722      -328.3689      -297.9700
      -285.0847       136.0975       207.7145      -370.1726      -28.19650
       126.5439      -59.19780       47.59723      -52.91821      -448.5795
      -826.9250      -33.44476       387.2283      -50.25708      -287.9209
      -533.9847      -86.56342      -9.238525      -695.0396      -876.9819
      -635.2736      -190.9938      -15.81897      -377.2672      -144.3958
      -235.5505      -806.0632      -205.7983      -52.13098      -678.4260
      -655.7267      -204.2158      -326.4111      -980.1230      -782.8438
      -256.0867      -341.7903      -515.7053      -832.5718      -1007.856
      -386.6691      -167.3652      -747.0800      -700.8752      -396.2092
      -558.4900      -875.8976      -664.0599      -43.95435      -537.1465
      -1399.219      -870.4041      -288.8151      -513.6235      -606.1481
      -594.7681      -651.0125      -540.0420      -822.6038      -1094.138
      -582.1216      -359.3169      -554.4189      -579.3940      -599.9327
      -594.6588      -629.9620      -507.7058      -464.7935      -827.7275
      -748.4030      -365.1642      -334.9155      -362.7050      -400.9470
      -652.1765      -977.6200      -598.8497       100.9923      -282.4771
      -888.3655      -684.8063      -355.6796      -452.0355      -448.5361
      -238.7678      -453.4152      -580.3676      -353.6827      -238.5935
      -256.1270      -231.8210      -523.0205      -555.1622      -288.5702
      -341.6064      -253.7047      -52.39917      -114.0811      -403.4504
      -203.4027       3.461121      -203.8032      -478.7198      -514.9308
       101.4758       238.1160      -31.26007       172.8456       208.3458
       43.51740      -169.1665      -266.1260       148.8749       301.0986
       73.18915       191.0547       206.6826      -35.42322       108.2968
       355.1378       365.5012       242.5524       123.2908       137.3679
       66.10254       173.9197       377.7549       462.5144       410.0586
       296.7732       406.0497       476.5337       243.9564       203.4404
       690.9896       687.9805       307.7061       400.2418       710.5811
       468.5852       280.0402       588.0265       410.4619       504.0837
       727.4446       579.0571       771.8516       655.1562       287.8103
       752.4690       903.1157       477.6213       847.6023       870.4734
       329.0327       465.2913       900.3982       1012.027       753.7410
       556.7262       624.6260       795.2827       858.1646       718.1724
       824.2744       1026.798       857.6475       881.3235       808.0605
       454.3232       659.7725       876.4861       883.9292       972.5120
       705.5723       619.6592       928.4312       894.1160       584.1316
       695.3125       1084.175       891.9080       689.6899       983.6804
       895.9238       613.1030       750.8535       682.8445       729.0215
       815.9900       549.0051       897.4741       1273.120       665.7157
       381.5903       706.4216       764.2520       584.7356       409.6326
       681.0674       985.9675       733.5181       431.7422       624.6733
       698.1993       265.6997       314.3916       699.0132       800.4366
       610.2426       198.8306       239.7662       674.9210       465.0093
       237.1667       508.0596       445.2475       203.4750       225.9576
       187.9622       182.4262       368.3836       250.2094      -122.3846
       60.38757       394.7880       268.6866       89.93346       72.14301
      -80.10956      -88.68668       129.9460       88.06738      -87.61832
      -178.3360      -79.36310      -64.05670      -242.4353      -239.7362
      -381.1343      -205.2110       12.01929      -320.0405      -313.7013
      -147.0374      -231.6068      -201.5518      -542.0270      -722.0118
      -275.1886      -279.4376      -518.6912      -425.3938      -439.3486
      -658.0394      -620.7839      -481.6946      -599.0068      -625.6743
      -561.7472      -391.8618      -313.4333      -686.4119      -951.8555
      -771.3342      -513.9448      -602.5049      -837.7009      -738.8711
      -665.1938      -776.0798      -807.5146      -875.8569      -793.0337
      -723.5583      -975.5388      -847.9320      -588.6726      -842.5554
      -1010.573      -994.9189      -881.7192      -871.2812      -1087.110
      -1066.053      -745.8037      -823.1978      -1141.253      -796.0081
      -713.8721      -1108.672      -1064.904      -901.5227      -995.5190
      -1007.573      -863.7314      -971.8596      -1192.785      -945.9353
      -743.8457      -965.6582      -944.1863      -783.1157      -705.7817
