     0.02499999      -1795.626       1744.548      -12345.00      -12345.00
      -30.00505       219.6949      -21.23000      -12345.00      -12345.00
       0.000000       15.91000      -12345.00      -12345.00      -12345.00
      -12345.00      -12345.00      -12345.00      -12345.00      -12345.00
      -12345.00      -12345.00      -12345.00      -12345.00      -12345.00
      -12345.00      -12345.00      -12345.00      -12345.00      -12345.00
      -12345.00      -31.91720      -69.02180       2396.000       0.000000
      -31.06700      -68.46300       0.000000       100400.0       0.000000
      -12345.00      -12345.00      -12345.00      -12345.00      -12345.00
      -12345.00      -12345.00      -12345.00      -12345.00      -12345.00
       108.1908       209.2434       29.53385      0.9727725      -12345.00
      -12345.00     -0.1394611       0.000000       0.000000      -12345.00
      -12345.00      -12345.00      -12345.00      -12345.00      -12345.00
      -12345.00      -12345.00      -12345.00      -12345.00      -12345.00
      2008       164        19         3        59
        30         6    -12345    -12345      9989
    -12345    -12345    -12345    -12345    -12345
         1         7        13    -12345    -12345
    -12345    -12345    -12345    -12345    -12345
    -12345    -12345    -12345    -12345    -12345
    -12345    -12345    -12345    -12345    -12345
         1         1         1         1         1
SOMB    -12345          
        -12345  -12345  
-12345  -12345  -12345  
-12345  -12345  -12345  
-12345  -12345  -12345  
-12345  -12345  -12345  
-12345  -12345  BHZ     
ZL      -12345  -12345  
[...]
       582.8933       599.9893       613.1508       567.7222       528.5691
       572.5481       607.1685       579.5551       577.8206       591.2278
       540.1873       492.8374       489.7222       511.2681       515.0408
       476.7556       441.4980       462.7224       473.9222       442.8971
       413.9603       403.2909       402.6510       377.0906       354.2461
       362.6254       344.6641       309.8512       295.3694       296.5369
       269.0293       249.1732       237.0463       220.7731       206.3927
       202.6122       174.3004       123.6239       86.94940       108.7402
       100.8304       41.19858       39.52615       19.70219      -42.71596
      -25.18208      -16.35286      -64.42847      -119.1507      -107.2941
      -103.9637      -150.7516      -141.1845      -154.5104      -237.3295
      -218.7042      -202.5544      -244.7775      -286.3060      -332.9417
      -337.0234      -325.8561      -355.8472      -392.9534      -433.8002
      -442.8523      -429.8154      -447.9808      -479.3579      -483.4709
      -506.3523      -547.8861      -568.3396      -566.5546      -553.1544
      -530.2968      -533.1744      -557.6765      -587.2346      -585.3059
      -577.4695      -612.9678      -614.2051      -579.5142      -590.5743
      -593.4470      -573.2888      -607.5291      -627.8308      -594.0967
      -583.1189      -611.4065      -610.0905      -581.3665      -580.4438
      -571.6592      -569.0302      -580.8491      -572.1659      -546.8884
      -505.1372      -507.6162      -534.4629      -523.9938      -503.7617
      -508.3942      -481.6515      -463.8208      -447.3870      -396.1542
      -381.2456      -429.7826      -446.0895      -425.3258      -385.9636
      -368.9972      -361.0892      -330.9341      -281.7769      -271.2393
      -298.3811      -296.0635      -272.8736      -250.9754      -227.4216
      -231.4283      -230.8458      -185.3040      -136.0488      -105.5571
      -82.38403      -72.06613      -89.21123      -64.45325      -31.95688
      -55.37259      -61.50020      -6.690094       29.08788       32.61713
       56.66727       93.27225       84.87527       84.66425       71.91055
       49.20190       88.24048       110.8340       123.5252       163.8828
       155.1502       156.4373       184.9947       161.2201       180.3448
       214.9937       181.0383       176.3590       211.9579       259.3804
       268.4951       233.6045       243.7175       280.6982       245.5198
       233.3416       280.7579       286.2325       256.8651       273.1958
       306.3510       299.0604       273.2900       255.6741       230.1127
       256.7828       275.6115       234.1755       222.9973       264.3209
       266.3420       249.4126       228.6792       209.1302       207.1297
       192.0660       178.7727       194.9361       158.6798       137.0026
       189.8824       210.7175       143.9361       96.61414       139.3922
       144.0849       66.95120       70.08791       86.08791       48.71375
       50.91223       61.24778       35.89548       8.340824       17.20423
       2.965973      -54.23843      -68.02731      -70.71164      -99.78143
      -120.3689      -137.8187      -177.9466      -192.3672      -183.0953
      -181.2794      -222.2676      -255.7653      -209.5553      -216.5695
      -282.4399      -287.2941      -265.7192      -277.9146      -325.8916
      -369.0106      -342.5461      -315.4008      -344.5381      -350.2551
      -321.4322      -291.7582      -300.7493      -343.6169      -318.2501
      -313.3643      -345.0913      -329.2969      -323.9734      -332.8411
      -303.9404      -279.7200      -284.5179      -265.9581      -225.7910
      -241.8749      -286.9696      -280.4274      -239.6000      -215.6873
      -233.5472      -255.6058      -260.6095      -250.6660      -255.4993
      -235.4233      -188.6771      -180.2867      -188.5536      -169.1396
      -182.3213      -166.8067      -109.0786      -93.42828      -138.1741
      -141.5133      -111.9035      -86.23288      -75.58249      -89.40488
      -83.51361      -62.17996      -45.97143      -20.97176      -19.96746
      -3.438566       1.438396      -17.54743      -3.766708       48.40361
       55.02118       24.39771       32.06396       82.70953       116.7635
       104.6049       97.81903       112.7075       105.8354       99.15970
       110.6099       134.8578       157.1641       186.2221       171.5956
       149.2458       194.2782       204.3872       162.8054       163.0565
       194.1960       238.5293       240.9036       206.2183       224.4636
       260.4209       256.5534       256.4368       228.0858       221.1516
       268.0455       313.3578       318.8147       289.7908       262.4213
       295.2223       303.6523       290.5471       291.5061       281.5676
       317.4172       353.7525       328.4579       319.4628       326.4978
       314.0107       313.3537       337.3842       304.4320       283.2073
       324.4065       338.9252       324.2392       299.7604       269.3451
       252.5929       257.7898       283.1494       291.5376       254.0632
       245.7259       286.7614       266.0399       246.3000       290.6382
       311.5893       290.0011       251.6547       189.1865       181.3140
       194.6304       203.3936       241.0378       229.6028       161.6801
       137.2281       147.1229       144.8393       113.5350       115.8254
       124.6034       113.9155       98.76642       95.24521       98.63165
       108.3496       97.37420       42.35518       4.263596       49.81544
       57.21477      -5.507046      -20.83370       5.236603       20.51329
       20.30149      -9.034729      -48.49651      -75.50375      -61.74565
      -42.29111      -64.67670      -91.92294      -88.72598      -79.92578
      -90.05316      -101.2287      -106.3845      -126.7703      -140.9736
      -139.9156      -141.9767      -146.2027      -152.6777      -181.9868
      -212.6769      -206.5931      -184.9047      -213.8796      -233.8270
      -186.7518      -183.7299      -260.0907      -287.3628      -261.1353
      -238.0253      -238.6528      -258.0620      -258.3174      -260.1268
      -314.5455      -331.8528      -315.7207      -309.1611      -325.4163
      -360.3708      -357.9999      -329.1726      -330.3694      -364.5955
      -378.6971      -376.0886      -385.1451      -352.1949      -313.7825
      -326.4487      -332.0701      -321.8459      -321.8159      -327.9783
      -335.6377      -312.9097      -267.2354      -231.8240      -217.4158
      -222.3024      -222.3903      -236.6498      -234.4539      -181.5417
      -152.6312      -152.7692      -161.5683      -153.1438      -104.2384
      -60.82301      -55.75641      -57.99998      -39.16416       2.771515
       31.26669       54.25171       70.21783       66.81360       78.24954
       126.7349       148.6790       142.2489       152.9704       202.3937
       229.8220       213.9427       243.7822       281.4225       299.3199
       350.4717       360.4423       350.5381       380.8441       416.9792
       424.3368       421.7102       460.1296       486.7289       496.3181
       511.7183       529.7432       550.4274       559.2180       558.9705
       582.3708       609.4746       618.5117       623.2410       666.3159
       680.3113       675.7407       691.8713       696.1960       689.0654
       702.8508       717.0632       732.1304       733.9302       733.2031
       734.9688       728.5889       734.8169       773.7798       789.0039
       759.3967       765.7886       802.8120       796.6975       776.8042
       773.9812       771.7598       766.6606       783.6890       793.6772
       764.1899       751.3936       770.3076       752.4197       699.4272
       683.7612       701.8699       701.7500       672.4597       662.5112
       630.4946       574.4358       564.1433       581.0366       573.6168
       532.4104       500.4214       495.0638       466.6663       451.9478
       430.3254       396.0560       379.4447       344.1847       286.3821
       256.0307       242.4006       217.6195       178.5956       149.2105
       149.0752       138.2617       80.07393       25.85873       10.27437
      -20.51526      -82.69156      -108.3980      -104.5597      -141.3128
      -193.7317      -217.6122      -237.5516      -272.6394      -296.7273
      -305.6532      -330.2090      -356.5535      -392.7087      -433.6525
      -444.9800      -471.3265      -528.5090      -536.4160      -550.0132
      -577.0139      -589.8473      -619.7177      -655.4001      -674.3428
      -706.7285      -726.5605      -731.6848      -752.4526      -791.9165
      -819.9990      -826.2393      -852.3286      -897.8870      -913.5732
      -925.2334      -941.5776      -955.8179      -972.6240      -995.8584
      -1019.969      -1042.473      -1066.215      -1076.987      -1074.222
      -1077.741      -1115.641      -1151.688      -1155.830      -1151.522
      -1163.104      -1178.828      -1179.774      -1159.021      -1182.021
      -1215.813      -1203.471      -1194.992      -1222.021      -1224.229
      -1174.212      -1152.724      -1209.358      -1253.775      -1210.435
      -1162.026      -1164.443      -1168.459      -1187.184      -1173.152
      -1155.442      -1169.329      -1156.777      -1108.748      -1082.533
      -1096.115      -1101.017      -1061.323      -1046.067      -1042.347
      -1014.499      -992.3989      -982.3452      -957.5647      -938.9480
      -919.0142      -876.2385      -837.2837      -832.7959      -827.1030
      -798.4395      -761.5818      -727.0820      -696.7197      -670.8591
      -631.2686      -605.2686      -577.4294      -539.1111      -516.6842
      -499.8204      -453.5104      -427.5581      -415.3887      -381.8284
      -335.5902      -314.5566      -291.6329      -258.3040      -221.9176
      -210.4429      -190.7822      -142.6866      -101.0203      -87.64029
      -48.61778      -11.99531     0.07380676       20.66563       66.08084
       97.96094       103.4173       129.4110       169.7769       205.9453
       264.8307       288.6313       290.0303       333.4602       387.0139
       408.8750       420.5950       456.4084       527.8020       584.9415
       593.7335       602.2712       645.8440       692.9785       717.6028
       747.8945       794.8250       835.1990       865.4441       896.9307
       922.1973       961.8347       1011.913       1059.951       1080.715
       1096.152       1151.292       1208.059       1229.605       1253.774
       1281.870       1303.477       1313.050       1354.316       1409.804
       1424.848       1445.841       1504.001       1524.408       1534.580
       1567.997       1591.496       1609.410       1644.210       1660.378
       1657.004       1681.993       1723.772       1733.950       1710.147
       1691.684       1693.189       1706.041       1710.354       1721.550
       1729.741       1744.548       1740.618       1693.553       1656.407
       1658.874       1674.714       1666.021       1640.032       1606.166
       1571.293       1551.821       1547.636       1519.941       1496.610
       1488.748       1469.663       1422.408       1379.852       1354.664
       1317.117       1266.431       1241.098       1206.292       1189.964
       1187.895       1120.620       1040.641       1007.633       980.9001
       941.2119       898.7158       873.3398       846.5854       795.6667
       743.7334       703.3528       682.5261       651.4877       594.6050
       539.8585       517.3225       490.5918       432.2800       377.7523
       348.4937       299.2094       257.4443       233.4429       199.4724
       172.6370       134.6450       50.45374       10.76577       11.95562
      -10.72028      -77.01947      -129.2139      -168.6981      -192.0927
      -224.7239      -273.4121      -301.8939      -318.0669      -356.7263
      -404.3989      -443.8032      -469.8242      -509.2083      -552.0562
      -587.9155      -608.2620      -633.7253      -698.3540      -742.9971
      -749.0654      -779.7830      -829.4424      -855.2107      -884.5337
      -927.2346      -967.9863      -1006.692      -1039.235      -1059.440
      -1088.090      -1144.308      -1172.530      -1184.994      -1245.022
      -1294.860      -1315.901      -1322.169      -1350.176      -1392.669
      -1432.312      -1477.593      -1503.360      -1507.470      -1542.130
      -1576.761      -1593.104      -1604.449      -1606.186      -1627.775
      -1687.282      -1722.292      -1719.664      -1726.104      -1737.478
      -1751.059      -1774.350      -1779.783      -1759.185      -1763.862
      -1792.984      -1795.626      -1787.854      -1792.664      -1790.680
      -1772.041      -1763.092      -1767.112      -1763.024      -1749.882
      -1735.474      -1735.986      -1723.556      -1699.479      -1677.268
      -1656.275      -1656.575      -1650.063      -1617.341      -1595.738
      -1582.088      -1564.275      -1538.499      -1497.980      -1452.316
      -1438.615      -1429.749      -1398.230      -1358.028      -1329.643
      -1311.645      -1285.892      -1258.625      -1229.490      -1192.686
      -1151.413      -1112.210      -1076.656      -1053.069      -1027.287
      -996.1240      -945.2910      -921.1213      -898.7761      -856.2527
      -820.3394      -782.8906      -719.2051      -672.2820      -630.1571
      -596.6887      -583.0278      -568.8387      -507.1658      -445.2642
      -398.6129      -373.6093      -334.7858      -271.4369      -219.8905
      -201.2693      -169.2393      -123.0217      -90.86896      -66.18030
      -23.29564       12.05142       68.33212       121.4284       140.4769
       159.0803       196.6442       229.8840       252.5809       273.4800
       326.0730       363.5930       362.5345       381.7466       433.6968
       465.9065       485.7817       510.7407       525.3435       535.9082
       565.2762       604.3535       635.3154       653.7858       675.4136
       692.7852       710.8843       728.1279       745.1643       764.2651
       803.6265       841.6602       854.9585       871.9788       916.0198
       940.5071       933.9653       947.4802       978.7158       1000.642
       1022.235       1024.527       1027.106       1064.060       1104.219
       1115.683       1121.858       1139.292       1163.024       1194.183
       1211.210       1224.296       1243.998       1268.943       1286.286
       1310.157       1335.312       1359.104       1363.783       1357.387
       1381.725       1432.220       1449.894       1459.137       1482.403
       1494.122       1506.354       1519.821       1508.661       1503.936
       1523.913       1532.848       1537.671       1571.825       1583.990
       1570.798       1572.379       1567.441       1555.851       1564.783
       1571.860       1569.680       1583.625       1591.416       1570.895
       1539.323       1521.689       1522.848       1515.903       1500.031
       1503.227       1498.226       1472.415       1468.646       1456.930
       1413.503       1393.083       1381.739       1358.406       1329.890
       1290.523       1247.965       1252.862       1247.250       1212.108
       1177.982       1150.212       1121.998       1099.439       1070.158
       1038.876       996.8054       965.1331       928.8438       878.8601
       838.3936       816.8569       788.1885       768.2021       742.5234
       706.9788       662.2012       611.8770       549.7972       506.1930
       475.3826       435.6531       384.3303       343.4222       302.2371
       264.7717       229.6772       197.4409       155.1825       115.3538
       84.81556       52.41317       8.378220      -34.35428      -74.06219
      -111.0425      -139.6736      -178.8229      -224.4830      -248.5831
      -277.6897      -334.3674      -373.4644      -400.5817      -436.9812
      -471.9751      -492.4518      -528.2693      -580.9220      -606.7612
      -613.1250      -649.1890      -699.7925      -726.4565      -754.0337
      -788.7397      -828.6311      -854.0974      -886.5664      -927.1631
      -959.3135      -975.2429      -1008.705      -1048.462      -1093.451
      -1110.091      -1116.216      -1127.720      -1154.102      -1178.317
      -1198.815      -1212.947      -1253.954      -1287.853      -1302.634
      -1306.955      -1324.240      -1345.289      -1354.822      -1362.753
      -1374.125      -1367.045      -1373.625      -1388.502      -1393.840
      -1393.411      -1393.665      -1389.215      -1391.724      -1391.902
      -1374.812      -1369.453      -1396.705      -1406.805      -1394.111
      -1378.995      -1367.239      -1356.158      -1356.791      -1346.744
      -1324.400      -1303.525      -1298.762      -1298.804      -1293.956
      -1271.326      -1246.434      -1225.607      -1209.098      -1179.992
      -1165.867      -1163.917      -1133.784      -1094.039      -1067.760
      -1047.314      -1026.404      -987.6885      -958.7004      -938.1938
      -913.7639      -882.2651      -845.5298      -813.1189      -796.9961
      -765.3618      -727.1562      -704.4546      -665.1101      -628.7578
      -614.0220      -578.8378      -537.7129      -516.1212      -489.5710
      -450.9177      -422.3452      -405.7546      -397.8827      -362.9211
      -319.8335      -283.1609      -256.8015      -234.5676      -211.0825
      -160.4388      -127.0378      -122.5298      -109.8030      -70.10477
      -29.78503      -4.009159       14.88174       33.82443       51.39624
       89.33810       115.2710       127.8642       149.6336       186.1942
       217.3438       211.7769       204.2700       231.3998       258.8915
       268.9655       279.7535       310.3407       338.4155       348.2653
       345.1669       355.1040       377.3354       390.8987       396.5653
       406.2915       428.0764       458.3062       475.2063       490.5315
       509.1223       521.4160       530.2600       541.9004       559.3286
       586.3279       598.4833       610.8811       632.1450       645.9342
       660.5376       669.3713       681.3875       697.3174       712.7590
