     0.02499999      -1752.905       1425.613      -12345.00      -12345.00
      -30.00505       219.6949      -21.23000      -12345.00      -12345.00
       0.000000       15.91000      -12345.00      -12345.00      -12345.00
      -12345.00      -12345.00      -12345.00      -12345.00      -12345.00
      -12345.00      -12345.00      -12345.00      -12345.00      -12345.00
      -12345.00      -12345.00      -12345.00      -12345.00      -12345.00
      -12345.00      -31.91720      -69.02180       2396.000       0.000000
      -31.06700      -68.46300       0.000000       100400.0       0.000000
      -12345.00      -12345.00      -12345.00      -12345.00      -12345.00
      -12345.00      -12345.00      -12345.00      -12345.00      -12345.00
       108.1908       209.2434       29.53385      0.9727725      -12345.00
      -12345.00     -0.8425821       0.000000       90.00000      -12345.00
      -12345.00      -12345.00      -12345.00      -12345.00      -12345.00
      -12345.00      -12345.00      -12345.00      -12345.00      -12345.00
      2008       164        19         3        59
        30         6    -12345    -12345      9989
    -12345    -12345    -12345    -12345    -12345
         1         7        13    -12345    -12345
    -12345    -12345    -12345    -12345    -12345
    -12345    -12345    -12345    -12345    -12345
    -12345    -12345    -12345    -12345    -12345
         1         1         1         1         1
SOMB    -12345          
        -12345  -12345  
-12345  -12345  -12345  
-12345  -12345  -12345  
-12345  -12345  -12345  
-12345  -12345  -12345  
-12345  -12345  BHN     
ZL      -12345  -12345  
[...]
      -164.1754      -174.8152      -196.8973      -218.1917      -223.1243
      -253.2539      -267.2722      -275.4045      -300.6089      -323.9587
      -320.2759      -333.8633      -352.9857      -363.6931      -369.1755
      -382.4757      -398.9050      -417.7979      -418.4365      -436.7039
      -438.6908      -433.4873      -456.1885      -479.2081      -477.5884
      -482.2898      -493.6079      -501.8347      -512.3479      -524.1025
      -516.8608      -527.2080      -541.1401      -541.1351      -543.6677
      -545.3403      -544.1770      -559.6655      -564.7769      -560.0746
      -553.5403      -566.6741      -566.3638      -551.3765      -558.9788
      -562.6331      -546.5748      -549.6526      -556.9586      -550.7466
      -529.3005      -529.5674      -537.1523      -529.6251      -522.4739
      -508.7795      -498.8407      -501.1475      -489.7212      -478.8398
      -468.6233      -451.6365      -445.2650      -442.1619      -427.9261
      -412.6073      -398.3403      -386.3146      -368.9105      -350.0620
      -332.8309      -328.5577      -308.3011      -286.2020      -281.4128
      -265.0663      -242.2445      -230.1753      -205.4732      -185.1666
      -174.2017      -166.1299      -146.1199      -120.1311      -102.5549
      -89.88568      -72.71767      -61.99550      -50.75314      -28.77188
      -9.521228      -2.901390       8.860809       36.21281       57.89665
       49.87680       61.87308       84.41656       87.92844       99.90613
       122.6039       136.8652       140.1605       147.7582       168.0849
       176.1877       185.4440       196.3422       193.9156       196.0356
       208.3304       219.7090       222.9769       228.9742       233.2620
       233.3198       239.4138       244.8920       241.4550       249.3139
       255.6563       252.0217       246.9085       240.9121       240.1699
       241.2891       235.7919       230.9545       218.5844       220.1547
       212.8584       200.0009       190.0677       169.3205       163.0728
       156.4632       143.3242       141.3204       123.6076       104.0400
       93.94908       77.97400       77.89229       74.69719       55.29707
       57.76425       56.11127       35.77644       35.84148       31.33653
       25.35791       26.80255       24.00877       25.33743       22.06169
       10.39450       14.84365       13.47610       6.923962       18.84558
       25.58102       31.30881       29.73153       24.67451       31.81589
       43.65727       55.27731       60.09741       59.09073       61.49736
       62.25783       78.85178       86.53394       91.50378       96.81543
       104.1699       108.0397       112.0589       113.3815       121.5725
       129.4119       131.1924       136.3771       140.2919       133.0232
       146.2946       143.2216       121.4661       118.0698       145.4154
       143.8677       149.6096       180.2899       109.9211       71.99527
       151.1550       111.2719       98.05630       153.1394       140.9011
       160.4001       88.44145       24.68971       47.94299      -26.22598
       62.52921       112.0303      -7.262268       62.58042       85.74744
      -68.77393      -82.64460      -2.611996      -13.54349       34.90344
       118.7211      -16.36315      -43.47305     -0.2228088      -95.09106
      -116.3000      -70.21133       18.71526      -17.20058      -43.82947
      -32.37766      -115.5718      -88.52344      -117.1928      -137.0324
       44.85719       46.56018      -128.9027      -71.35032       28.44116
      -103.8546      -152.7971      -80.31718      -77.41611      -48.90551
       2.210770       5.915741      -121.0597      -149.4775       13.82666
      -11.17783      -119.0992      -45.80866       23.55084      -73.02478
      -76.62430      0.2847748      -33.99954      -120.5742      -110.0703
       57.73810       31.28247      -148.1687      -89.01099       12.96021
      -46.93146      -49.20816      -36.59055      -78.20218      -99.54233
      -79.87909      -60.88245      -136.6596      -153.6259       15.92461
       36.01715      -120.2181      -120.3126      -153.9158      -261.8965
      -191.0942      -146.0054      -88.21146       56.97273       8.051270
      -125.8497      -138.3422      -80.87858      -36.86789      -38.46538
      -29.38690      -133.5092      -342.3044      -278.7523      -140.9550
      -102.6418      -75.87286      -170.2571      -235.9398      -197.8137
      -169.1248      -235.8226      -293.6305      -180.7836      -66.06421
      -154.6083      -293.2642      -259.9519      -169.0662      -232.0472
      -243.6448      -208.4810      -277.2077      -238.0474      -182.9451
      -242.1411      -301.3137      -281.7929      -182.6400      -131.8687
      -246.9596      -382.8962      -365.3107      -319.0436      -292.0052
      -334.7137      -373.4523      -367.0128      -346.1903      -236.7428
      -251.9466      -353.7711      -311.7580      -332.6307      -352.2659
      -329.1029      -401.7340      -429.2592      -308.6987      -268.7762
      -350.6215      -374.3746      -346.1292      -337.9252      -317.7012
      -261.4420      -284.5824      -329.4926      -285.1724      -311.0972
      -292.3191      -228.4412      -272.3996      -260.3420      -173.3463
      -190.2935      -217.8480      -226.1067      -220.5231      -180.0049
      -187.8857      -155.4031      -56.24242      -38.46490      -38.21031
      -21.63181      -54.40282      -80.08542       10.91589       118.8721
       111.5786       69.05716       102.2061       118.1971       82.48560
       140.9601       169.4358       106.9897       156.8187       152.1519
       207.8239       301.6898       220.2637       169.2916       250.6561
       335.8628       321.3958       267.8517       286.3521       291.2993
       324.8442       374.5465       346.3843       345.0987       307.0599
       264.6017       359.2217       408.1514       424.7821       439.9998
       371.6429       371.6965       405.9636       403.1116       445.3131
       405.2078       354.4885       454.0312       593.8396       528.7340
       379.1931       441.1428       510.0074       498.6732       504.4001
       481.6345       519.7395       546.5646       535.5420       497.7029
       516.5906       581.4365       496.0088       486.5977       584.7067
       454.1553       444.7600       569.5784       445.7411       442.0984
       582.0192       477.7938       421.0217       552.0293       558.4697
       459.8914       418.5612       455.2424       502.2878       472.4613
       469.0840       463.3712       366.6387       417.5046       454.7002
       346.4167       385.1075       492.1389       410.6924       318.5525
       402.0034       405.7190       300.1138       360.4616       361.1478
       257.1279       315.4484       357.9656       307.2687       296.6118
       344.8818       333.2555       241.3207       188.6570       229.3453
       330.5145       284.5857       183.9702       189.9844       143.8927
       146.4120       164.8971       105.1945       99.12302       192.1934
       122.1168       3.069122       70.36806       70.42343       107.9234
       90.86100      -34.69330       69.31730       98.46719      -73.35442
      -113.1586      -3.632027       3.308472      -43.86812      -9.943192
      -17.22272      -131.2097      -124.0866      -67.97498      -170.1148
      -226.8295      -154.9783      -177.1147      -179.5299      -137.7301
      -223.0249      -364.6157      -328.1867      -209.2887      -234.3057
      -263.3793      -221.3475      -282.5903      -282.2606      -204.8601
      -288.5714      -420.0052      -330.8558      -280.9680      -398.4933
      -387.4128      -348.9673      -433.5746      -436.9691      -436.5481
      -361.8306      -376.2087      -576.8284      -530.0679      -466.5889
      -536.4330      -427.8020      -427.9333      -581.9094      -570.1096
      -528.2544      -552.1401      -523.8939      -545.2246      -568.2869
      -623.0637      -673.8640      -611.2437      -568.0706      -598.2225
      -654.9675      -619.1091      -645.5758      -719.9907      -611.4421
      -623.3079      -711.8145      -709.3527      -647.7854      -607.3596
      -604.7542      -591.8918      -709.8804      -739.5709      -615.4149
      -606.7183      -684.6558      -668.6964      -513.9502      -484.6786
      -570.4736      -567.3540      -636.6777      -601.8125      -456.7893
      -510.3495      -555.9501      -498.3416      -465.0361      -462.0074
      -478.0623      -444.9202      -419.3425      -410.4226      -392.5592
      -382.3433      -378.5432      -312.3242      -247.4124      -283.7863
      -270.7368      -249.6597      -271.6003      -239.8890      -161.2109
      -127.6912      -204.6557      -181.3827      -116.9207      -103.1956
      -35.18323      -77.65182      -140.7990      -41.18440       8.702402
      -17.27258       31.79497       61.78998       65.31012       79.05930
       83.32742       104.6396       95.67749       148.4399       192.9562
       113.9637       182.8090       309.5179       232.7476       214.3541
       258.3920       247.0975       251.5271       260.7599       275.4731
       325.5251       374.8281       439.6222       425.9341       326.1599
       314.1384       380.0336       432.5811       437.9347       437.1111
       465.0085       501.0469       464.3364       388.8213       422.1956
       484.9714       507.8466       549.0396       543.7870       490.2843
       445.0684       438.7930       537.6387       593.3094       538.8270
       495.5680       475.7253       447.4490       530.5874       610.2505
       527.4459       466.9548       516.6643       506.3752       399.7192
       442.3282       543.8595       501.3311       465.5176       468.3101
       474.9497       489.9839       430.9882       397.5367       431.5961
       406.8763       412.4078       420.9753       411.6902       384.1349
       365.2819       357.6326       330.4209       377.5184       377.6144
       318.0284       318.9625       259.3040       286.8937       311.8983
       254.1821       237.0431       219.7863       284.5268       217.9898
       117.7056       242.5166       228.1968       192.5779       264.2458
       236.8881       195.0513       113.0025       79.10831       126.5139
       130.1865       167.7094       181.2956       162.8382       88.00177
       77.09222       123.4559       66.91925       100.1981       153.6611
       142.7770       195.1653       168.1296       80.46841      -18.06699
     -0.5329285       123.8772       134.4223       111.8284       187.1845
       135.8372       43.20154       115.0428       138.1150       90.49774
       98.52762       62.77820       78.25275       146.0994       127.1046
       104.6547       165.5200       190.6900       195.6600       168.9637
       122.2554       106.7248       173.0948       229.8950       192.8237
       166.0042       198.2694       252.5105       263.2524       238.5868
       226.4306       197.7864       211.9135       263.1474       289.2983
       266.0621       273.7153       291.4042       280.9490       265.8973
       273.1324       320.4110       297.3648       245.0146       231.6016
       171.7020       135.4478       250.0751       340.0942       245.0706
       175.1319       161.3721       146.8813       180.2672       161.7090
       173.9838       268.6461       214.8961       129.9371       188.2659
       180.2836       103.4038       59.07936       5.147301      -37.58910
       40.23378       103.3622      -1.537649      -20.51095       21.29223
      -8.626579      -19.10778      -34.53217      -40.34975       39.14998
      -9.508698      -109.3796      -182.1556      -243.6613      -133.0796
      -68.77295      -125.3751      -105.4041      -83.76785      -118.0675
      -208.1722      -294.2053      -243.7001      -127.6436      -156.4617
      -172.0852      -177.4442      -263.1166      -300.6140      -286.2131
      -252.4324      -239.9675      -230.8224      -193.8618      -225.9686
      -227.3596      -246.6792      -324.2660      -373.3551      -368.3430
      -326.0510      -352.2684      -378.1968      -346.0834      -311.0189
      -309.0151      -325.1144      -348.6851      -342.8240      -348.6981
      -381.2014      -381.0259      -427.9819      -495.0840      -494.6113
      -528.9962      -482.4727      -402.4514      -569.7117      -806.6560
      -965.8506      -1029.397      -916.3972      -567.3550      -106.0947
       119.7704       134.1664      -58.61829      -374.6941      -561.6970
      -565.0760      -401.6816      -102.5969      -24.92957      -425.7339
      -1001.876      -1620.432      -1752.905      -734.4070       493.3160
       639.5488      -324.2393      -1383.023      -1369.521      -417.1191
       308.7626       136.7173      -558.9131      -989.9141      -857.3717
      -581.2136      -592.1228      -782.7441      -765.1382      -569.1194
      -353.1421      -173.9517      -95.30201      -18.35018       48.49402
      -75.04871      -449.2881      -777.4563      -703.9066      -482.4156
      -393.5823      -506.0583      -825.7808      -1028.449      -834.5192
      -306.3650       222.2545       468.7231       357.6651      -43.88489
      -384.5085      -568.2362      -585.3179      -341.7703      -182.5256
      -245.4941      -203.6561      -126.4911      -190.9503      -290.2812
      -365.8315      -359.4288      -125.7809       142.4372       213.5445
       28.12817      -296.8416      -617.9849      -757.5728      -571.5334
      -345.7009      -113.8943       358.7655       518.4621       150.1288
      -249.7034      -370.0271      -144.4340       128.4186       167.8114
      -71.61755      -309.8386      -387.2191      -475.4008      -309.9526
       173.5897       335.5309       110.2823      -31.80920      -254.2747
      -376.1848      -124.0688       145.2585       324.0652       318.0047
       150.3897      -67.26538      -373.2456      -553.6151      -439.9451
      -273.7054      -24.96777       304.6196       318.1639       208.3142
       242.3076       45.45233      -231.5682      -320.0760      -292.8662
      -20.96936       198.9537       116.2458       83.73627       231.3007
       507.7471       561.6193       296.5977       170.1721       274.7076
       213.6494      -85.07849      -321.9853      -327.9297      -104.7268
       186.3463       192.2299       143.2256       324.1548       308.5696
       163.4385       234.4574       288.1821       189.0197       48.49500
       165.9089       376.7295       501.1431       545.0892       511.7085
       410.7945       198.7676       82.18445       231.6564       415.4185
       534.1553       646.7781       562.2211       299.8821       159.3057
       115.0072       192.7501       270.7939       337.3751       425.2751
       397.8057       521.0206       691.7937       577.8755       521.5347
       639.4360       795.9810       818.0021       623.1794       276.7585
       40.92065       264.6907       703.9199       829.7527       625.0396
       386.7937       392.7131       572.9097       658.9231       530.4851
       427.5453       542.7537       785.1206       897.6088       730.0161
       460.0405       395.5527       530.8931       617.1105       625.4780
       581.1711       493.3644       547.7742       542.7611       467.1622
       413.6088       335.8184       462.3232       644.0653       630.7947
       575.6091       526.1388       490.9089       524.5726       573.3137
       568.8745       583.5120       520.8849       392.9255       444.9971
       676.5400       858.5627       741.7223       494.7865       456.2621
       437.6630       310.6608       263.6305       442.7871       625.8164
       662.7432       547.2108       401.4463       376.7749       471.5581
       673.7665       677.2729       507.3660       496.5201       484.9443
       446.1865       469.2832       528.3007       435.0543       290.3042
       375.9102       471.2778       408.5471       387.6248       395.0438
       238.9665       86.58862       253.5339       408.2394       454.7520
       499.8732       481.8608       468.6817       357.9509       205.9349
       155.5951       192.2313       426.5845       437.6768       178.3295
       186.2805       294.4335       141.6803       17.48032       98.79001
       124.1174       54.08588       109.0825       158.7369       124.1001
       81.47168      -70.48016      -141.2817       1.332825       147.3910
       209.7491       120.3261      -18.10461      -126.2855      -115.1496
      -13.13120      -64.39874      -209.4670      -250.9087      -250.5137
      -326.8557      -310.6239      -169.2180      -118.4072      -166.3286
      -220.4950      -209.1816      -161.4669      -150.0969      -300.6975
      -377.9255      -293.0540      -330.2705      -411.6075      -425.7791
      -388.5753      -362.4832      -461.5828      -590.8137      -624.5532
      -658.0735      -636.8409      -527.9082      -512.6538      -683.2095
      -824.1113      -753.4641      -685.2937      -631.7217      -635.5361
      -723.8206      -740.2490      -693.8801      -718.6934      -816.1731
      -853.8589      -702.0029      -624.5337      -810.9131      -998.7168
      -1110.905      -1103.243      -934.6938      -802.9895      -842.1768
      -978.5774      -978.9331      -908.2146      -942.7358      -997.8259
      -898.9216      -838.0315      -872.4238      -844.6917      -764.1128
      -742.2415      -775.4434      -811.0759      -867.3796      -982.7148
      -913.9092      -808.3667      -861.5710      -952.6116      -996.8032
      -927.4150      -840.0244      -857.5811      -825.2571      -840.2493
      -910.0142      -855.5444      -825.7363      -1020.656      -1115.790
      -918.5779      -835.1719      -856.4966      -840.6560      -918.1404
      -946.0171      -890.5352      -745.4038      -642.1428      -643.2771
      -711.2590      -841.5444      -858.4343      -823.8530      -871.6013
      -913.6653      -883.6562      -813.0569      -687.5630      -622.0532
      -717.1836      -736.6478      -647.5981      -434.5057      -314.6729
