     0.02500000      -1295.533       1242.837      -12345.00      -12345.00
      -30.00505       219.6949      -21.23000      -12345.00      -12345.00
       0.000000       15.91000      -12345.00      -12345.00      -12345.00
      -12345.00      -12345.00      -12345.00      -12345.00      -12345.00
      -12345.00      -12345.00      -12345.00      -12345.00      -12345.00
      -12345.00      -12345.00      -12345.00      -12345.00      -12345.00
      -12345.00      -31.91720      -69.02180       2396.000       0.000000
      -31.06700      -68.46300       0.000000       100400.0       0.000000
      -12345.00      -12345.00      -12345.00      -12345.00      -12345.00
      -12345.00      -12345.00      -12345.00      -12345.00      -12345.00
       108.1908       209.2434       29.53385      0.9727725      -12345.00
      -12345.00     -0.1647066       90.00000       90.00000      -12345.00
      -12345.00      -12345.00      -12345.00      -12345.00      -12345.00
      -12345.00      -12345.00      -12345.00      -12345.00      -12345.00
      2008       164        19         3        59
        30         6    -12345    -12345      9989
    -12345    -12345    -12345    -12345    -12345
         1         7        13    -12345    -12345
    -12345    -12345    -12345    -12345    -12345
    -12345    -12345    -12345    -12345    -12345
    -12345    -12345    -12345    -12345    -12345
         1         1         1         1         1
SOMB    -12345          
        -12345  -12345  
-12345  -12345  -12345  
-12345  -12345  -12345  
-12345  -12345  -12345  
-12345  -12345  -12345  
-12345  -12345  BHE     
ZL      -12345  -12345  
[...]
      -146.7708      -128.0410      -117.6371      -93.94682      -84.67473
      -64.19015      -49.52869      -27.87932      -12.77981       10.47128
       26.28366       48.97650       61.17261       85.14163       103.5405
       126.5775       143.5998       166.3405       180.4005       200.3533
       218.5649       241.2880       258.0807       285.6117       305.3315
       324.7125       341.7543       365.6978       384.2830       404.5591
       423.1124       446.7975       466.2765       487.7169       503.7705
       522.4094       539.7917       554.2776       571.6763       586.5608
       598.0830       611.4214       625.3287       634.1793       645.3906
       657.7717       667.2720       671.3750       682.3806       691.7512
       697.8911       707.8147       718.8826       724.4497       727.5029
       732.9380       739.4927       743.2361       749.5989       754.6846
       755.0627       762.6499       773.4163       774.2754       775.1819
       787.5874       791.4502       791.7324       798.0549       797.7458
       793.9158       799.1147       803.6987       796.2183       795.9626
       808.3062       809.0657       793.4055       791.2266       799.3264
       786.4578       780.6182       789.0317       774.9116       768.8252
       783.4495       771.2534       754.5918       755.0955       740.2454
       734.5444       732.7471       711.3682       696.6841       684.8481
       673.1243       673.0653       655.4768       635.4514       623.4509
       611.5839       589.0272       573.8474       557.1243       539.3300
       521.3662       501.9562       479.1841       474.7899       453.3771
       420.5647       402.7759       389.7875       357.4373       331.9975
       314.6031       292.3260       260.9000       243.6418       212.2674
       176.7328       159.9388       137.7765       104.4726       73.25871
       28.51222       3.305237      -8.113190      -34.80093      -80.34930
      -105.4886      -134.1732      -160.3707      -186.6620      -212.2433
      -248.1787      -270.3444      -298.1641      -322.6161      -348.1271
      -371.5332      -401.7600      -425.4003      -458.3773      -474.1157
      -489.1261      -518.3115      -548.5244      -547.7682      -570.6554
      -601.7507      -614.9458      -617.6667      -636.6826      -645.1228
      -663.0569      -671.2111      -676.4487      -679.8679      -691.9932
      -693.2646      -704.3118      -705.8362      -708.6628      -704.7810
      -710.1912      -697.3210      -694.5844      -684.5940      -682.0190
      -677.9153      -668.1439      -646.4863      -653.1416      -635.3971
      -628.4805      -625.4708      -603.8774      -582.9810      -588.9813
      -564.7749      -553.1680      -544.9640      -529.8215      -509.7095
      -508.5226      -487.1169      -484.1343      -473.2017      -453.9954
      -435.7211      -433.3938      -411.7046      -405.6335      -392.0056
      -386.7220      -370.2755      -359.3933      -342.4797      -345.5870
      -332.4434      -317.4019      -303.7593      -306.1021      -296.5549
      -291.1448      -270.4601      -263.9840      -254.9675      -252.0425
      -243.1570      -243.8468      -230.5408      -230.5240      -217.5406
      -205.6121      -200.9201      -198.0544      -187.1859      -193.9937
      -188.3066      -173.4442      -157.5951      -163.7193      -155.0490
      -145.3410      -130.5653      -123.7602      -118.1844      -118.5125
      -106.4743      -103.0900      -91.36276      -79.86073      -65.80307
      -67.74072      -54.81310      -44.88707      -36.36325      -33.20929
      -27.23919      -29.61001      -8.986733       3.377741       8.991726
       9.916298       13.32706       14.60236       38.34634       41.50488
       41.69379       41.17404       50.72659       51.82643       61.03574
       65.16927       74.40549       75.63654       78.77902       76.38235
       86.44800       85.81693       90.90524       94.04764       100.1407
       100.2932       114.4582       123.7194       125.3115       127.0771
       125.6384       129.6483       142.1913       143.7553       150.8339
       154.3682       159.2063       176.5934       190.0039       193.3366
       202.5217       208.1470       216.6546       230.4498       242.3521
       247.3101       254.2725       259.0320       261.3219       271.7617
       285.7773       292.3152       294.0878       293.3387       303.8503
       311.7919       317.8577       325.4226       337.7466       338.5880
       338.6062       350.0292       354.6378       360.3027       374.5896
       373.5162       371.4689       376.8340       377.4417       378.8671
       387.5542       392.3142       389.3666       392.3765       395.9202
       397.0602       398.9757       399.7319       389.8889       386.1647
       389.3917       385.0635       379.2742       365.6864       343.1529
       340.0555       336.7947       325.3781       314.7128       301.7665
       284.7198       272.8806       256.3163       242.9053       231.4861
       229.4062       212.0069       191.6882       175.8446       162.1986
       143.8821       142.9764       129.7274       108.2120       92.83008
       83.97845       67.70763       55.48309       34.21329       19.91920
       8.303604       2.430508      -11.92064      -25.00098      -42.87384
      -49.73083      -65.30472      -82.50046      -92.75143      -96.69257
      -115.0732      -124.0341      -128.7734      -129.0006      -146.6223
      -159.8035      -162.9214      -152.1208      -158.9930      -168.6166
      -176.2015      -169.5261      -170.5245      -170.4498      -173.0916
      -168.5580      -171.1330      -170.8093      -171.1199      -171.9723
      -168.4541      -158.7795      -158.7878      -153.3950      -145.9034
      -146.0990      -147.9956      -141.2427      -135.7068      -135.7255
      -139.1628      -124.7249      -122.9768      -127.8488      -122.2600
      -112.5700      -114.6466      -111.3518      -114.9917      -109.2908
      -105.7721      -104.0127      -111.6605      -105.2094      -100.8172
      -101.7364      -109.4896      -106.7778      -104.4825      -98.17212
      -95.21021      -90.79456      -90.76385      -88.56403      -92.90781
      -81.54428      -69.31761      -56.45871      -52.52292      -42.48143
      -34.72544      -26.86692      -18.22374      -3.208714       7.431717
       24.07530       32.66817       37.37988       47.41269       61.00758
       63.27927       77.79269       89.18600       98.94092       104.5570
       111.7624       118.8541       125.7705       131.7031       142.3642
       148.5220       164.7430       166.8135       173.9205       181.0165
       183.2591       183.0559       187.6289       180.8496       182.7585
       184.8478       186.3302       181.9200       187.7083       180.2774
       172.6412       166.1854       170.2693       160.7751       159.4706
       153.2718       140.6125       126.6924       118.7545       103.8856
       99.52800       83.30444       70.33604       56.71715       46.88755
       27.36275       11.76509      -3.575207      -6.635490      -24.38731
      -40.76611      -58.21123      -65.77646      -80.03076      -84.68951
      -98.17130      -106.7448      -121.6030      -124.5121      -133.0348
      -143.2675      -166.5651      -161.6049      -161.6744      -175.6564
      -183.5428      -182.4062      -192.9971      -191.7427      -198.7427
      -197.1730      -196.4473      -192.6378      -191.3134      -181.7980
      -190.3878      -186.5606      -178.6100      -170.2428      -168.2924
      -159.5490      -162.8258      -154.5911      -146.1190      -126.0987
      -127.2882      -128.2198      -126.2916      -111.2267      -104.7863
      -98.61337      -92.66669      -81.26642      -88.77480      -85.88120
      -84.44629      -82.57315      -96.85522      -96.79361      -89.52271
      -86.60266      -95.86707      -77.77277      -65.36827      -50.80258
      -34.61990      -34.17888      -58.30432      -88.49963      -115.8524
      -85.29602      -122.3589      -222.4147      -203.8924      -114.5848
      -115.5974      -184.5261      -211.4940      -154.1377      -131.0837
      -158.3033      -188.4707      -211.8848      -216.1953      -124.3941
      -29.98572      -78.70374      -173.9735      -177.1260      -165.9161
      -184.0969      -215.9682      -213.8274      -167.9824      -188.3079
      -280.7234      -273.9996      -251.3494      -264.3949      -271.7971
      -270.5094      -298.2642      -311.1719      -321.8704      -368.1049
      -376.4052      -341.0905      -321.3879      -322.9730      -394.4673
      -391.0972      -333.9235      -328.8765      -370.0105      -420.0969
      -438.9236      -418.3096      -414.0568      -424.3306      -436.0664
      -422.7988      -409.3606      -391.7819      -409.3149      -420.9061
      -439.1228      -447.6445      -423.0449      -413.9215      -428.8275
      -442.8713      -476.2614      -470.3708      -421.4231      -397.8621
      -430.2621      -441.6973      -429.0679      -413.6617      -399.2512
      -406.6926      -426.7454      -415.0626      -381.2317      -371.3401
      -382.0033      -374.6211      -364.4761      -371.2753      -371.7806
      -352.3181      -332.6164      -335.0847      -347.7726      -327.2104
      -304.1296      -297.0120      -286.8600      -250.2945      -208.8396
      -194.1677      -208.0579      -210.1442      -194.2289      -166.0013
      -160.2302      -145.3934      -115.9401      -85.87802      -51.78513
      -31.51208      -43.11024      -27.58969       12.36652       44.21994
       63.66269       65.90857       83.70795       118.5433       125.0878
       138.0951       190.6793       220.5748       229.8248       242.7123
       260.3501       270.6901       297.1548       325.5405       336.4457
       345.4675       359.8718       362.5753       383.3008       391.7622
       405.0637       438.3062       463.2158       468.0449       496.6248
       518.1445       540.1787       558.7515       551.5814       539.5745
       562.2227       571.7454       567.4733       568.2189       585.8851
       610.5273       618.3545       629.6956       647.9067       671.7202
       701.1145       700.0400       704.0315       722.3638       738.5579
       752.4854       761.8083       772.9885       799.7600       815.2473
       813.9387       822.4009       847.5198       869.0376       873.8477
       872.4600       885.3340       905.2744       915.7854       923.8767
       943.4487       944.3989       943.4985       948.7556       946.7256
       943.7415       955.3555       950.6709       929.2939       924.2358
       923.3152       913.7583       912.0864       895.1421       875.0579
       877.3789       879.5020       868.9497       857.5667       848.7444
       836.5547       823.6328       810.8887       798.2683       793.5466
       777.2173       760.6545       756.6592       742.4607       738.3230
       730.3086       703.8284       687.2720       664.8694       659.5450
       655.7770       626.6357       600.3772       593.3140       594.2123
       579.7520       543.0635       535.8829       534.0470       514.0078
       486.8478       458.0133       437.5667       430.0884       403.9097
       379.6694       355.9238       332.2051       313.1940       297.8823
       263.8032       240.7794       209.8903       184.4272       163.3497
       144.0226       115.4828       94.69957       67.66711       37.23922
      -2.482201      -22.76990      -49.68027      -73.24164      -93.93060
      -119.9157      -155.1136      -177.5326      -207.3357      -229.9705
      -257.2222      -285.2913      -314.8105      -334.4550      -360.3647
      -374.1644      -396.5336      -432.1482      -471.5564      -484.4646
      -502.5878      -531.5464      -558.5981      -568.6123      -579.8439
      -598.4530      -627.6653      -647.5239      -659.3503      -660.4387
      -685.8445      -708.0671      -714.5649      -727.7944      -761.3052
      -767.3723      -780.2900      -794.9363      -799.8884      -812.2119
      -824.0422      -820.0576      -836.9526      -850.7793      -857.0234
      -867.2563      -884.7676      -900.0447      -918.6948      -927.3254
      -940.4263      -955.1455      -974.5820      -984.1873      -1005.219
      -1019.187      -1035.149      -1037.691      -1056.027      -1075.897
      -1095.145      -1099.822      -1107.604      -1114.292      -1130.033
      -1133.475      -1154.171      -1174.859      -1190.904      -1190.229
      -1202.514      -1218.230      -1245.745      -1257.138      -1266.456
      -1270.448      -1276.641      -1278.806      -1295.533      -1288.893
      -1292.149      -1288.148      -1288.347      -1286.124      -1293.014
      -1286.532      -1283.272      -1273.173      -1270.372      -1243.675
      -1218.841      -1195.006      -1177.586      -1160.184      -1151.320
      -1118.289      -1099.541      -1079.416      -1058.921      -1024.800
      -996.1528      -966.3752      -943.1577      -916.7815      -899.3901
      -867.7192      -832.8062      -788.5425      -756.2607      -714.9449
      -684.5801      -653.8938      -616.0496      -569.9073      -540.2224
      -494.2651      -452.6890      -415.7505      -382.0065      -341.6713
      -300.8503      -253.6425      -221.9550      -182.6131      -144.6116
      -103.8687      -66.04227      -13.90370       23.57298       55.68286
       92.51447       136.8282       167.9159       211.6986       250.2766
       288.7567       332.8093       371.8792       397.9069       434.9960
       468.4635       500.2848       533.4805       571.8269       608.4526
       635.7510       662.2549       699.0308       729.8508       756.3826
       778.0449       809.8591       835.7827       863.3704       885.4153
       909.0029       936.4934       961.0051       979.6243       999.1411
       1013.062       1030.897       1052.757       1071.288       1091.086
       1103.599       1113.736       1134.026       1154.344       1160.687
       1167.088       1177.108       1187.088       1203.704       1213.635
       1216.068       1221.685       1224.280       1232.743       1240.276
       1236.722       1234.040       1232.795       1233.739       1242.837
       1238.116       1235.772       1232.746       1225.274       1223.963
       1231.214       1226.600       1221.639       1221.241       1220.422
       1213.043       1207.512       1198.974       1189.815       1186.853
       1183.591       1162.284       1151.271       1142.072       1128.072
       1116.684       1098.771       1085.817       1073.945       1053.874
       1041.627       1028.759       1008.564       988.1929       965.2505
       942.9810       927.1133       901.7368       873.9927       853.5886
       826.7070       803.0049       780.5317       753.4231       723.8398
       695.5527       673.0708       651.7649       620.9341       588.7344
       567.6539       534.9054       499.5665       472.7971       445.4711
       413.1257       391.4076       365.8726       330.6564       298.3499
       267.4410       231.8802       205.8179       179.4764       154.7612
       127.8599       96.24713       68.32629       47.65544       17.52847
      -5.388077      -28.22476      -60.69366      -82.16156      -98.76572
      -126.1859      -143.9192      -159.8018      -176.9694      -196.2166
      -209.4378      -223.8283      -236.8666      -255.5619      -265.0428
      -277.9819      -293.8077      -304.4658      -316.7341      -325.4126
      -329.7469      -340.8665      -351.2303      -363.3467      -370.7913
      -371.8104      -381.5540      -391.2996      -401.5055      -409.4553
      -418.7827      -427.8877      -434.7875      -439.8551      -455.8264
      -469.9856      -471.9692      -481.1173      -494.1832      -501.1293
      -506.6174      -509.8650      -515.5953      -524.4722      -527.0449
      -530.8694      -534.8224      -537.4117      -539.2695      -545.6721
      -546.0444      -542.9127      -541.0159      -544.3242      -546.4050
      -546.7939      -542.4041      -544.3425      -544.3809      -542.2111
      -532.4072      -527.6895      -527.1244      -524.8037      -519.6448
      -515.4869      -509.2144      -506.7573      -501.0433      -495.5247
      -497.6136      -498.9429      -492.3207      -486.4163      -488.9077
      -492.7559      -491.6737      -487.2102      -486.2544      -493.6794
      -497.0273      -497.6113      -501.8428      -502.4075      -505.7260
      -509.1934      -510.9170      -513.1702      -517.5659      -522.3779
      -524.9363      -530.0100      -532.1528      -535.9445      -541.0176
      -540.8691      -540.6707      -542.6445      -544.4250      -543.0342
      -540.3130      -542.1896      -543.2563      -536.5239      -535.9933
      -538.4683      -532.4077      -526.9388      -524.9341      -520.9556
      -517.1194      -513.3038      -505.1768      -497.1646      -490.3972
      -483.7734      -476.2208      -468.6089      -458.0829      -451.3569
      -441.3115      -434.7540      -424.4377      -410.7810      -394.5565
      -385.3972      -373.1830      -359.2692      -346.2545      -337.6428
      -324.6033      -312.7119      -298.1685      -286.2300      -275.2147
      -264.7053      -246.5958      -234.8391      -222.4623      -209.4537
      -194.0309      -183.9243      -169.7124      -161.2317      -151.4301
      -141.6251      -131.2908      -119.6813      -106.0755      -98.68335
      -86.26607      -77.59567      -69.81384      -62.47670      -53.96498
      -45.85158      -32.69639      -23.38313      -13.98165      -5.573568
       3.666214       12.15420       21.32951       31.15146       40.25824
       48.17053       61.76245       71.47610       79.14795       86.32504
       97.34399       105.2934       111.8827       119.1973       128.8169
       134.6752       142.2960       152.6036       160.1029       164.0995
       168.0245       171.9116       178.6965       186.3125       194.4899
       199.0404       199.9732       199.3431       202.6606       206.5203
