     0.02500000      -1917.273       1202.905      -12345.00      -12345.00
      -30.00005       219.2249      -21.45000      -12345.00      -12345.00
       0.000000       15.79000      -12345.00      -12345.00      -12345.00
      -12345.00      -12345.00      -12345.00      -12345.00      -12345.00
      -12345.00      -12345.00      -12345.00      -12345.00      -12345.00
      -12345.00      -12345.00      -12345.00      -12345.00      -12345.00
      -12345.00      -30.65860      -69.43630       2628.000       0.000000
      -31.06700      -68.46300       0.000000       100400.0       0.000000
      -12345.00      -12345.00      -12345.00      -12345.00      -12345.00
      -12345.00      -12345.00      -12345.00      -12345.00      -12345.00
       103.5150       295.6893       116.1862      0.9307027      -12345.00
      -12345.00     -0.2788408       0.000000       90.00000      -12345.00
      -12345.00      -12345.00      -12345.00      -12345.00      -12345.00
      -12345.00      -12345.00      -12345.00      -12345.00      -12345.00
      2008       164        19         3        59
       250         6    -12345    -12345      9970
    -12345    -12345    -12345    -12345    -12345
         1         7        13    -12345    -12345
    -12345    -12345    -12345    -12345    -12345
    -12345    -12345    -12345    -12345    -12345
    -12345    -12345    -12345    -12345    -12345
         1         1         1         1         1
TOCO    -12345          
        -12345  -12345  
-12345  -12345  -12345  
-12345  -12345  -12345  
-12345  -12345  -12345  
-12345  -12345  -12345  
-12345  -12345  BHN     
ZL      -12345  -12345  
[...]
       249.2513       243.9727       239.0441       222.3241       213.3564
       201.0791       204.3683       204.6439       183.8965       169.5844
       168.4777       168.2963       162.5141       147.9235       138.3089
       135.1855       135.9424       118.7505       106.8085       100.0763
       91.01102       89.24080       76.72699       63.37561       62.61765
       62.86237       45.93408       30.13462       26.04555       15.96645
       3.797640       1.343811      -14.84863      -28.49098      -33.06276
      -43.23758      -58.51105      -68.65599      -72.26532      -87.14676
      -109.1667      -112.7258      -123.0811      -151.0475      -170.9569
      -182.5757      -193.8937      -206.8852      -222.3032      -246.0580
      -259.4922      -264.6102      -287.0081      -301.8391      -310.8131
      -324.8234      -336.8262      -356.9620      -371.7145      -371.8396
      -386.5831      -398.1664      -417.3906      -421.6438      -417.8600
      -427.8466      -439.5131      -443.5515      -454.1337      -453.7809
      -457.2611      -455.8842      -469.7350      -466.4781      -454.9889
      -466.2078      -474.1763      -470.1196      -471.8866      -462.4124
      -471.3267      -484.8910      -484.8982      -480.5696      -486.1226
      -490.3110      -496.8163      -500.9607      -496.5752      -499.8308
      -503.9849      -504.3689      -509.6184      -520.8718      -521.5619
      -509.5952      -519.2115      -537.0872      -536.5808      -522.1931
      -533.8276      -538.7661      -536.8086      -553.4578      -553.6721
      -523.4644      -518.1082      -534.7742      -545.6898      -546.9163
      -532.6877      -523.9238      -535.3794      -519.0393      -520.0005
      -530.7490      -507.4578      -493.2297      -505.3596      -517.1785
      -508.4648      -482.3121      -481.3990      -473.5518      -453.6218
      -459.3973      -447.0286      -423.7937      -432.4296      -414.6398
      -397.5957      -388.3583      -379.1558      -370.8059      -349.0192
      -327.9432      -330.1631      -308.5438      -298.3061      -283.9153
      -271.0000      -262.9144      -239.5582      -202.2505      -206.1878
      -215.9850      -175.2778      -152.3470      -174.2878      -156.3095
      -129.9389      -106.7099      -91.14874      -88.63905      -66.28418
      -30.95744      -42.84307      -27.81917       7.155823       22.38223
       35.02744       57.72247       92.24765       106.0369       89.44073
       116.7851       157.4210       181.7315       188.1144       173.7532
       207.0342       255.2220       253.7477       251.4507       270.0664
       301.2452       322.5139       324.3726       329.0735       356.5273
       370.5939       373.8462       384.8986       392.9210       380.7766
       372.0135       406.5322       454.4775       461.1975       485.8230
       480.8309       498.4351       604.8892       594.1213       527.7584
       510.8641       420.4780       635.9346       872.2727       573.9645
       448.7332       626.8328       541.6541       521.1855       681.9668
       725.8728       679.1475       696.0460       608.8506       600.9175
       728.3210       609.9202       537.4448       701.6177       818.3879
       866.3540       772.3230       569.8279       542.4382       698.6069
       774.2476       659.5610       671.2319       667.1201       657.6177
       934.9758       798.3179       538.1005       636.2402       600.8760
       658.1355       907.3713       992.5809       672.1152       351.7815
       589.1067       691.0417       661.8152       701.5669       626.3848
       578.9973       526.1068       560.6046       555.7222       491.6409
       621.3956       598.5747       503.1384       525.6710       383.8370
       204.3140       302.5360       431.2810       287.8823       336.6091
       585.9299       425.1508       204.9280       279.9384       284.7352
       207.4209       245.4590       173.6893       52.45905       126.8304
       184.1099       115.8119       107.6174      -47.03497      -84.89099
       162.3460       64.46634      -188.7677      -26.88074       58.76216
      -44.32424      -19.83102      -9.708771      -113.4209      -179.6430
      -187.5611      -200.7358      -221.4023      -221.2432      -256.2539
      -330.0743      -227.9347      -168.8556      -309.2875      -320.4113
      -269.8127      -295.1329      -352.7417      -299.8937      -390.4729
      -573.1110      -509.4055      -393.8461      -458.7695      -559.0156
      -497.3917      -397.1782      -396.5968      -469.5933      -517.7910
      -561.7798      -728.9470      -664.1084      -432.5461      -614.8208
      -847.4668      -613.0380      -526.9470      -685.6763      -643.9158
      -595.0032      -733.4675      -744.7510      -631.5435      -741.1409
      -774.2041      -773.2834      -829.5265      -662.4065      -606.3401
      -791.1995      -824.6482      -619.0957      -669.6372      -868.6030
      -771.5088      -678.5681      -762.7249      -781.2825      -708.9775
      -700.1221      -749.9326      -622.3994      -608.3505      -684.8286
      -605.7577      -618.5864      -741.5156      -660.4229      -568.7847
      -604.9724      -644.1567      -657.6692      -633.3662      -503.2523
      -450.3047      -642.6260      -635.2490      -476.5790      -575.5798
      -538.6783      -400.4042      -471.5693      -458.6666      -454.0255
      -594.2598      -530.8546      -360.5382      -424.2472      -482.0645
      -346.4174      -426.6709      -522.4581      -373.1785      -333.0847
      -397.3014      -423.9911      -375.3431      -330.6475      -444.3828
      -443.0668      -304.4760      -297.3359      -359.1309      -354.8323
      -368.0118      -335.4929      -300.8870      -337.2283      -299.6794
      -172.2817      -150.7565      -270.3796      -305.5255      -247.5250
      -204.3053      -170.4356      -198.6986      -185.6020      -120.7829
      -139.8341      -235.1871      -216.2767      -132.9833      -65.67664
      -36.17761      -47.09243     -0.7607327       15.81378      -21.71985
      -44.16278      -90.94792       42.40988       118.0622       17.02167
       130.8623       157.0575       75.81146       141.9315       136.1516
       111.6520       211.0035       270.2053       161.2554       157.6855
       358.7812       366.2454       267.9933       274.8853       237.9225
       246.0051       335.6995       418.2981       381.2849       303.7438
       352.2863       430.3282       419.3456       427.9299       520.1572
       522.8468       442.1313       456.3359       541.7395       527.4146
       446.7683       513.5878       551.9236       521.4122       555.2102
       621.3293       633.0774       562.4480       580.6953       695.1348
       679.1240       595.1310       642.8840       662.5137       664.7620
       770.1921       685.7363       605.1943       710.9614       707.1204
       656.6985       654.6226       663.3718       704.7881       722.9385
       693.8069       733.3491       787.6965       741.2991       720.5212
       738.7861       771.0879       750.3699       737.2375       742.7783
       736.5630       721.7415       650.4097       636.6003       752.1660
       752.2694       661.0142       673.5149       695.2644       688.7543
       691.5366       614.5266       585.5957       715.8137       778.3777
       627.5259       626.5474       713.0592       601.8019       552.2327
       595.4086       611.8223       633.7976       608.0591       536.2388
       480.8350       552.7096       544.5022       482.5027       516.9142
       523.1814       520.4919       455.9479       383.2101       426.4644
       418.7146       385.2192       403.6033       321.7012       266.1522
       451.2817       434.8934       244.4801       222.8337       202.1317
       192.6963       261.4999       221.9051       190.0488       240.1237
       165.6345       87.02374       180.4138       213.4079       91.18916
      -41.61488       41.50504       161.8624       35.64777      -40.68026
       55.22748      -23.37363      -57.64091      -41.18585      -115.0027
      -55.94121      -26.72571      -110.5052      -123.2855      -94.90414
      -47.03662      -130.9528      -295.8109      -248.0457      -77.47168
      -135.3234      -265.7399      -301.8350      -271.6870      -255.9423
      -299.8998      -366.2368      -366.6387      -295.0259      -297.2146
      -380.5847      -404.0045      -396.0233      -440.3196      -400.4791
      -432.6030      -506.5540      -432.5164      -421.2330      -448.5203
      -552.6218      -621.4062      -538.5352      -535.4623      -581.9998
      -664.2422      -625.0204      -529.8044      -633.7156      -665.9299
      -704.3987      -717.8485      -602.8419      -632.5503      -720.2109
      -722.5400      -688.3064      -711.2515      -726.9534      -697.3796
      -762.3301      -778.3511      -710.0342      -733.1663      -786.8369
      -856.2451      -793.6721      -685.4294      -728.6174      -751.5725
      -739.2573      -779.6870      -829.3877      -835.8401      -786.8735
      -716.5825      -761.6152      -756.2688      -587.4043      -653.9336
      -834.3560      -789.8579      -662.4410      -576.3547      -584.2407
      -727.3110      -751.9838      -615.0358      -556.0754      -533.2087
      -584.9529      -586.9951      -499.8142      -511.6594      -523.8721
      -468.9249      -436.3645      -418.9790      -359.7954      -415.4988
      -448.5801      -346.2517      -328.9998      -387.5259      -359.9993
      -149.6179      -130.3974      -282.3349      -220.4731      -208.6783
      -205.8254      -124.7350      -121.9865      -66.16594      -43.48798
      -23.81112       48.55688      -53.76294      -64.35400       89.33618
       116.5992       120.8690       161.9987       175.1738       202.2913
       181.3015       154.5760       243.4664       285.9561       256.9889
       347.7651       412.2356       366.2128       350.6875       365.7164
       368.3718       454.0146       558.4764       441.0837       402.8191
       518.9158       557.4807       592.5967       558.5081       507.0105
       552.4595       596.5728       632.7100       567.4685       517.9852
       664.2667       671.5427       584.2802       634.2021       639.3115
       629.9966       673.6370       677.3711       554.9810       598.1165
       759.6797       619.0173       528.8496       612.1161       551.1536
       544.3616       621.4225       657.9312       630.3958       535.0037
       514.6831       531.8862       549.1089       584.2021       562.1287
       452.3312       393.2463       448.4912       468.2708       463.8120
       404.2820       328.7510       381.6179       399.9858       354.9573
       335.8178       301.1136       233.4153       300.5045       370.3317
       314.8917       268.8884       179.7282       117.5623       170.3611
       240.3558       196.5165       124.6892       128.9774       136.2855
       193.3059       135.4664       31.60728       10.95618       37.33719
       80.39442       28.73150      -2.983891       31.75914      -1.035088
      -6.776062      -54.08533      -146.6529      -58.59483      -2.216675
      -33.42084      -78.10291      -141.8725      -136.2183      -102.8491
      -82.61362      -81.08789      -81.23407      -105.1779      -144.0371
      -168.7428      -125.5143      -126.6474      -185.4083      -178.1744
      -164.3084      -134.7402      -135.8221      -182.0531      -188.4196
      -146.8223      -192.0044      -205.7834      -118.4785      -118.9186
      -128.9185      -182.3540      -254.4722      -170.6357      -70.19321
      -84.98065      -160.8748      -171.3592      -116.3173      -66.08606
      -103.6072      -128.5858      -61.73706      -58.25385      -72.88849
      -75.65973      -116.6691      -58.97639      -39.69064      -130.0074
      -103.5902      -112.5081      -128.9442      -22.05215      -34.03204
      -89.76322      -38.62250      -12.76584      -94.88937      -89.81529
      -73.71211      -62.01154      -37.00513      -103.9670      -73.90577
      -4.803268      -7.932831      -117.4161      -195.3283      -45.26874
      -26.43985      -78.32819      -39.90295      -106.0910      -101.0794
      -14.28216      -22.97115      -8.032471       148.4284       220.9822
       118.9377       128.1684       139.9159      -160.5117      -500.9314
      -658.6943      -693.0880      -627.2709      -449.7263      -116.2690
       380.5957       644.7751       343.2065      -33.02740       113.6802
       740.4818       871.1436       66.69055      -532.2981      -896.7832
      -1562.794      -1917.273      -1642.349      -922.5600      -40.17627
       415.5768       305.5479       337.7053       448.6428       157.5541
       179.8565       303.1506      -100.3111      -192.4288      -326.9529
      -1169.364      -1114.568      -195.6261      -377.5074      -678.1893
      -42.15897       255.2944       2.014526      -256.8933      -555.1670
      -666.0780      -276.4587      -143.0916      -730.2701      -789.6588
      -150.8368      -44.90341      -66.93266       77.79419      -216.0828
      -481.4863      -390.7202      -432.8767      -567.1450      -516.2448
      -496.5037      -475.4965      -419.4642      -426.4542      -160.5255
      -69.42755      -315.5363      -355.6611      -269.0273      -134.4192
      -334.7622      -655.4805      -131.1271       467.1243       213.1289
      -117.9553      -317.1929      -628.4968      -309.9555       76.55457
      -294.2944      -318.1617      -80.81482      -309.6532      -244.9599
       87.34792       47.89264       97.41510       206.7117       162.9993
       101.0378      -262.4371      -388.5846      -5.568420       152.4421
      -72.67401       62.62073       587.0308       347.7613      0.1552124
       331.7126       106.7324      -239.1332       71.81995       255.0367
       293.9819       187.0018       156.3678       579.3567       627.2912
       252.5465       302.3911       425.3676       339.9665       366.2828
       246.6362       79.90564       336.5000       476.3990       215.3824
      -4.458130       264.5377       682.1628       420.3616       356.6978
       785.5834       656.3408       328.0062       264.4285       399.7856
       566.0990       490.0677       283.6423       381.6736       607.4275
       406.8972       337.6919       477.4205       604.4351       777.8719
       521.6328       237.8115       212.3884       373.9268       612.8901
       501.2288       457.4424       635.0188       335.1721       133.3734
       255.0751       304.2982       332.3408       327.4346       452.9598
       576.8264       545.2969       408.6355       423.5476       487.4257
       325.9120       246.8978       302.6987       414.3123       244.3085
      -114.7172      -17.73889       241.7388       262.9026       159.3643
      -30.32907       74.91125       269.5424       346.0510       357.7111
       112.2808       219.1768       580.7849       281.4909      -26.88922
       70.15509       96.94641       208.1727       316.1661       106.7218
      -148.3100      -111.2139       47.40604      -42.04149      -86.66306
       140.3198       55.85617      -111.5234      -56.27451      -177.4568
      -154.9850       76.94247       167.9019       157.7353       99.03047
      -61.30380      -30.63681       219.0493       42.26892      -254.4188
      -188.7047      -187.3169      -205.6566      -112.6192      -128.3213
      -231.5082      -270.2052      -431.8104      -400.3079       18.77238
       47.11633      -150.1434      -112.7462      -346.8431      -475.1249
      -143.1849       60.04642      -29.61053      -190.8022      -392.9131
      -531.7335      -466.9625      -254.6699      -219.4585      -473.5671
      -515.7635      -195.5060      -142.0139      -249.9945      -282.7295
      -459.6808      -500.4756      -291.3311      -352.1997      -485.1431
      -434.6523      -337.6138      -335.2911      -498.3098      -623.9668
      -578.3802      -417.7789      -317.2252      -176.4183      -130.1157
      -203.2737      -203.6045      -327.4355      -529.3687      -396.9370
      -142.1772      -320.6760      -486.5924      -315.7391      -292.1434
      -303.5007      -273.3676      -396.5800      -280.9510      -245.3323
      -435.0771      -552.3691      -308.0709       66.23773      -18.44363
      -100.1405       11.94244      -191.8008      -225.3669      -10.06433
      -102.9933      -149.4487      -99.57269      -120.9810      -61.24670
      -126.5486      -125.9606      -19.43237      -17.39374      -111.6719
      -11.22444       49.56197      -124.8187       7.171570       68.71704
      -144.7458      -146.9111      -60.35149       63.26106       54.37952
      -28.95996       100.9815       126.4200      -61.11832      -102.7876
      -55.96619      -1.483826       205.0885       102.7759      -133.3538
       199.4549       356.2703       83.50098       108.2477       124.9044
       63.65552       246.1653       225.6263       50.12421      -70.27281
      -72.47793       17.11389       34.34369       78.48682       175.8175
       219.4247       230.8145       168.2776       86.27002       259.5395
       296.4605      -87.29887      -67.34155       205.0842       175.6395
       265.1561       285.7356       99.28140       122.1494       132.6471
       156.4662       217.3542       109.3493       33.12671       62.71478
       19.04074      -221.5169      -66.01575       411.5377       289.1543
       20.49634       78.11743       171.5121       257.2623       156.4464
       102.6535       111.1831       40.66238       172.4621       88.85501
      -211.2723       21.82404       237.8820       33.06119       12.68149
       33.71181       26.30772       8.228729       21.53131       216.9116
       259.0212       206.8195       128.2681      -70.55798      -25.21899
       377.3359       483.9029       137.8635       1.151073       16.23071
       19.94333       133.9940       133.3473       48.14523      -32.71835
       108.0515       219.2838       21.92307       17.05820       86.38385
