     0.02500000      -1338.814       1400.472      -12345.00      -12345.00
      -30.00005       219.2249      -21.45000      -12345.00      -12345.00
       0.000000       15.79000      -12345.00      -12345.00      -12345.00
      -12345.00      -12345.00      -12345.00      -12345.00      -12345.00
      -12345.00      -12345.00      -12345.00      -12345.00      -12345.00
      -12345.00      -12345.00      -12345.00      -12345.00      -12345.00
      -12345.00      -30.65860      -69.43630       2628.000       0.000000
      -31.06700      -68.46300       0.000000       100400.0       0.000000
      -12345.00      -12345.00      -12345.00      -12345.00      -12345.00
      -12345.00      -12345.00      -12345.00      -12345.00      -12345.00
       103.5150       295.6893       116.1862      0.9307027      -12345.00
      -12345.00      0.3330739       90.00000       90.00000      -12345.00
      -12345.00      -12345.00      -12345.00      -12345.00      -12345.00
      -12345.00      -12345.00      -12345.00      -12345.00      -12345.00
      2008       164        19         3        59
       250         6    -12345    -12345      9970
    -12345    -12345    -12345    -12345    -12345
         1         7        13    -12345    -12345
    -12345    -12345    -12345    -12345    -12345
    -12345    -12345    -12345    -12345    -12345
    -12345    -12345    -12345    -12345    -12345
         1         1         1         1         1
TOCO    -12345          
        -12345  -12345  
-12345  -12345  -12345  
-12345  -12345  -12345  
-12345  -12345  -12345  
-12345  -12345  -12345  
-12345  -12345  BHE     
ZL      -12345  -12345  
[...]
       210.8926       193.2199       185.9586       175.3090       164.4399
       152.2923       142.0009       129.7714       121.5640       112.8820
       105.7787       95.46840       87.02859       78.64630       72.78595
       64.34749       59.09190       52.92639       46.38631       38.97826
       31.66283       23.44184       19.67229       12.87047       3.681666
      -3.620331      -6.305725      -13.17627      -15.87911      -21.27089
      -24.18750      -29.17291      -28.48154      -36.09816      -43.52962
      -46.49429      -49.96857      -56.55717      -54.94357      -55.57149
      -57.05257      -62.66666      -62.72777      -63.09427      -63.51337
      -66.18091      -67.64966      -70.76886      -70.73862      -71.69040
      -70.23358      -65.64275      -65.56454      -68.67606      -70.80424
      -71.70686      -72.72040      -73.94565      -77.83238      -82.63620
      -88.70068      -88.88370      -91.10468      -92.36481      -98.66110
      -101.6791      -105.2800      -107.3853      -113.4295      -114.2871
      -118.6365      -121.5974      -130.6697      -134.2376      -142.9597
      -152.7514      -165.1274      -170.7374      -182.0184      -194.3759
      -207.3049      -214.0449      -224.6000      -235.5896      -246.3685
      -259.0023      -272.8999      -286.9543      -295.3372      -306.7560
      -318.5403      -330.1638      -339.1473      -350.2811      -358.4199
      -369.2354      -377.3312      -390.5518      -400.6312      -410.8634
      -418.8881      -429.6005      -436.5734      -449.9390      -459.5123
      -465.7137      -475.8749      -492.6206      -502.6472      -512.2097
      -524.0527      -538.4467      -549.4316      -559.8123      -572.9358
      -587.2490      -598.9143      -610.2170      -620.5480      -633.6151
      -649.2529      -665.5154      -673.0225      -682.0938      -691.2200
      -702.8975      -717.3999      -730.8003      -738.2642      -752.1196
      -761.9832      -770.2490      -779.4075      -786.8965      -792.8340
      -802.9834      -809.6357      -811.9751      -813.6108      -818.3408
      -818.2310      -820.4062      -821.5073      -821.5825      -818.5491
      -819.2036      -815.9106      -810.0498      -807.3286      -804.1851
      -798.7429      -794.0654      -787.3530      -780.2942      -770.0547
      -755.4463      -745.0527      -736.2048      -731.5481      -719.1443
      -703.2415      -689.5801      -677.8022      -663.7256      -654.0447
      -635.0798      -621.9802      -605.8721      -589.6960      -572.4265
      -555.4640      -528.8605      -509.0596      -488.1859      -469.5258
      -443.3945      -420.6598      -394.4545      -371.3553      -343.4392
      -317.0333      -285.8756      -258.2623      -230.0472      -201.3162
      -165.5015      -134.4179      -102.7569      -70.74339      -31.58436
       1.543701       34.47638       63.69446       100.6582       133.0262
       168.0217       200.4128       236.2391       265.1410       298.6530
       324.9788       361.0352       390.8109       421.9891       445.0063
       476.2949       500.2123       525.8499       546.1813       571.4036
       594.4395       617.0591       637.4554       663.3101       682.4326
       702.0195       716.5876       737.1697       753.8345       771.1699
       782.0605       796.0237       807.8013       824.4668       835.3914
       846.6912       855.8279       865.4182       871.9915       880.9795
       890.3623       900.7441       905.9358       912.4429       914.3728
       914.7588       920.2615       924.8721       925.1094       923.3127
       921.7881       921.2666       923.1897       920.6445       917.4749
       915.7153       912.9417       909.1318       899.3945       890.9209
       881.8562       873.3308       861.1885       852.7651       842.0637
       835.1470       826.2053       818.0854       803.5767       792.8608
       778.5732       766.3774       754.0107       739.6113       724.2229
       709.5542       692.1007       679.3665       667.1045       652.6582
       634.1743       616.9419       600.1689       585.9001       572.1782
       558.8790       545.7007       531.9895       514.9502       500.1321
       491.5757       480.2145       466.3616       452.9551       437.7058
       424.7439       412.4060       401.8877       386.6915       375.0007
       360.5143       352.1038       343.9060       336.8319       328.3358
       320.8950       307.3054       300.7615       295.3966       290.4803
       281.6653       273.9998       265.3250       259.2074       253.8732
       248.2211       240.7628       236.5006       229.8932       221.3026
       209.7986       200.2189       193.7421       189.6276       180.8506
       171.3136       162.6273       156.0081       145.3437       135.7369
       123.9120       115.3477       102.0269       93.68173       79.44379
       66.92941       49.44505       37.31883       20.67534       7.263088
      -11.19728      -26.39941      -43.91873      -55.53198      -76.63885
      -95.65088      -117.8504      -133.9254      -157.1704      -175.1350
      -194.2950      -211.3068      -233.0011      -246.9148      -264.0691
      -280.7262      -302.8192      -314.4254      -331.8878      -345.5918
      -361.5967      -371.2032      -386.6124      -396.9458      -413.9805
      -424.8502      -439.6660      -450.7007      -462.4794      -469.1948
      -483.9106      -492.2288      -502.2502      -513.7915      -525.2935
      -530.3589      -540.3712      -549.9238      -557.9197      -563.3674
      -573.0592      -583.1367      -588.4832      -588.1843      -590.1299
      -597.3571      -601.2963      -604.5435      -606.6509      -611.8408
      -613.6472      -615.2920      -612.7776      -617.1337      -617.5789
      -617.5522      -617.9290      -626.0862      -625.8320      -628.7593
      -629.9551      -633.8669      -630.7490      -633.3488      -633.1855
      -635.7482      -633.7806      -635.0237      -634.9333      -635.2979
      -632.7421      -635.1414      -638.1001      -638.5004      -633.7793
      -628.0721      -624.5842      -625.8535      -624.9509      -623.2307
      -617.1937      -611.3411      -604.1589      -597.1521      -587.9386
      -584.2637      -578.0044      -571.1206      -564.1287      -555.0436
      -546.8254      -540.6135      -531.1084      -520.9218      -510.1046
      -501.9036      -497.8783      -489.5864      -478.1891      -468.9795
      -457.4097      -449.7656      -438.9412      -425.5153      -413.7004
      -407.3125      -390.4805      -380.3252      -372.5996      -365.5028
      -353.5034      -346.0347      -336.0695      -330.0551      -321.0837
      -315.7767      -307.9412      -302.1180      -293.9813      -288.1428
      -273.9922      -266.8552      -260.6474      -256.5569      -251.0624
      -248.8658      -240.6570      -234.0328      -227.5731      -222.2661
      -213.6942      -208.0374      -205.2421      -199.8290      -194.2859
      -190.3317      -181.9702      -172.3963      -163.4417      -156.2960
      -151.5779      -143.3959      -134.9141      -126.7340      -119.2532
      -106.1595      -96.66449      -85.76718      -76.33377      -64.34827
      -55.41859      -40.95343      -32.41075      -21.83160      -15.54617
      -5.578747       3.901909       16.06720       24.75002       34.71457
       40.69969       47.58347       55.54965       65.50031       72.09485
       77.59567       85.21722       89.53525       98.96594       112.5839
       119.0968       126.8499       137.9989       150.2539       161.8398
       169.0026       177.7427       190.5019       205.6563       217.4516
       228.5895       241.0361       256.1984       267.2023       277.3474
       284.2393       298.6691       312.0178       326.4399       339.1145
       356.0188       366.7996       382.1948       396.4557       410.0570
       422.9554       441.4333       454.3264       470.7764       485.9343
       500.5322       512.4349       527.5005       539.8586       557.6565
       574.2791       586.3936       599.2883       613.9390       625.1753
       635.3367       649.2712       665.9154       676.6626       687.5811
       696.6721       709.9353       721.3364       733.0803       739.5588
       749.1438       758.6072       768.8303       774.4470       782.6194
       786.9211       793.9026       797.5479       803.6475       808.4941
       814.5364       816.1182       819.0090       823.6372       828.8958
       826.2031       826.7476       825.2979       822.3755       823.0051
       826.5298       826.0864       822.3711       818.7295       816.1826
       809.7261       804.7290       804.9507       800.2632       794.5249
       790.1714       786.6838       784.0591       780.8340       774.4983
       769.5066       764.8445       761.4692       754.1829       745.5024
       738.2520       732.6853       724.6663       716.4585       708.7295
       701.0225       689.3987       681.5271       669.4807       660.7010
       649.5771       642.8577       628.8564       616.8584       603.1876
       593.2751       576.9919       567.2861       551.4536       537.7388
       518.7891       506.3121       489.4980       477.5901       455.6846
       440.4756       422.5781       408.3405       387.7842       375.2180
       357.1302       341.3676       320.6013       306.0283       287.0386
       271.9844       249.3875       232.3408       212.0948       194.5472
       170.3612       151.9777       130.6594       117.5798       94.72652
       75.92305       51.46873       28.12034       3.938278      -11.98114
      -38.29364      -60.84406      -85.98309      -107.7124      -135.1323
      -155.9531      -187.6220      -216.3572      -246.4901      -269.6281
      -298.0876      -318.1086      -342.3291      -362.7075      -389.7583
      -410.2366      -437.5083      -459.3398      -487.0095      -506.7339
      -531.8314      -550.2334      -572.9121      -587.9888      -611.7615
      -628.0603      -651.4065      -667.5532      -687.6516      -701.9939
      -719.6868      -733.1074      -755.2036      -767.4480      -785.1648
      -795.4507      -812.5776      -823.6235      -841.4180      -853.6633
      -867.7163      -876.7092      -893.3345      -905.4321      -920.3579
      -929.0437      -941.6438      -950.0610      -960.6855      -966.8533
      -978.5977      -984.6958      -997.0959      -1005.804      -1017.892
      -1022.174      -1031.185      -1032.293      -1038.345      -1041.761
      -1051.588      -1051.069      -1054.759      -1056.715      -1061.644
      -1062.953      -1068.227      -1068.788      -1074.145      -1075.606
      -1078.052      -1076.657      -1078.870      -1077.795      -1079.685
      -1076.942      -1077.557      -1076.469      -1076.502      -1070.677
      -1070.356      -1070.030      -1068.784      -1063.523      -1063.232
      -1059.528      -1057.918      -1051.628      -1046.449      -1038.038
      -1031.120      -1024.065      -1019.814      -1008.737      -1002.036
      -992.9885      -985.3767      -974.3750      -961.1467      -943.6523
      -930.3347      -916.9497      -901.9470      -885.2456      -866.9165
      -849.3049      -828.2920      -804.5652      -781.4114      -761.6025
      -735.6396      -709.6377      -684.2131      -657.9221      -630.4055
      -603.7679      -574.4835      -547.4797      -514.8096      -482.5436
      -453.0510      -421.8761      -390.3179      -359.0364      -325.5244
      -293.5383      -261.7515      -231.2164      -196.6816      -162.7754
      -132.8437      -102.2425      -69.87367      -37.48562      -6.383911
       25.55118       52.01428       79.94354       106.5535       135.8947
       162.3737       194.5179       220.2856       242.6361       265.4781
       293.6462       317.9875       349.1729       373.2461       397.0376
       419.2334       444.3516       463.9084       487.2384       509.1057
       536.7786       558.1609       581.4781       601.9554       628.2803
       649.9409       675.6746       697.8887       724.6892       752.0466
       779.8711       799.5259       828.0630       854.7283       883.3804
       905.1040       933.3135       957.6826       985.7622       1009.133
       1036.765       1055.158       1079.535       1100.539       1124.056
       1140.172       1164.866       1180.432       1201.466       1218.290
       1240.679       1252.415       1267.573       1278.185       1296.395
       1308.267       1322.833       1329.043       1342.265       1350.199
       1362.698       1366.047       1378.031       1383.387       1390.376
       1390.829       1398.276       1397.442       1400.472       1397.239
       1398.486       1397.613       1398.291       1393.621       1389.552
       1382.474       1380.055       1368.922       1361.091       1350.800
       1340.641       1329.861       1319.982       1303.757       1293.267
       1277.294       1262.332       1244.614       1227.347       1208.247
       1187.713       1164.469       1145.799       1123.828       1102.619
       1077.726       1053.054       1027.567       1002.519       974.2207
       946.8293       916.1406       889.9004       860.5725       834.0879
       800.8760       769.0254       731.4873       699.6035       667.7633
       633.3933       591.3143       558.4138       521.0432       486.2178
       447.6906       411.0009       370.5823       335.6719       293.5629
       255.9915       216.9272       179.9300       137.9550       101.8789
       62.53740       22.74678      -14.09175      -50.38303      -89.80652
      -123.5210      -161.5485      -199.5699      -235.3542      -267.2651
      -301.1466      -334.8721      -371.6660      -400.8879      -434.5590
      -463.7321      -493.6519      -523.8604      -556.6594      -581.1517
      -607.1631      -632.3276      -657.8687      -684.4058      -710.5137
      -737.5320      -762.7891      -783.2485      -804.6077      -825.1609
      -841.5212      -860.4590      -878.0400      -899.5300      -918.9785
      -939.5903      -955.5400      -975.2493      -993.0054      -1013.207
      -1027.233      -1045.604      -1057.832      -1076.078      -1091.466
      -1110.594      -1125.992      -1140.421      -1152.351      -1173.865
      -1188.692      -1202.631      -1215.335      -1229.084      -1241.634
      -1256.894      -1266.645      -1277.977      -1286.965      -1295.373
      -1301.815      -1309.474      -1313.044      -1319.788      -1325.875
      -1330.590      -1332.906      -1336.915      -1337.954      -1338.814
      -1338.096      -1335.876      -1333.758      -1329.713      -1325.991
      -1320.670      -1318.460      -1310.474      -1305.179      -1297.641
      -1292.460      -1285.933      -1283.767      -1272.779      -1265.105
      -1251.406      -1240.062      -1226.333      -1215.630      -1201.126
      -1191.689      -1178.028      -1162.229      -1142.937      -1125.037
      -1106.453      -1089.370      -1068.722      -1045.646      -1023.752
      -999.8423      -973.2224      -943.0984      -915.1260      -884.5955
      -854.8369      -820.8716      -788.1174      -752.2593      -718.1360
      -681.7472      -646.0798      -607.7764      -570.4954      -532.5021
      -493.8677      -451.9587      -413.3650      -371.8541      -331.1374
      -292.2572      -255.8832      -216.6594      -178.6634      -139.6636
      -102.5556      -60.51063      -21.70853       20.32988       57.64203
       100.3128       138.8477       180.1825       217.2523       259.3277
       297.1906       334.6470       370.8191       408.3259       440.7021
       477.5342       511.5823       542.8121       574.9725       609.5452
       638.9875       667.5735       695.4512       724.7756       753.5896
       781.3481       807.5798       831.2056       852.4307       876.1963
       898.0879       919.6572       941.2207       960.7688       976.6572
       994.9705       1014.064       1031.553       1046.623       1064.444
       1080.345       1091.865       1103.989       1118.748       1133.021
       1143.616       1156.667       1166.360       1177.597       1189.996
       1202.099       1210.310       1221.345       1230.196       1236.818
       1241.606       1247.302       1251.778       1260.092       1263.573
       1266.705       1270.029       1272.679       1271.456       1271.532
       1273.153       1272.730       1269.969       1265.954       1262.761
       1259.167       1252.773       1247.128       1240.811       1229.219
       1219.030       1208.059       1194.722       1179.274       1166.285
       1149.451       1132.964       1117.715       1098.675       1073.657
       1053.625       1028.913       1006.993       981.4741       952.0415
       926.5002       899.1980       863.9397       834.8218       802.6853
       770.0679       735.5532       702.7900       666.9797       633.8354
       599.5828       566.0278       531.8502       498.1886       463.3502
       426.9664       392.1628       354.6237       318.0013       282.7253
       247.3354       210.7920       176.7907       141.2679       105.7807
       68.76295       32.74566      -5.581696      -37.92715      -73.05768
      -108.3272      -144.1842      -174.0240      -208.7292      -239.3481
      -272.0262      -300.2826      -330.0413      -358.0131      -389.4910
      -413.0511      -442.7479      -469.9514      -497.9844      -521.4503
      -550.6382      -573.9330      -600.6287      -623.5316      -646.8047
      -666.1118      -690.5193      -711.4075      -732.4819      -750.5544
      -770.2883      -788.0601      -804.8792      -821.0962      -836.2034
      -849.6479      -860.9185      -872.5032      -884.4946      -892.5518
      -901.2876      -911.1838      -920.7119      -926.7344      -929.4170
      -931.3906      -937.2109      -935.4797      -938.7239      -939.6389
      -940.1274      -937.2246      -940.0708      -933.3618      -929.5876
      -924.2825      -922.9927      -912.9824      -907.0227      -895.6248
      -887.8909      -873.0723      -864.6150      -852.0591      -841.9258
