     0.02500000      -1089.672       1092.367      -12345.00      -12345.00
      -30.00005       219.2249      -21.45000      -12345.00      -12345.00
       0.000000       15.79000      -12345.00      -12345.00      -12345.00
      -12345.00      -12345.00      -12345.00      -12345.00      -12345.00
      -12345.00      -12345.00      -12345.00      -12345.00      -12345.00
      -12345.00      -12345.00      -12345.00      -12345.00      -12345.00
      -12345.00      -30.65860      -69.43630       2628.000       0.000000
      -31.06700      -68.46300       0.000000       100400.0       0.000000
      -12345.00      -12345.00      -12345.00      -12345.00      -12345.00
      -12345.00      -12345.00      -12345.00      -12345.00      -12345.00
       103.5150       295.6893       116.1862      0.9307027      -12345.00
      -12345.00    -0.03946143       0.000000       0.000000      -12345.00
      -12345.00      -12345.00      -12345.00      -12345.00      -12345.00
      -12345.00      -12345.00      -12345.00      -12345.00      -12345.00
      2008       164        19         3        59
       250         6    -12345    -12345      9970
    -12345    -12345    -12345    -12345    -12345
         1         7        13    -12345    -12345
    -12345    -12345    -12345    -12345    -12345
    -12345    -12345    -12345    -12345    -12345
    -12345    -12345    -12345    -12345    -12345
         1         1         1         1         1
TOCO    -12345          
        -12345  -12345  
-12345  -12345  -12345  
-12345  -12345  -12345  
-12345  -12345  -12345  
-12345  -12345  -12345  
-12345  -12345  BHZ     
ZL      -12345  -12345  
[...]
      -110.1761      -110.9561      -114.1232      -115.3420      -116.9642
      -118.4925      -118.7858      -119.7644      -121.6002      -122.5597
      -126.7632      -127.0150      -127.8815      -128.6907      -132.1851
      -135.3497      -138.6484      -141.1121      -144.7866      -145.1693
      -148.4687      -148.6183      -152.9055      -154.8989      -156.5868
      -155.4360      -157.3958      -159.7607      -163.6693      -165.5998
      -168.4515      -167.5929      -169.9725      -172.2200      -172.4248
      -172.7987      -172.9570      -175.8966      -179.2504      -181.6482
      -184.1938      -185.5745      -188.4019      -188.5440      -189.9868
      -192.2138      -191.4473      -192.7216      -196.3550      -197.7953
      -199.5180      -202.2087      -200.5510      -203.6711      -205.1949
      -208.4630      -208.1429      -207.5955      -208.4822      -212.2222
      -211.1371      -214.7372      -216.4525      -218.7483      -216.5770
      -219.0358      -221.9952      -223.9232      -225.2971      -228.5708
      -227.9949      -229.6009      -229.9507      -233.0085      -234.7999
      -235.2152      -238.5146      -240.9672      -239.7421      -242.6542
      -244.2603      -242.2785      -244.2442      -245.6941      -247.0620
      -248.3809      -250.5349      -249.6793      -253.3289      -254.9465
      -257.8080      -258.5756      -260.5370      -263.1823      -265.4578
      -266.2083      -269.8816      -273.2012      -277.6466      -283.7469
      -285.5466      -285.0421      -289.0546      -295.4735      -297.2955
      -300.3209      -304.6707      -307.1130      -308.0554      -312.9609
      -315.2136      -319.1703      -320.6215      -318.0228      -312.5189
      -312.2845      -311.3731      -306.8364      -303.6348      -300.8561
      -295.6309      -290.4568      -283.8730      -277.5052      -268.2383
      -258.3677      -250.1769      -239.6561      -227.5319      -214.7640
      -205.1384      -198.4794      -188.6309      -173.2594      -161.7653
      -149.0549      -131.5912      -115.7867      -102.5722      -84.18872
      -68.57938      -51.65358      -34.34922      -16.43982      0.6498413
       20.08893       39.59732       60.75940       78.56329       102.7374
       121.0131       141.9208       159.5998       180.7592       198.7049
       221.5752       238.5729       255.9789       273.8594       294.7600
       309.9054       329.9175       347.5505       363.9707       374.9146
       391.0485       403.4666       420.4371       431.0054       443.2241
       456.1722       472.5408       482.3827       498.5249       508.9658
       523.8081       536.0854       551.0027       562.8230       577.6902
       585.7830       599.7137       609.5719       621.7642       630.7654
       643.0317       651.4197       659.9678       660.7878       671.5902
       674.7502       677.5508       675.8833       680.3408       674.8000
       671.7244       665.7040       667.8121       659.9452       657.7174
       646.0984       639.6917       624.9143       618.4607       603.3855
       595.5029       578.3274       567.5854       549.0134       537.6113
       518.1128       506.0630       484.8479       472.1847       452.7268
       439.0945       419.8683       404.5952       380.8755       366.6616
       345.3270       332.2275       312.8583       295.9818       273.8935
       262.0904       240.6846       224.1776       204.7511       191.9590
       177.8564       167.3095       150.4460       143.0285       127.3789
       113.8234       100.0241       93.24347       79.71710       73.17589
       60.20467       49.52599       33.81318       25.77829       10.28172
     0.07112885      -18.06207      -26.40407      -40.46825      -46.73654
      -62.26147      -71.88342      -85.83530      -95.41299      -112.0771
      -119.9297      -134.7590      -141.8936      -157.2079      -168.6943
      -182.9780      -191.7607      -205.1674      -212.1616      -224.3024
      -229.1149      -243.1852      -248.0214      -260.8063      -267.9305
      -279.8822      -282.1459      -293.5464      -293.4951      -302.1909
      -305.4125      -315.8562      -320.1140      -333.5341      -335.7334
      -347.4824      -349.2560      -360.4368      -362.9351      -374.6427
      -378.6948      -389.8507      -391.2793      -402.6216      -409.0326
      -420.8998      -421.1411      -431.4076      -436.8782      -446.7228
      -448.5990      -459.0356      -461.8323      -475.5574      -480.1782
      -491.8954      -496.4421      -509.1248      -515.0901      -531.3391
      -537.0096      -549.8081      -553.9120      -563.4790      -569.4209
      -580.2628      -583.6384      -594.7363      -596.5328      -605.6732
      -609.5813      -617.2903      -618.2758      -628.1416      -631.2709
      -636.1863      -636.1221      -642.7271      -638.2197      -641.0532
      -638.8827      -643.8574      -640.9126      -644.5864      -640.3204
      -641.5743      -635.5217      -639.2823      -632.3318      -633.0010
      -627.9423      -628.8472      -622.7666      -622.3673      -612.5391
      -610.6782      -599.8926      -595.9421      -586.5195      -583.0708
      -569.8660      -564.3066      -545.7164      -531.7015      -511.7582
      -502.2423      -484.9326      -473.5549      -451.1274      -433.9601
      -410.3894      -393.9139      -369.1481      -352.5901      -327.0882
      -308.0089      -282.3052      -264.2079      -237.5781      -216.6564
      -186.0073      -165.9434      -137.9678      -116.2254      -91.08891
      -71.06708      -42.75550      -23.23833       3.064255       22.99788
       51.24510       71.85718       99.90582       122.6445       149.3282
       169.7769       195.2313       214.0842       240.4457       257.3508
       279.9068       298.4189       323.9939       340.3597       362.0541
       380.2590       402.6240       418.6637       440.6656       456.5288
       476.0437       491.4944       511.3328       526.9409       544.2434
       556.6085       574.7620       587.1904       602.5300       612.6840
       627.9108       640.0427       651.9890       660.5435       673.0730
       680.7993       691.2156       695.7939       705.6357       710.6433
       719.4221       724.9590       732.1709       730.7329       739.7048
       745.0676       750.0886       751.7864       758.1267       756.6196
       762.8948       761.7124       764.4976       763.1721       766.8579
       762.8123       765.1309       760.2751       758.3923       752.4434
       751.0269       742.7778       739.4102       730.9785       728.5081
       722.0107       716.4429       707.7476       702.4290       691.5779
       682.2197       668.6797       660.0947       647.9340       635.7250
       623.6042       611.8174       597.8805       586.8790       572.5814
       560.7880       547.5648       533.2363       515.1788       503.7673
       487.5756       472.5731       455.8026       440.5500       423.0118
       408.2275       391.4381       376.1614       359.0549       344.9384
       331.0404       313.8667       299.8576       285.2242       269.4823
       254.7612       240.9406       226.1536       212.7791       193.9052
       178.6277       165.2821       148.1075       130.4904       115.6449
       96.24045       79.63817       60.75758       44.51135       26.23350
       8.544403      -6.315826      -25.55202      -48.13365      -63.35162
      -85.21893      -108.9259      -129.6015      -150.2726      -175.7676
      -194.7825      -217.4410      -239.5161      -259.0389      -278.4609
      -302.5485      -322.4226      -347.8274      -373.8828      -396.4182
      -415.0873      -436.3726      -458.7988      -480.2688      -498.9800
      -520.7480      -540.0887      -557.9895      -575.6887      -593.3162
      -608.2729      -622.6060      -636.2087      -652.7106      -668.6748
      -681.5959      -692.4050      -706.6865      -718.8423      -729.8987
      -737.1990      -745.9617      -754.3479      -763.2612      -769.7278
      -775.6753      -780.9849      -788.1633      -793.7097      -800.5466
      -804.6128      -811.9551      -814.9746      -818.1816      -818.3330
      -821.1887      -819.9502      -824.9614      -825.7197      -825.8621
      -821.3691      -822.7634      -817.7263      -816.8152      -812.7139
      -809.8943      -799.9661      -795.5801      -789.3020      -785.1064
      -772.7451      -764.9604      -752.6021      -739.3223      -724.1343
      -711.3298      -695.9160      -681.3988      -661.9086      -646.5984
      -628.6750      -609.4468      -590.0154      -573.5334      -555.9277
      -536.6899      -513.4880      -492.9519      -472.7760      -453.1580
      -431.6029      -412.2788      -391.2401      -371.6252      -354.5568
      -335.6183      -315.0978      -296.8162      -278.3088      -263.4890
      -244.8711      -226.5187      -209.9119      -196.7000      -176.7948
      -161.4884      -145.6974      -131.4871      -112.9906      -100.5103
      -82.54710      -68.01970      -53.03802      -42.47422      -26.27543
      -15.69039     -0.8213844       7.649826       19.94550       26.89580
       40.85390       49.32590       62.87045       68.44292       80.77017
       85.92203       97.09229       102.2097       113.0070       117.1194
       127.6554       131.6303       141.0779       146.3599       155.6132
       159.7424       166.8610       170.1733       178.6831       183.2915
       188.5153       190.3784       197.6228       201.9880       205.3912
       206.8627       212.0201       212.0417       217.1568       221.4910
       224.1418       227.7938       233.9808       236.5074       241.3041
       247.3326       252.3273       253.0840       258.8800       262.4569
       267.0974       272.9771       278.1483       283.3665       292.7427
       296.5682       304.4928       310.8714       317.0698       321.6616
       327.1134       330.0565       337.6946       342.3351       350.4255
       352.2188       357.0298       364.0433       375.2756       377.2812
       383.8732       389.7628       397.7855       401.1726       410.0421
       414.1548       424.4553       427.8400       436.0321       438.8577
       447.3636       452.1996       462.8674       466.9065       475.5391
       479.8524       490.9386       496.5032       502.5823       510.6476
       522.8835       532.2714       545.1554       552.9041       561.7456
       569.7175       583.3292       594.0032       605.9260       613.6890
       624.1824       632.2592       642.2166       649.1688       659.3000
       667.3157       676.3984       684.1382       691.3899       698.5127
       706.2837       710.6865       713.7810       716.6411       722.1543
       726.8384       727.4939       729.0776       731.3027       730.2783
       729.8184       727.5342       721.8440       716.1865       712.3613
       711.7070       709.5203       704.9170       701.4077       696.1724
       689.8137       685.2153       680.9519       671.2672       664.1835
       661.0842       655.0352       648.2031       641.0514       633.6956
       627.9899       623.1406       615.9552       607.9006       597.5989
       589.9824       582.8296       575.5889       562.6255       552.9932
       540.3440       528.6691       517.2456       506.3395       492.5112
       479.3785       462.4631       446.5502       431.2949       416.1301
       397.9385       381.6992       365.7917       348.1471       329.0342
       307.6231       288.5502       270.3740       249.4045       227.5439
       209.0237       188.6870       170.2997       149.2810       127.8639
       103.9918       84.17488       61.23647       38.46950       13.69460
      -6.776108      -29.48972      -53.34402      -77.98431      -96.63123
      -119.4423      -142.2195      -168.8881      -187.6790      -208.5280
      -227.3965      -248.0500      -270.2565      -291.9424      -312.3770
      -335.1816      -352.4962      -374.8180      -398.8772      -418.6422
      -439.4833      -462.2642      -482.7446      -503.7402      -523.7625
      -544.2854      -565.4319      -585.6030      -606.2520      -628.9360
      -649.5406      -669.5815      -691.8225      -715.2563      -736.4805
      -754.4580      -774.6201      -795.1785      -816.1489      -835.3640
      -852.8472      -872.1316      -890.5874      -909.2805      -930.3232
      -948.9370      -966.8037      -981.0576      -997.4084      -1009.929
      -1025.560      -1034.563      -1044.403      -1052.997      -1061.555
      -1065.908      -1076.391      -1078.702      -1084.111      -1085.592
      -1089.672      -1086.123      -1087.722      -1085.495      -1084.661
      -1077.107      -1074.338      -1066.721      -1064.623      -1057.176
      -1050.968      -1042.634      -1038.292      -1027.497      -1019.703
      -1007.142      -1000.420      -989.6631      -979.7759      -966.8838
      -959.1104      -942.9055      -929.4541      -913.1040      -902.9717
      -887.6729      -875.6167      -857.6084      -845.6255      -826.9248
      -812.1729      -793.8323      -781.5908      -763.1614      -751.4829
      -733.4526      -717.2759      -697.0581      -682.9380      -661.4022
      -646.1355      -626.8467      -612.1707      -590.5421      -572.7986
      -552.3973      -539.2601      -517.6318      -501.7058      -477.1312
      -460.2346      -440.7390      -424.1158      -398.6418      -380.3832
      -356.0714      -341.2150      -315.4969      -292.6329      -267.4867
      -244.9345      -217.5716      -197.0466      -167.3372      -146.4233
      -120.9667      -99.35254      -72.18507      -49.85785      -20.23223
      0.6248016       25.58987       47.55598       76.74454       95.77554
       123.3163       148.1604       171.5714       190.7553       220.4229
       239.0753       267.1915       287.4705       314.1748       338.1184
       364.7205       383.5952       413.9097       435.4392       463.6631
       488.0728       519.3081       538.3628       564.8062       586.9902
       615.6228       635.9329       665.3164       684.0742       711.4102
       730.6978       757.2319       774.7891       799.4429       816.7192
       841.5254       856.3572       880.4182       894.9707       914.5796
       930.5688       950.2998       960.0552       977.5332       989.5244
       1008.266       1016.118       1030.146       1037.281       1049.511
       1054.793       1066.795       1068.339       1077.762       1077.410
       1082.887       1084.728       1088.946       1086.831       1092.367
       1089.052       1092.348       1089.054       1088.395       1080.552
       1077.673       1069.515       1068.693       1060.515       1056.885
       1046.245       1040.783       1030.931       1023.186       1012.041
       1005.334       990.0867       981.3638       969.0747       958.1130
       944.1494       934.2427       919.2681       904.8904       886.7642
       875.1401       857.1904       842.6274       824.8083       806.8042
       786.1365       770.9150       749.0352       733.2822       712.3662
       691.4980       667.6340       649.2483       625.8564       606.6718
       581.9855       562.8884       535.8616       514.2463       488.8909
       469.5562       441.0518       419.1710       393.0555       373.5348
       347.7166       325.1084       300.9134       284.1365       258.7943
       240.9272       217.8223       196.8730       169.1964       150.5598
       126.3855       106.3128       84.85587       68.87447       41.85697
       21.97171      -1.389114      -18.88507      -43.27097      -66.02274
      -91.41354      -109.7335      -137.0304      -158.4924      -180.9143
      -200.4568      -222.6803      -241.7560      -264.3849      -282.7093
      -303.4903      -318.3792      -337.1995      -354.6893      -374.9755
      -389.3733      -406.3590      -420.1493      -437.8933      -448.6350
      -463.8658      -475.7723      -491.3551      -501.1301      -513.9691
      -526.2373      -540.5288      -549.0917      -562.2805      -574.7581
      -588.7183      -602.2162      -614.4010      -625.5935      -638.9817
      -652.1523      -662.8005      -671.0562      -685.1177      -698.7297
      -711.5361      -719.8137      -728.8110      -739.3179      -750.0364
      -758.2100      -769.4075      -779.4749      -786.6926      -795.7310
      -803.4011      -810.2129      -817.9985      -825.4390      -829.2817
      -835.2251      -842.1108      -847.9368      -851.0266      -853.5276
      -859.0371      -861.4434      -865.9324      -869.1328      -872.6750
      -873.7012      -874.7114      -877.3962      -879.3652      -880.9573
      -879.0266      -878.3467      -880.0693      -882.6711      -879.6714
      -879.1042      -877.4907      -874.9683      -875.3589      -877.4109
      -876.0901      -875.3359      -871.4446      -869.7874      -864.1616
      -858.0852      -853.1443      -848.6436      -844.2065      -838.1858
      -828.6111      -821.1304      -810.6182      -802.6987      -793.1162
      -782.5759      -766.4548      -757.6807      -742.8989      -729.5417
      -711.9126      -697.4272      -680.8434      -670.8019      -653.4792
      -641.3777      -622.2738      -609.6475      -590.3097      -574.4861
      -554.3473      -538.0890      -519.7614      -503.4651      -479.2130
      -465.6538      -447.4164      -428.5930      -407.5803      -388.0459
      -366.4066      -346.3644      -317.3050      -298.2248      -274.3669
      -250.4305      -221.1240      -197.7080      -171.8755      -148.1800
      -120.9042      -99.55727      -71.12474      -45.14768      -19.10221
       6.244461       31.95842       54.62885       81.93771       105.7118
       127.6671       152.2737       172.9552       196.1205       223.6617
       247.1872       269.3212       290.0113       311.1497       333.6375
       354.9552       376.7617       396.3494       413.7013       434.7946
       452.2821       470.7399       490.2360       510.2443       525.4431
       541.6987       554.9884       572.0814       583.8220       598.3866
