     0.02500000      -2191.624       1853.263      -12345.00      -12345.00
      -29.99003       215.4099      -17.24000      -12345.00      -12345.00
       0.000000       12.67000      -12345.00      -12345.00      -12345.00
      -12345.00      -12345.00      -12345.00      -12345.00      -12345.00
      -12345.00      -12345.00      -12345.00      -12345.00      -12345.00
      -12345.00      -12345.00      -12345.00      -12345.00      -12345.00
      -12345.00      -30.57010      -68.62600       946.0000       0.000000
      -31.06700      -68.46300       0.000000       100400.0       0.000000
      -12345.00      -12345.00      -12345.00      -12345.00      -12345.00
      -12345.00      -12345.00      -12345.00      -12345.00      -12345.00
       57.25483       344.1505       164.2337      0.5147752      -12345.00
      -12345.00     -0.8805830       270.0000       90.00000      -12345.00
      -12345.00      -12345.00      -12345.00      -12345.00      -12345.00
      -12345.00      -12345.00      -12345.00      -12345.00      -12345.00
      2008       164        19         3        55
        40         6    -12345    -12345      9817
    -12345    -12345    -12345    -12345    -12345
         1         7        13    -12345    -12345
    -12345    -12345    -12345    -12345    -12345
    -12345    -12345    -12345    -12345    -12345
    -12345    -12345    -12345    -12345    -12345
         1         1         1         1         1
TUCU    -12345          
        -12345  -12345  
-12345  -12345  -12345  
-12345  -12345  -12345  
-12345  -12345  -12345  
-12345  -12345  -12345  
-12345  -12345  BHE     
ZL      -12345  -12345  
[...]
       955.5669       974.4214       995.2009       1015.986       1031.100
       1051.251       1064.753       1079.203       1096.781       1107.863
       1112.926       1125.872       1136.591       1139.300       1145.113
       1158.361       1165.377       1172.051       1176.755       1182.289
       1179.933       1182.925       1181.629       1179.584       1179.614
       1181.141       1177.113       1175.824       1171.127       1167.430
       1157.998       1159.572       1159.449       1152.321       1143.349
       1144.509       1140.341       1136.413       1130.589       1125.594
       1116.219       1112.460       1102.679       1094.636       1089.211
       1086.533       1079.491       1079.708       1077.083       1073.608
       1066.368       1064.094       1060.260       1056.070       1044.066
       1041.271       1039.356       1035.715       1031.040       1034.590
       1032.192       1026.869       1026.811       1024.602       1013.453
       1008.229       1009.290       1001.897       986.4429       980.4912
       975.8264       961.4585       943.7742       934.6672       921.4775
       904.7520       885.7974       868.2324       843.8438       822.8276
       806.6877       788.8225       763.0427       738.7600       716.7600
       686.3359       653.5791       628.1449       592.7891       550.8044
       516.5098       481.6019       440.1549       404.4910       369.0284
       334.4926       296.9036       259.4309       224.5131       188.1145
       143.0777       104.1267       67.42427       29.91648      -3.163971
      -38.85880      -78.84253      -111.3593      -147.8860      -183.1176
      -213.2939      -245.6332      -278.0129      -310.4459      -343.6327
      -375.3425      -403.2213      -428.5410      -458.5740      -485.5647
      -508.9150      -529.8990      -552.4021      -572.5356      -592.7263
      -613.6509      -629.9847      -642.9226      -664.0071      -682.6797
      -695.6699      -712.1804      -731.0298      -742.6274      -746.4790
      -761.1226      -774.4636      -783.9775      -793.7114      -810.9407
      -822.0256      -831.7495      -843.1843      -850.5593      -850.3564
      -859.9260      -870.4346      -880.1174      -887.1980      -898.9399
      -904.7192      -911.1963      -913.3828      -920.0232      -927.7695
      -929.7856      -934.7578      -947.9595      -950.2383      -956.7427
      -964.6807      -973.4189      -976.4919      -984.3774      -991.7908
      -997.2939      -999.8271      -1006.370      -1013.709      -1018.121
      -1015.507      -1014.465      -1020.659      -1025.098      -1027.405
      -1032.354      -1034.383      -1033.924      -1031.708      -1029.537
      -1025.838      -1020.991      -1020.281      -1020.157      -1017.096
      -1016.198      -1009.670      -1003.371      -995.6152      -985.0664
      -980.8831      -971.7305      -955.9673      -952.7395      -940.8245
      -926.2273      -918.7415      -910.7380      -893.4092      -881.3718
      -868.4609      -857.9355      -842.3762      -826.3821      -805.0911
      -789.0510      -774.3018      -757.8904      -736.3486      -721.2175
      -699.4536      -682.1240      -660.0500      -644.2656      -625.5505
      -609.0771      -588.6123      -575.4216      -558.2344      -543.0691
      -518.2288      -496.1104      -472.6334      -450.9575      -430.4216
      -413.4904      -385.0854      -365.9465      -343.7515      -319.0430
      -295.7345      -276.4756      -251.0473      -229.7852      -209.5000
      -189.2148      -163.6954      -148.0250      -129.9200      -109.3914
      -96.19014      -87.98114      -66.58492      -45.27499      -33.21774
      -21.23654      -2.949673       7.962906       19.65080       35.57532
       47.71353       56.48730       69.72473       80.45187       88.79202
       94.47211       97.43750       102.6864       116.4972       124.9413
       131.8963       137.2028       141.9688       146.3208       150.8687
       153.9586       162.9613       165.9789       168.7468       177.9626
       190.1690       190.1539       195.3051       204.3090       208.1404
       211.9724       215.1456       215.7986       224.2443       228.5494
       228.1767       234.4388       238.5204       238.5209       245.5289
       251.4171       250.0208       250.4537       257.3884       261.5480
       260.5376       265.1749       269.4520       269.6876       273.1298
       272.7335       274.5685       280.8965       280.5165       282.9663
       281.4926       282.5319       286.1475       287.4460       291.2208
       299.6619       295.8622       299.4379       302.3041       307.5154
       312.3690       316.0808       316.2132       322.6737       326.4586
       331.5438       336.6846       349.7966       363.0786       371.2734
       377.6912       386.0514       400.9650       418.6221       427.3889
       443.7318       458.5101       467.3118       482.6760       502.4784
       520.0435       532.9924       549.8894       567.1245       579.5189
       596.2435       617.4238       637.6267       658.9305       678.5903
       689.7183       708.1069       731.6631       749.7773       767.1089
       787.4194       800.6206       816.8975       832.2891       843.1304
       855.7942       872.5747       883.3372       892.8792       901.9937
       910.5139       923.1807       932.2327       929.7661       935.6853
       940.7983       937.2463       935.5454       938.1191       932.0500
       932.7769       932.6450       925.0676       918.5037       921.1509
       909.8289       903.8162       898.5647       886.4656       872.1628
       867.0925       852.5571       835.5090       811.5295       802.8206
       787.9897       765.2200       747.2417       734.6841       704.7129
       688.2031       674.3755       652.4368       626.8322       612.3873
       592.7397       572.9944       551.3956       534.9077       511.4171
       493.2733       473.6882       456.8693       441.8005       429.4783
       412.7518       395.5184       375.5333       363.1588       345.1879
       328.6071       315.3639       302.4412       281.4471       269.4889
       260.5497       251.9135       238.2401       224.3619       210.8215
       201.8323       188.7402       182.2318       178.1225       166.6403
       150.4933       143.7499       132.5112       119.0040       104.1279
       94.62128       86.71007       77.77155       69.57260       63.32806
       51.81615       38.42636       29.89647       18.00558       4.023472
      -3.880219      -15.66345      -19.87250      -22.42516      -33.00826
      -46.50766      -59.38507      -71.99380      -82.66959      -98.30121
      -110.4427      -120.2010      -129.9902      -140.4779      -149.7942
      -155.1540      -163.2587      -171.5574      -176.9653      -181.5125
      -191.4272      -203.9437      -216.2633      -224.1036      -233.2934
      -241.3501      -248.0585      -255.1954      -265.6705      -273.7936
      -285.0662      -293.9016      -306.9277      -313.0800      -323.4379
      -335.0320      -346.2434      -348.8447      -354.9441      -365.6223
      -376.1813      -379.7112      -388.6794      -401.0757      -411.4788
      -420.1599      -436.2710      -446.3029      -452.1508      -460.2800
      -472.8429      -485.1444      -495.1604      -509.1191      -521.8921
      -524.1106      -530.9661      -544.0122      -549.4424      -556.5527
      -569.4480      -584.9890      -595.0352      -610.8049      -624.6252
      -637.8167      -648.2367      -656.5996      -664.6771      -681.4460
      -688.2192      -699.5601      -709.3049      -716.6863      -718.8196
      -725.5156      -728.2520      -739.1226      -742.9985      -754.1479
      -763.7620      -770.4238      -773.0972      -786.7551      -789.9917
      -793.5120      -795.2551      -803.3296      -808.7866      -813.9683
      -818.3162      -826.2861      -823.4448      -830.1416      -835.4116
      -835.4119      -835.3242      -841.8862      -839.2358      -838.9141
      -838.8259      -841.5261      -837.9563      -837.9919      -838.0669
      -839.8398      -835.4773      -839.0344      -840.2615      -835.3430
      -830.5066      -836.2019      -828.9028      -818.6494      -815.6550
      -813.9502      -797.5635      -790.2307      -787.0415      -777.9280
      -768.3564      -765.5967      -756.9438      -749.5840      -738.2344
      -727.5654      -711.3779      -698.5842      -689.3733      -675.6042
      -651.7324      -640.3381      -626.7582      -602.5114      -584.9597
      -574.6823      -552.1389      -534.8877      -524.4155      -505.7219
      -479.6545      -456.7550      -431.7874      -410.5585      -383.7195
      -358.4753      -339.2438      -315.8195      -289.1764      -262.9994
      -229.7539      -203.3818      -186.2767      -160.3514      -128.7888
      -107.0833      -83.37051      -49.41240      -23.16364       3.064178
       40.41916       74.32867       103.3685       132.2505       163.2531
       191.1774       220.1083       245.7697       273.3187       295.6099
       319.8008       344.6530       374.8940       401.4589       425.6963
       454.7880       488.5573       513.1432       545.4607       574.8406
       597.6021       625.5652       651.1418       665.2344       681.8037
       711.8406       737.7581       758.9839       785.4092       814.6504
       831.2468       853.1431       876.2637       898.2061       910.3113
       932.8330       960.2432       978.9058       984.9336       1008.669
       1031.905       1041.488       1055.416       1075.540       1084.936
       1099.576       1118.698       1130.327       1133.146       1133.981
       1137.534       1144.055       1151.720       1154.674       1155.349
       1155.391       1155.702       1153.526       1155.497       1156.204
       1149.055       1143.141       1145.411       1137.664       1133.891
       1132.905       1127.639       1122.659       1117.668       1105.537
       1102.002       1088.820       1070.857       1065.189       1051.046
       1032.308       1021.428       1007.878       995.5439       982.8379
       971.5850       958.0806       934.3906       919.0366       906.5610
       879.8894       851.7642       836.5410       826.7588       808.7549
       791.9087       778.2783       752.8735       735.4707       720.3679
       701.4009       680.4316       652.2178       632.5228       615.5592
       587.0574       566.8052       553.1584       534.8693       513.5342
       493.9685       469.0796       438.2224       416.1095       390.6639
       360.7888       336.8285       317.8748       290.4440       266.5321
       243.3376       215.0047       186.7321       157.8428       127.5192
       110.8179       84.76390       53.46149       28.53532       1.813736
      -23.16217      -51.09534      -86.71082      -103.5426      -122.9625
      -150.0900      -171.4385      -187.4880      -215.6608      -241.4613
      -258.0527      -281.4354      -308.2240      -325.8617      -348.9392
      -374.8511      -391.0328      -411.5906      -439.1438      -458.2478
      -473.6178      -487.9458      -508.9207      -527.2256      -539.6284
      -561.3198      -584.8684      -603.0916      -617.6371      -638.8329
      -657.8405      -675.0391      -694.5298      -716.7283      -733.7200
      -756.4111      -773.9741      -790.6663      -806.7869      -821.4351
      -839.0217      -860.0544      -875.4414      -893.4387      -913.7229
      -930.6086      -944.7603      -962.7661      -982.7441      -993.6648
      -1000.209      -1009.782      -1015.119      -1019.689      -1028.845
      -1037.993      -1051.978      -1058.503      -1065.025      -1071.913
      -1077.258      -1079.944      -1087.543      -1086.924      -1084.443
      -1083.390      -1083.995      -1084.018      -1091.845      -1094.972
      -1099.456      -1096.967      -1097.169      -1098.934      -1099.342
      -1102.143      -1108.691      -1105.169      -1108.521      -1109.170
      -1110.639      -1115.062      -1117.605      -1118.744      -1131.538
      -1130.875      -1133.013      -1134.694      -1140.446      -1141.465
      -1141.781      -1136.482      -1142.547      -1140.291      -1143.997
      -1137.763      -1136.604      -1132.285      -1130.447      -1120.529
      -1109.400      -1097.775      -1095.708      -1100.828      -1121.824
      -1225.103      -1419.898      -1332.748      -1137.207      -704.0693
      -721.2959      -1179.264      -611.8003      -712.4834      -1401.817
      -1032.756      -754.2751      -601.1086      -266.9707      -6.454102
      -277.8750      -1745.553      -2191.624      -745.5854      -511.0840
      -1056.973      -883.8799      -1077.142      -1282.289      -1009.686
      -761.3357      -354.3164      -349.7217      -655.0836      -420.4963
      -285.7219      -552.2554      -496.7001      -132.7954      -265.7710
      -603.1978      -402.3280      -274.6252      -277.1310      -156.6835
      -267.7327      -327.7342      -176.8092      -75.58257       33.47711
      -69.27220      -118.7905       349.2867       492.4391       44.03195
      -30.77698       267.7871       491.5609       398.5789       184.7703
       406.2192       500.4988       344.1704       636.8174       722.9663
       682.2236       855.2324       885.5789       997.5476       753.3728
       490.9329       863.6895       1133.033       1298.922       1228.280
       943.8721       995.7803       1161.346       1246.353       1231.657
       1274.797       1521.624       1519.854       1309.984       1398.720
       1523.260       1520.643       1577.118       1534.481       1545.093
       1572.750       1425.602       1422.615       1624.003       1761.306
       1660.912       1593.727       1788.948       1654.194       1511.296
       1781.077       1783.167       1588.899       1612.927       1584.464
       1583.440       1651.871       1702.539       1669.674       1602.551
       1619.878       1577.905       1554.328       1572.354       1477.677
       1467.303       1504.742       1488.954       1444.585       1416.082
       1441.181       1405.735       1244.301       1186.359       1336.738
       1317.496       1117.672       1116.619       1266.728       1234.958
       1089.880       1153.593       1178.255       1033.331       1068.480
       1131.041       1045.903       917.6475       916.0845       1104.853
       1050.061       769.0903       789.7712       871.2937       776.9529
       774.6362       804.0796       800.6868       729.0693       673.0376
       771.4270       677.4902       564.0369       633.1580       601.1018
       539.3208       380.3457       314.1661       514.1459       481.1630
       403.9546       437.1953       394.3867       291.9907       161.5410
       210.0596       267.4590       173.0344       203.9482       185.2996
       17.91714       35.02744       162.0525       64.39941      -77.47499
      -6.513397       3.861267      -164.9260      -219.9378      -78.63477
      -69.53488      -148.2394      -122.8114      -265.1611      -326.5901
      -223.9271      -312.6428      -374.8278      -357.9752      -396.8953
      -426.4109      -498.8646      -564.7490      -558.3867      -504.4348
      -527.2434      -553.0315      -578.1067      -737.5862      -816.0859
      -761.9354      -693.1771      -602.4365      -688.1221      -810.2428
      -686.2325      -596.8257      -761.1792      -865.7214      -828.7607
      -888.6125      -934.0813      -869.4397      -861.9041      -999.6702
      -1021.100      -919.5815      -998.2593      -1080.608      -997.2964
      -902.5820      -868.9780      -891.8655      -887.1221      -922.0159
      -979.5325      -896.5005      -881.5176      -943.6755      -951.9648
      -1024.727      -1045.856      -945.1975      -979.0483      -997.9392
      -869.1326      -882.7571      -929.3311      -925.9143      -886.5144
      -883.3086      -853.0181      -731.1206      -795.4561      -939.6685
      -855.4753      -767.8113      -788.6572      -811.5566      -790.2297
      -818.9001      -879.0610      -775.2114      -748.8083      -878.4265
      -787.4868      -801.0896      -903.0190      -828.7942      -763.2695
      -724.4893      -716.7971      -615.9595      -521.8513      -651.9822
      -711.1295      -679.1815      -683.4454      -631.5225      -621.0916
      -725.5453      -555.9290      -484.8477      -813.0259      -813.4110
      -478.6497      -462.1392      -676.5184      -621.7610      -436.9912
      -490.1523      -638.7825      -612.9597      -395.7982      -217.2650
      -342.1533      -519.3876      -437.5539      -321.4834      -316.6542
      -317.9157      -265.3505      -224.4092      -251.9235      -226.6943
      -166.5314      -197.5762      -221.4690      -113.7040      -14.25984
      -36.56432      -49.43905      -15.06892       57.53590       27.59953
      -77.76312       32.80792       175.8342       54.31238       33.26379
       194.1083       236.1423       133.4368       134.9773       155.7838
       160.3210       308.2219       408.0505       384.1463       347.9989
       227.6426       139.5386       285.9280       528.8666       510.9834
       418.9888       495.2058       518.6571       448.4526       502.7626
       554.6238       471.9280       517.3540       718.8120       692.2273
       525.9501       559.6302       651.4852       610.8022       680.4185
       828.3064       694.5688       562.3477       643.3516       698.9180
       746.8196       708.2311       634.0759       701.6763       709.1865
       706.0706       770.4309       716.5098       687.4661       740.0151
       778.8135       720.4438       697.0071       766.9639       737.7815
       718.2412       750.1357       745.7361       806.4067       735.8528
       588.0923       743.6953       842.8311       578.6162       517.8508
       718.9827       788.6135       744.1798       612.5319       626.8096
       750.1899       710.6840       631.6377       598.6006       642.4006
       657.2853       495.0114       553.8744       729.1382       542.5061
