     0.02500000      -4041.087       3309.547      -12345.00      -12345.00
      -29.99003       215.4099      -17.24000      -12345.00      -12345.00
       0.000000       12.67000      -12345.00      -12345.00      -12345.00
      -12345.00      -12345.00      -12345.00      -12345.00      -12345.00
      -12345.00      -12345.00      -12345.00      -12345.00      -12345.00
      -12345.00      -12345.00      -12345.00      -12345.00      -12345.00
      -12345.00      -30.57010      -68.62600       946.0000       0.000000
      -31.06700      -68.46300       0.000000       100400.0       0.000000
      -12345.00      -12345.00      -12345.00      -12345.00      -12345.00
      -12345.00      -12345.00      -12345.00      -12345.00      -12345.00
       57.25483       344.1505       164.2337      0.5147752      -12345.00
      -12345.00     -0.1209232       0.000000       0.000000      -12345.00
      -12345.00      -12345.00      -12345.00      -12345.00      -12345.00
      -12345.00      -12345.00      -12345.00      -12345.00      -12345.00
      2008       164        19         3        55
        40         6    -12345    -12345      9817
    -12345    -12345    -12345    -12345    -12345
         1         7        13    -12345    -12345
    -12345    -12345    -12345    -12345    -12345
    -12345    -12345    -12345    -12345    -12345
    -12345    -12345    -12345    -12345    -12345
         1         1         1         1         1
TUCU    -12345          
        -12345  -12345  
-12345  -12345  -12345  
-12345  -12345  -12345  
-12345  -12345  -12345  
-12345  -12345  -12345  
-12345  -12345  BHZ     
ZL      -12345  -12345  
[...]
       1451.263       1465.321       1478.629       1492.913       1503.950
       1516.293       1525.229       1540.921       1551.940       1558.966
       1562.861       1572.092       1578.022       1583.379       1586.251
       1595.453       1600.641       1600.463       1598.530       1606.306
       1601.558       1603.394       1603.370       1604.398       1601.442
       1607.521       1604.709       1603.576       1594.918       1594.612
       1588.590       1586.383       1580.360       1580.282       1566.331
       1560.656       1553.745       1545.749       1528.951       1522.565
       1508.521       1495.816       1476.705       1471.950       1454.743
       1442.710       1429.832       1416.333       1397.772       1388.014
       1368.695       1354.368       1334.241       1321.320       1299.979
       1282.979       1258.967       1242.866       1223.485       1203.806
       1179.848       1163.473       1136.767       1117.343       1096.052
       1074.927       1051.175       1034.084       1004.742       984.4824
       962.0635       942.4451       912.7705       893.7529       867.6755
       844.8157       817.2947       798.7661       773.6394       755.1387
       723.0264       700.4839       675.6532       658.3440       628.7039
       608.3672       582.2333       562.1570       529.9167       511.4985
       480.5570       455.9314       427.6897       408.5205       382.9866
       363.9537       335.8699       319.0653       287.1326       259.8653
       229.4465       207.4149       171.1497       145.6105       114.9473
       91.21771       64.36534       42.29845       7.259644      -16.26570
      -47.50690      -79.10327      -113.6110      -139.4398      -176.8799
      -203.1682      -239.4109      -267.2920      -305.0399      -336.5826
      -376.7698      -401.9800      -440.5416      -473.5878      -509.3208
      -535.4098      -582.7585      -614.9058      -653.1543      -685.3706
      -731.9021      -758.0054      -798.4290      -836.4561      -876.3450
      -903.9546      -949.4646      -981.4502      -1026.787      -1064.760
      -1104.829      -1130.205      -1171.859      -1201.757      -1237.811
      -1266.031      -1304.708      -1336.989      -1375.862      -1396.946
      -1432.820      -1461.706      -1489.726      -1509.572      -1543.546
      -1562.444      -1586.346      -1606.475      -1632.583      -1649.370
      -1675.249      -1691.717      -1710.042      -1720.853      -1743.323
      -1754.826      -1768.932      -1782.175      -1801.858      -1801.762
      -1822.844      -1835.734      -1846.068      -1854.298      -1873.237
      -1871.413      -1883.183      -1885.365      -1890.971      -1890.310
      -1902.023      -1897.918      -1906.352      -1902.371      -1903.394
      -1898.647      -1903.385      -1897.262      -1903.401      -1898.745
      -1898.221      -1888.766      -1885.821      -1870.850      -1863.854
      -1851.566      -1849.537      -1832.648      -1823.865      -1811.952
      -1804.787      -1788.559      -1781.244      -1765.222      -1753.477
      -1732.551      -1720.247      -1702.898      -1683.073      -1655.199
      -1635.972      -1605.320      -1584.083      -1550.424      -1527.236
      -1496.795      -1464.175      -1425.955      -1396.687      -1355.269
      -1322.611      -1282.541      -1245.726      -1197.766      -1157.604
      -1110.792      -1064.511      -1012.318      -968.8955      -915.4810
      -871.3403      -818.9121      -772.6387      -721.7383      -672.3967
      -616.4561      -570.3676      -507.0115      -456.2312      -398.4423
      -338.2708      -279.1192      -230.7037      -168.2241      -118.6332
      -63.03640      -11.30650       43.00690       94.47260       154.4729
       206.7228       258.4932       307.9492       367.6614       416.7528
       471.4871       522.7188       574.4761       615.9846       665.9912
       711.3711       756.3198       797.0879       844.6875       881.0732
       925.7966       965.1299       999.9392       1035.441       1077.336
       1105.419       1140.856       1175.917       1203.774       1227.335
       1257.552       1274.953       1299.022       1317.058       1338.665
       1354.226       1372.729       1382.518       1398.136       1408.028
       1420.973       1426.306       1438.151       1438.295       1446.029
       1447.107       1452.384       1454.955       1463.851       1461.155
       1466.769       1466.659       1466.356       1461.498       1462.351
       1454.890       1451.599       1442.731       1435.501       1427.261
       1422.750       1414.330       1411.026       1402.817       1398.238
       1393.739       1385.685       1373.198       1368.467       1359.328
       1350.007       1337.689       1327.494       1320.886       1313.769
       1297.525       1289.300       1286.343       1280.502       1269.243
       1261.714       1253.319       1247.281       1236.592       1223.923
       1210.182       1200.815       1183.879       1171.464       1159.594
       1142.719       1125.633       1113.807       1092.676       1077.240
       1062.785       1046.573       1029.743       1012.003       994.9614
       975.8008       950.4021       928.3748       902.2471       877.2371
       858.1318       834.0669       811.7729       787.4548       757.6812
       733.9541       708.4297       683.5751       652.8976       623.4407
       595.7726       563.7988       530.2166       503.2104       469.1747
       435.0939       403.6716       379.4512       347.2288       317.2919
       294.2814       262.7060       224.8613       203.6736       169.4753
       129.2891       99.92371       73.93801       41.02590       10.29185
      -18.67294      -49.90262      -79.52997      -106.3107      -133.8105
      -159.2227      -186.6221      -212.1898      -237.7955      -267.6067
      -297.6930      -321.7960      -349.8268      -374.1578      -390.2462
      -411.2992      -438.0090      -448.7622      -463.7849      -482.5687
      -497.6782      -508.2812      -521.9502      -532.8853      -538.2686
      -544.8359      -547.2344      -551.4675      -558.3303      -564.4717
      -564.4768      -561.6843      -563.8092      -566.8354      -562.4590
      -562.2778      -559.9705      -553.0638      -547.0649      -543.2612
      -535.6783      -528.2644      -520.6042      -507.0935      -496.3728
      -486.8403      -476.9211      -465.9659      -454.5234      -444.2303
      -439.4183      -430.4596      -424.1292      -422.3149      -413.3127
      -399.6477      -389.6848      -380.9912      -371.3113      -360.4929
      -353.8997      -346.5830      -341.8097      -338.6578      -335.0159
      -333.8478      -329.3878      -325.1655      -323.4043      -318.6731
      -316.2431      -316.6997      -313.6621      -313.2120      -313.8262
      -314.0347      -312.3233      -314.0121      -317.6171      -316.4479
      -316.6903      -321.7828      -322.4404      -323.7787      -331.4611
      -335.6773      -336.0150      -338.5635      -340.8401      -341.9474
      -348.1219      -353.5487      -358.8976      -361.7715      -367.5593
      -373.2936      -378.0892      -383.5630      -388.6179      -389.3274
      -393.0559      -389.1201      -392.8789      -398.1476      -400.0725
      -403.2950      -410.6588      -412.0330      -422.6353      -425.9231
      -430.1124      -430.7920      -438.3226      -440.8916      -450.8230
      -452.1229      -459.0605      -457.2981      -466.3086      -468.9674
      -477.2001      -473.8438      -484.4661      -485.4487      -487.7473
      -492.5220      -509.8833      -508.0183      -512.3154      -510.8435
      -516.0293      -516.3741      -520.2992      -519.0896      -522.7207
      -515.3271      -518.7351      -516.2119      -513.0565      -504.9163
      -502.1409      -493.1082      -488.3329      -482.7943      -480.4658
      -472.8904      -468.9889      -462.7480      -454.0116      -443.7092
      -436.5211      -423.2732      -416.1324      -398.3591      -380.1766
      -363.0642      -351.8621      -330.9694      -314.0033      -299.1930
      -288.0482      -261.6368      -244.8698      -226.6160      -212.2961
      -189.7351      -172.9614      -152.0620      -135.1891      -110.9377
      -98.32751      -79.69307      -66.26042      -43.82804      -30.30632
      -5.734177       5.422195       19.69699       36.84387       56.76170
       59.11722       75.32733       80.48074       86.55496       87.85263
       101.5155       101.7567       111.3353       112.3818       121.2937
       118.1824       124.8549       127.1628       132.5178       118.8744
       122.4763       121.1060       117.1471       102.4005       108.4799
       98.11002       93.37888       84.62503       82.49635       61.28365
       55.80327       36.43202       26.45649       6.003071      -5.574654
      -21.67496      -24.89407      -48.19022      -58.48407      -76.02075
      -86.81384      -109.6204      -117.2791      -139.0726      -151.3085
      -167.8415      -177.6198      -205.6005      -214.2679      -233.2396
      -244.9561      -266.7463      -273.6459      -288.7256      -288.4400
      -302.0639      -304.3980      -320.0134      -325.0121      -335.4597
      -346.1702      -365.3022      -361.1525      -374.3579      -382.4241
      -392.4749      -382.6710      -384.5448      -384.0269      -383.6512
      -379.3130      -397.4598      -394.7562      -396.9526      -389.1064
      -386.6937      -369.1709      -354.4380      -331.0974      -333.0355
      -331.7087      -331.4351      -323.2690      -330.5402      -307.9829
      -298.2404      -289.8121      -274.2557      -241.5945      -240.1634
      -227.9833      -211.0652      -182.6532      -174.2102      -158.3204
      -148.4841      -126.8302      -116.4673      -90.90683      -74.31535
      -43.64837      -28.80117      -7.307152       17.35866       52.78540
       69.18988       91.32376       103.2581       129.6793       152.3105
       178.8163       209.4407       251.3260       259.7722       293.5388
       333.5468       356.4390       377.3282       425.9136       447.2988
       479.4263       516.4124       552.4777       574.1809       607.5798
       641.0696       691.5637       717.9414       746.8718       779.8323
       825.3101       855.0027       897.2505       920.5728       956.0308
       989.9663       1029.123       1046.648       1085.009       1109.863
       1140.010       1169.067       1203.639       1218.479       1252.621
       1276.332       1301.384       1317.703       1344.807       1356.216
       1382.146       1394.611       1411.683       1425.267       1446.688
       1448.836       1473.696       1486.527       1489.881       1485.445
       1503.657       1510.941       1520.395       1508.892       1515.729
       1520.428       1521.989       1513.954       1520.314       1506.454
       1512.416       1502.662       1499.895       1490.562       1479.871
       1463.934       1462.628       1434.720       1424.341       1409.763
       1401.669       1386.030       1377.308       1362.033       1358.641
       1334.792       1316.275       1297.504       1285.889       1257.531
       1246.293       1210.162       1183.700       1162.101       1149.600
       1116.929       1095.552       1068.712       1045.647       1010.346
       993.8242       967.9526       937.2488       891.0396       869.3086
       831.3379       795.1230       753.8457       719.2859       671.5693
       633.0151       592.2664       561.6895       509.4299       469.7122
       431.4938       396.4984       345.9908       310.1259       262.7000
       223.6973       170.4391       128.4162       77.70128       31.09054
      -18.86246      -54.28082      -98.62866      -131.4258      -182.2574
      -219.1295      -262.3799      -302.3422      -357.8660      -394.7648
      -438.0979      -472.2419      -517.4446      -551.7037      -597.2456
      -629.0018      -667.1973      -696.3706      -740.3059      -765.1177
      -807.5352      -845.4338      -882.8438      -910.8774      -948.1677
      -973.2969      -1015.396      -1047.306      -1091.381      -1120.338
      -1156.702      -1188.927      -1227.702      -1258.621      -1305.758
      -1331.276      -1376.597      -1418.965      -1459.853      -1489.617
      -1537.018      -1566.605      -1613.423      -1653.006      -1700.164
      -1728.397      -1766.536      -1798.564      -1843.546      -1876.221
      -1927.065      -1961.402      -2004.515      -2031.045      -2069.240
      -2101.912      -2136.479      -2158.556      -2223.416      -2325.511
      -2650.560      -3564.498      -4041.087      -3299.382      -1307.624
       521.0713      -1305.262      -2879.801      -1990.898      -2443.950
      -2623.759      -1570.858      -1687.327      -2537.353      -2804.542
      -2979.329      -2708.018      -2529.693      -2255.352      -1226.776
      -1720.729      -2890.600      -2764.638      -2172.616      -1935.411
      -2003.830      -2233.115      -1993.652      -1891.411      -2264.946
      -1966.468      -1435.344      -1758.121      -1969.098      -1631.172
      -1973.222      -2121.603      -1490.909      -1488.266      -1468.070
      -1310.370      -1474.202      -1247.713      -991.1458      -931.7437
      -860.5806      -1410.164      -1570.579      -662.9526      -519.6328
      -1161.453      -1242.981      -832.4174      -264.5854      -492.4819
      -873.0509      -454.5793      -647.1729      -740.2391      -47.82269
      -157.1630      -385.1426      -341.0172      -356.9094      -238.7353
      -270.6441      -9.163345       109.1826      -136.3114      -30.76318
       269.1224       378.9603       114.4822       204.7981       366.4688
       148.6962       188.3977       502.5273       574.6245       566.9561
       604.2349       662.6230       849.9209       674.9890       423.9917
       864.9526       1129.966       883.8149       851.7969       1016.917
       1095.590       1127.131       1240.264       1312.040       1188.393
       1212.215       1264.218       1252.382       1406.275       1467.840
       1432.769       1609.100       1670.323       1576.906       1614.723
       1715.659       1671.854       1728.321       1858.075       1842.369
       1898.417       1931.285       1835.452       1847.916       1819.674
       1859.555       2080.118       2150.870       1886.844       1908.229
       2196.587       2256.230       2121.579       2011.410       2043.352
       1997.068       2002.035       2253.034       2257.822       1976.876
       1884.394       2191.775       2385.685       2126.050       2032.795
       2193.586       2109.795       2115.860       2202.014       2099.871
       2094.334       2097.914       2043.389       2199.185       2029.650
       2029.153       2242.921       1886.888       1839.477       2053.632
       1933.498       1943.667       1840.666       1886.470       2063.184
       1881.289       1742.764       1916.232       1915.094       1609.529
       1591.617       1708.221       1596.979       1581.640       1646.446
       1485.825       1261.229       1414.492       1387.061       1184.994
       1327.369       1324.411       1253.182       1286.849       1093.430
       960.0745       960.2244       967.0190       965.1064       817.3123
       628.6658       671.5488       770.4496       709.2654       512.5164
       313.3003       355.2124       593.4946       503.3857       273.1268
       192.0535       105.2222       187.3035       326.2850       240.8024
       62.86612      -140.4468      -121.6858      -69.07861      -259.5160
      -213.4957       15.27588      -185.5183      -479.9971      -301.4729
      -226.6514      -482.4680      -549.7654      -349.6567      -263.0105
      -544.0845      -666.1584      -605.1449      -490.4166      -346.4490
      -493.5432      -678.7078      -673.2747      -642.5903      -643.5559
      -787.0874      -753.1423      -618.8726      -742.0435      -747.8613
      -705.5896      -893.1504      -813.6299      -696.3440      -958.6377
      -979.8931      -802.7148      -904.3699      -918.5742      -829.6611
      -912.9541      -1052.889      -1020.413      -986.3003      -1072.653
      -1112.112      -1067.733      -1166.628      -1256.139      -1202.999
      -1245.769      -1374.241      -1195.734      -1004.219      -1444.116
      -1623.116      -1258.102      -1318.441      -1483.508      -1513.790
      -1456.942      -1258.298      -1314.281      -1626.260      -1609.508
      -1345.286      -1487.354      -1808.278      -1832.092      -1513.068
      -1487.353      -1753.765      -1667.578      -1681.228      -1792.138
      -1584.904      -1428.369      -1742.784      -1866.042      -1613.442
      -1545.488      -1560.324      -1636.230      -1710.377      -1591.220
      -1473.757      -1642.383      -1700.337      -1466.473      -1475.303
      -1602.111      -1511.432      -1404.065      -1456.539      -1414.742
      -1312.115      -1335.589      -1372.415      -1328.456      -1189.029
      -1123.148      -1176.002      -1249.072      -1192.752      -1003.477
      -1009.303      -1220.979      -1123.187      -841.8708      -925.3608
      -987.7212      -882.0881      -927.7026      -899.3364      -754.1072
      -726.4381      -632.9043      -580.4597      -769.2073      -701.9783
      -428.1139      -506.9509      -658.6064      -470.1411      -357.6135
      -460.2849      -394.7965      -342.0247      -436.1921      -378.5869
      -245.3265      -239.7684      -233.6658      -213.4152      -109.2599
       42.20132      -91.70802      -92.27979       104.5216      -109.2691
      -143.7797       175.9292       179.2717       135.4949       126.6237
      -38.54126       18.99585       209.8145       317.6391       358.6185
       235.1428       274.6993       379.9036       304.0944       324.8018
       433.3053       479.2888       440.8010       397.0625       373.6528
       471.6692       583.3496       431.2617       299.5747       538.0098
       643.2845       425.9597       484.0679       628.1454       524.2648
