     0.02500000      -2808.448       3032.862      -12345.00      -12345.00
      -29.99003       215.4099      -17.24000      -12345.00      -12345.00
       0.000000       12.67000      -12345.00      -12345.00      -12345.00
      -12345.00      -12345.00      -12345.00      -12345.00      -12345.00
      -12345.00      -12345.00      -12345.00      -12345.00      -12345.00
      -12345.00      -12345.00      -12345.00      -12345.00      -12345.00
      -12345.00      -30.57010      -68.62600       946.0000       0.000000
      -31.06700      -68.46300       0.000000       100400.0       0.000000
      -12345.00      -12345.00      -12345.00      -12345.00      -12345.00
      -12345.00      -12345.00      -12345.00      -12345.00      -12345.00
       57.25483       344.1505       164.2337      0.5147752      -12345.00
      -12345.00      0.4033388       180.0000       90.00000      -12345.00
      -12345.00      -12345.00      -12345.00      -12345.00      -12345.00
      -12345.00      -12345.00      -12345.00      -12345.00      -12345.00
      2008       164        19         3        55
        40         6    -12345    -12345      9817
    -12345    -12345    -12345    -12345    -12345
         1         7        13    -12345    -12345
    -12345    -12345    -12345    -12345    -12345
    -12345    -12345    -12345    -12345    -12345
    -12345    -12345    -12345    -12345    -12345
         1         1         1         1         1
TUCU    -12345          
        -12345  -12345  
-12345  -12345  -12345  
-12345  -12345  -12345  
-12345  -12345  -12345  
-12345  -12345  -12345  
-12345  -12345  BHN     
ZL      -12345  -12345  
[...]
      -66.15652      -40.40863      -1.131104       23.37595       56.17236
       80.56647       120.2458       146.2773       184.3145       208.9686
       244.2814       269.0979       302.8376       321.0830       355.5210
       375.3226       411.0361       432.9434       462.9408       475.4904
       506.7395       529.3322       557.1377       575.2703       612.1404
       632.0571       662.9226       683.2673       716.9001       727.6528
       759.8582       779.2505       800.6758       812.8193       844.3115
       857.0620       883.6282       900.0342       933.6995       947.2483
       972.6060       991.1096       1021.762       1038.168       1067.485
       1082.700       1117.191       1130.382       1158.276       1171.322
       1198.234       1215.241       1247.394       1258.989       1287.489
       1301.635       1334.346       1346.572       1374.212       1385.946
       1413.373       1422.673       1445.580       1458.495       1480.829
       1493.136       1523.871       1531.059       1560.602       1575.312
       1601.398       1605.823       1626.009       1635.254       1651.183
       1653.704       1668.574       1664.521       1686.003       1692.909
       1699.017       1699.078       1712.750       1709.325       1713.644
       1703.917       1708.477       1688.184       1685.618       1675.512
       1669.574       1646.231       1644.505       1625.922       1614.685
       1586.767       1569.561       1543.499       1526.230       1493.561
       1480.500       1451.073       1424.724       1394.733       1371.903
       1337.255       1308.604       1267.696       1251.834       1211.075
       1175.868       1140.007       1107.339       1060.791       1029.964
       993.8306       961.9375       917.2991       888.2866       847.1606
       809.8696       762.8645       728.4214       688.7386       657.4037
       604.2771       580.1646       539.4924       498.0234       461.6815
       438.6699       401.1486       375.4963       344.4937       322.6621
       282.1863       257.7108       225.8257       202.6774       165.6926
       144.0388       112.1917       88.37823       62.55205       50.99541
       25.52283       12.87500      -8.690353      -15.51762      -37.42793
      -45.69569      -66.63141      -81.31427      -100.0159      -106.8554
      -131.0256      -136.9095      -152.5417      -161.2922      -179.9572
      -180.5654      -197.5867      -205.4457      -220.2800      -225.8271
      -244.7429      -255.7087      -277.1113      -285.2463      -299.9446
      -307.6265      -328.0679      -333.3199      -351.6301      -363.8071
      -378.8938      -392.4233      -415.4382      -426.1643      -447.1173
      -456.4480      -474.1855      -486.4824      -507.5996      -524.7340
      -549.7046      -561.9165      -584.0356      -601.8575      -627.6351
      -648.0796      -670.6550      -689.2651      -721.7505      -739.4009
      -764.4810      -786.7139      -814.9785      -831.6670      -856.9597
      -874.0273      -897.2866      -912.5464      -938.3242      -957.2166
      -984.9297      -1000.737      -1021.648      -1038.613      -1059.742
      -1076.276      -1098.332      -1106.827      -1122.860      -1136.670
      -1148.686      -1155.364      -1173.971      -1182.453      -1198.061
      -1206.065      -1218.399      -1226.951      -1239.021      -1238.969
      -1244.569      -1247.840      -1253.810      -1255.827      -1262.384
      -1267.927      -1276.741      -1273.139      -1276.875      -1278.618
      -1280.500      -1279.977      -1287.620      -1284.609      -1289.580
      -1294.548      -1295.263      -1290.127      -1294.080      -1289.315
      -1291.706      -1289.138      -1288.112      -1282.403      -1282.595
      -1277.030      -1273.011      -1266.074      -1265.483      -1255.853
      -1249.392      -1242.045      -1233.999      -1220.716      -1215.372
      -1205.048      -1190.895      -1176.951      -1169.594      -1156.086
      -1139.587      -1124.509      -1109.977      -1089.283      -1073.393
      -1056.703      -1036.468      -1020.648      -999.2817      -972.6558
      -956.5955      -940.2871      -915.3760      -895.5017      -883.8669
      -859.6880      -833.2998      -815.9172      -793.8623      -763.5154
      -741.5420      -721.4482      -696.5957      -668.6870      -643.5859
      -617.1411      -587.5396      -555.1091      -529.7556      -504.3082
      -469.8436      -438.2161      -416.3589      -383.5814      -343.6263
      -314.8176      -283.4814      -239.6273      -203.8940      -164.6458
      -113.7469      -69.23486      -35.33664       11.25230       53.65302
       90.12421       137.8926       186.1318       226.9088       271.9034
       315.6210       361.6233       407.5505       454.8547       487.3240
       524.6194       571.1228       613.9468       642.9490       682.9299
       723.4023       753.5173       784.8604       821.5847       847.2632
       873.1360       903.9700       936.0493       954.4922       974.8977
       998.9836       1023.602       1037.461       1051.651       1070.986
       1088.396       1097.184       1112.942       1127.046       1139.430
       1151.613       1167.961       1180.713       1198.262       1203.628
       1208.270       1217.025       1226.594       1230.405       1241.359
       1253.864       1265.368       1267.002       1279.004       1283.182
       1286.388       1295.788       1316.086       1320.446       1327.621
       1341.773       1359.433       1360.054       1365.859       1382.284
       1394.146       1395.444       1414.726       1432.387       1435.404
       1444.546       1466.178       1471.125       1473.515       1484.680
       1497.710       1503.641       1509.530       1520.085       1529.325
       1530.610       1539.275       1548.473       1553.732       1552.336
       1557.751       1559.979       1558.376       1559.103       1562.683
       1558.207       1555.950       1553.861       1553.550       1543.536
       1531.672       1523.559       1517.506       1498.183       1484.756
       1472.866       1452.009       1427.818       1408.846       1378.800
       1348.212       1322.890       1296.824       1262.618       1226.627
       1189.243       1154.653       1117.376       1077.499       1034.148
       992.3159       942.3149       891.9207       845.6799       802.9067
       748.6940       699.4207       649.6898       597.4729       536.3713
       486.7202       432.9491       372.3264       317.2104       270.5825
       206.2732       155.4357       103.1052       50.28323      -3.473297
      -53.65851      -113.8203      -163.2543      -215.6291      -272.2617
      -331.2225      -378.2256      -437.2537      -493.8735      -548.6318
      -597.4365      -657.2588      -707.2373      -754.8975      -809.1912
      -867.1128      -910.4099      -964.2227      -1013.709      -1067.285
      -1113.256      -1163.000      -1210.596      -1261.728      -1305.824
      -1353.006      -1398.737      -1449.804      -1484.579      -1527.273
      -1570.609      -1615.396      -1649.425      -1691.496      -1729.927
      -1766.814      -1797.194      -1841.709      -1870.755      -1906.155
      -1940.668      -1983.526      -2007.754      -2035.963      -2062.100
      -2093.146      -2111.140      -2136.436      -2154.088      -2176.124
      -2190.440      -2210.700      -2219.715      -2238.513      -2245.243
      -2252.985      -2258.864      -2263.755      -2252.893      -2253.339
      -2245.852      -2240.133      -2229.446      -2223.384      -2204.336
      -2190.211      -2167.015      -2149.218      -2122.429      -2098.764
      -2069.394      -2043.000      -2005.755      -1977.542      -1937.584
      -1903.679      -1867.659      -1833.502      -1785.652      -1751.624
      -1707.891      -1664.641      -1614.047      -1572.428      -1524.751
      -1482.722      -1426.359      -1381.014      -1326.959      -1277.222
      -1223.787      -1176.618      -1121.470      -1073.604      -1015.254
      -962.6870      -902.7354      -854.5322      -797.7263      -742.9205
      -683.9299      -637.4736      -577.3491      -530.6194      -474.4677
      -426.6055      -374.5668      -332.0444      -278.0512      -238.0687
      -188.8620      -143.5934      -86.93239      -45.03401       6.294250
       51.01791       101.6752       142.8878       193.6031       230.6363
       278.0213       316.9841       363.2644       405.9521       448.6221
       476.9097       526.9072       564.7072       602.6106       638.6401
       679.9800       716.3867       759.8872       791.1809       837.6465
       868.3015       902.6831       936.1807       972.8042       997.1270
       1031.881       1059.003       1098.777       1127.133       1161.916
       1190.646       1220.957       1255.740       1293.284       1314.866
       1350.347       1374.083       1402.249       1426.991       1456.772
       1483.922       1512.221       1538.530       1576.801       1599.000
       1634.725       1658.194       1680.272       1706.952       1725.697
       1744.048       1772.901       1789.222       1816.131       1839.392
       1861.350       1881.439       1899.162       1912.843       1933.242
       1940.038       1956.358       1965.476       1969.234       1971.556
       1986.489       1993.334       1999.271       2001.561       2014.575
       2012.740       2015.909       2013.293       2014.642       2006.178
       2001.494       1994.309       1991.545       1978.082       1973.462
       1962.694       1954.259       1933.966       1922.261       1905.906
       1892.050       1871.346       1852.848       1831.816       1813.146
       1786.590       1768.304       1738.715       1712.424       1681.515
       1658.859       1621.977       1586.743       1552.939       1525.744
       1481.881       1448.445       1407.707       1368.286       1322.510
       1286.182       1235.815       1189.408       1129.061       1076.679
       1026.101       972.0552       905.7036       857.2598       792.2480
       727.8870       666.9763       609.3462       532.6747       459.5570
       393.4508       331.2212       246.2974       167.6032       96.63763
       21.87158      -66.40045      -133.6508      -204.8264      -285.1956
      -366.5945      -434.9399      -514.1060      -588.2637      -666.0042
      -741.2307      -825.1238      -897.7681      -974.4102      -1045.535
      -1126.600      -1205.073      -1284.411      -1347.676      -1424.464
      -1497.636      -1569.974      -1634.131      -1710.292      -1770.967
      -1840.639      -1909.726      -1979.580      -2026.192      -2087.190
      -2144.582      -2198.506      -2240.505      -2293.202      -2341.994
      -2391.772      -2427.986      -2470.563      -2507.747      -2548.842
      -2577.303      -2614.296      -2639.714      -2663.131      -2685.590
      -2715.589      -2733.044      -2752.090      -2765.107      -2784.899
      -2792.839      -2797.267      -2798.440      -2808.448      -2803.290
      -2800.604      -2795.594      -2789.617      -2776.304      -2771.572
      -2757.363      -2744.461      -2725.821      -2708.022      -2681.549
      -2656.594      -2627.500      -2599.188      -2560.447      -2521.515
      -2480.215      -2443.121      -2399.273      -2353.122      -2309.590
      -2266.021      -2210.435      -2159.353      -2101.295      -2042.089
      -1979.690      -1914.167      -1848.435      -1785.549      -1714.681
      -1649.644      -1581.575      -1511.960      -1442.699      -1367.542
      -1292.635      -1221.354      -1140.868      -1060.154      -973.4570
      -886.7175      -798.6833      -711.4830      -626.4495      -541.1135
      -451.4991      -363.9719      -281.6325      -197.4180      -107.3373
      -20.29333       64.36414       150.4066       234.0156       318.5396
       402.9821       485.6045       562.3167       646.0476       724.3123
       798.9641       876.0859       954.0308       1025.970       1107.279
       1180.153       1251.654       1322.487       1397.337       1468.556
       1540.590       1604.040       1673.617       1738.215       1801.704
       1861.798       1923.160       1975.547       2035.064       2090.256
       2150.612       2203.178       2254.100       2307.743       2362.779
       2412.633       2462.288       2508.331       2555.900       2599.530
       2639.756       2677.110       2716.657       2750.963       2787.486
       2821.852       2856.497       2888.111       2914.581       2933.451
       2959.883       2979.694       2995.087       3005.766       3019.340
       3026.330       3032.862       3032.286       3031.942       3030.335
       3025.089       3006.945       2997.743       2981.235       2961.889
       2936.456       2919.607       2892.117       2865.841       2832.164
       2800.432       2761.917       2724.913       2673.617       2632.773
       2582.297       2531.526       2476.659       2429.925       2372.811
       2318.497       2258.171       2200.592       2138.448       2078.476
       2012.653       1956.542       1891.156       1824.092       1751.984
       1688.433       1617.723       1555.779       1484.458       1415.652
       1347.672       1281.973       1209.828       1144.998       1075.115
       1010.603       940.0562       872.7300       803.3447       742.4543
       675.2800       611.9689       543.3516       482.0048       412.0599
       349.8036       282.8080       223.1257       159.5504       106.0594
       44.84657      -6.359619      -65.49188      -121.1666      -184.4674
      -241.4462      -307.8112      -359.3350      -419.2299      -471.8833
      -532.7607      -586.6226      -641.9163      -686.1150      -745.0823
      -796.5505      -851.9253      -900.7285      -964.2920      -1010.085
      -1066.105      -1118.947      -1175.013      -1221.196      -1279.504
      -1327.858      -1382.014      -1428.420      -1485.580      -1534.475
      -1593.589      -1640.523      -1693.580      -1739.162      -1794.359
      -1839.769      -1889.152      -1931.507      -1983.484      -2024.429
      -2069.327      -2104.412      -2150.470      -2188.097      -2232.569
      -2267.354      -2312.113      -2341.235      -2379.803      -2405.436
      -2440.277      -2464.836      -2492.465      -2508.901      -2538.213
      -2550.963      -2568.842      -2580.929      -2607.398      -2614.720
      -2623.894      -2628.162      -2644.951      -2643.048      -2644.607
      -2641.372      -2642.393      -2627.183      -2623.608      -2615.743
      -2611.559      -2593.574      -2585.507      -2566.613      -2558.734
      -2533.017      -2516.417      -2485.021      -2467.764      -2437.356
      -2415.872      -2380.137      -2355.173      -2318.234      -2288.970
      -2246.252      -2217.471      -2168.314      -2129.552      -2085.666
      -2047.000      -1994.226      -1960.635      -1909.760      -1867.385
      -1814.452      -1776.257      -1719.116      -1672.378      -1618.124
      -1572.502      -1514.042      -1466.245      -1401.238      -1350.260
      -1287.220      -1240.051      -1181.121      -1127.465      -1066.594
      -1020.917      -959.3628      -912.5679      -852.3545      -799.1689
      -737.0909      -686.2301      -623.4032      -574.7665      -511.5581
      -455.6881      -394.6568      -348.6070      -289.0410      -239.7822
      -182.1809      -136.7184      -81.49956      -31.06209       25.99960
       75.02768       135.1953       183.7254       239.0487       283.1133
       337.2268       387.9424       440.8545       486.3970       543.6511
       587.6284       639.8862       683.9697       730.1973       771.1460
       827.1772       865.9409       909.4646       952.2476       999.7480
       1037.649       1087.679       1121.712       1167.065       1205.664
       1242.708       1271.680       1316.327       1337.644       1365.600
       1398.971       1433.893       1444.999       1482.693       1510.161
       1533.741       1556.224       1591.173       1610.261       1630.790
       1647.235       1672.633       1683.920       1701.704       1717.455
       1740.752       1748.175       1758.372       1764.039       1778.684
       1783.361       1796.922       1803.697       1817.287       1824.259
       1836.930       1848.166       1862.954       1861.105       1862.624
       1861.370       1867.506       1859.221       1854.451       1840.374
       1831.203       1821.095       1821.378       1807.992       1796.681
       1784.708       1777.207       1759.301       1748.975       1730.987
       1721.438       1702.745       1688.217       1663.903       1644.399
       1618.021       1601.157       1577.384       1562.764       1533.882
       1512.953       1487.942       1466.253       1434.684       1412.723
       1384.184       1361.288       1325.140       1304.677       1276.814
       1247.484       1213.612       1195.606       1161.974       1130.007
       1100.441       1081.039       1043.855       1019.735       986.9392
       966.0347       934.9106       896.1025       859.0918       832.3066
       790.5952       755.4631       721.2219       687.1384       637.6089
       592.4690       552.7510       517.9076       469.1558       427.9529
       390.6406       355.2571       308.3948       268.2429       229.5005
       192.1978       150.0652       111.0149       63.71644       19.57507
      -23.07982      -63.07932      -104.0822      -141.7426      -179.8340
      -213.0178      -243.1329      -273.8954      -310.9442      -338.7722
      -365.8439      -397.9739      -431.5829      -458.0027      -488.0459
      -513.0979      -536.5836      -566.5120      -592.7466      -619.0873
      -643.0123      -660.7158      -683.4856      -707.2056      -727.8040
      -749.6902      -771.1479      -791.7886      -811.7300      -830.3574
      -852.8662      -874.2236      -891.9648      -910.7153      -929.0649
      -945.8813      -962.1431      -977.6846      -992.8901      -1007.947
      -1020.309      -1032.545      -1043.145      -1054.186      -1061.126
