     0.02500000      -996.0327       1140.793      -12345.00      -12345.00
      -29.99001       222.9100      -24.89000      -12345.00      -12345.00
       0.000000       18.45000      -12345.00      -12345.00      -12345.00
      -12345.00      -12345.00      -12345.00      -12345.00      -12345.00
      -12345.00      -12345.00      -12345.00      -12345.00      -12345.00
      -12345.00      -12345.00      -12345.00      -12345.00      -12345.00
      -12345.00      -30.16580      -69.47490       2894.000       0.000000
      -31.06700      -68.46300       0.000000       100400.0       0.000000
      -12345.00      -12345.00      -12345.00      -12345.00      -12345.00
      -12345.00      -12345.00      -12345.00      -12345.00      -12345.00
       139.2680       315.5814       136.0942       1.252141      -12345.00
      -12345.00     0.08353155       90.00000       90.00000      -12345.00
      -12345.00      -12345.00      -12345.00      -12345.00      -12345.00
      -12345.00      -12345.00      -12345.00      -12345.00      -12345.00
      2008       164        19         4         2
       690         6    -12345    -12345     10117
    -12345    -12345    -12345    -12345    -12345
         1         7        13    -12345    -12345
    -12345    -12345    -12345    -12345    -12345
    -12345    -12345    -12345    -12345    -12345
    -12345    -12345    -12345    -12345    -12345
         1         1         1         1         1
VELA    -12345          
        -12345  -12345  
-12345  -12345  -12345  
-12345  -12345  -12345  
-12345  -12345  -12345  
-12345  -12345  -12345  
-12345  -12345  BHE     
ZL      -12345  -12345  
[...]
       362.9854       346.8599       334.5498       319.2368       314.9109
       326.7470       321.2001       288.4170       287.1971       284.0460
       255.4430       260.6110       270.2725       241.9501       218.5217
       225.3989       215.3175       188.1123       186.5872       169.3586
       139.1800       137.2704       139.9619       113.3489       104.9067
       100.8640       63.69406       67.17029       73.45900       31.16430
      0.2723217      -2.962833      -9.022018      -30.49438      -64.54204
      -60.63992      -34.72415      -71.68115      -106.5591      -99.06625
      -117.6985      -150.9288      -168.3187      -174.3296      -183.2189
      -201.7824      -179.7835      -148.5517      -179.3645      -224.3154
      -231.7841      -230.3704      -264.9932      -308.5364      -297.7778
      -274.9825      -287.1426      -298.7042      -312.0301      -331.4253
      -334.4227      -337.6327      -357.4304      -349.1526      -346.1434
      -366.4604      -367.8066      -367.6189      -380.0371      -390.4429
      -414.1832      -411.7257      -414.9828      -436.2571      -417.9424
      -391.7310      -432.3265      -473.8171      -475.1165      -448.0923
      -446.8394      -477.4907      -481.8403      -472.3752      -470.6049
      -469.0259      -502.3079      -504.3055      -469.0269      -455.9352
      -453.0491      -465.3965      -496.6680      -491.6296      -491.0111
      -484.5338      -463.0809      -461.4745      -465.7639      -450.1567
      -436.3425      -430.6199      -448.8096      -455.1810      -442.5742
      -439.4875      -448.9316      -430.8120      -429.5137      -444.3386
      -434.9657      -408.4839      -397.7389      -373.3147      -375.1052
      -392.6548      -386.3965      -364.4498      -356.0916      -350.7346
      -363.8174      -379.3907      -365.6333      -332.1548      -321.9182
      -326.0435      -328.3157      -311.6100      -287.7762      -265.5883
      -258.7119      -237.8946      -228.5505      -224.0216      -224.2078
      -207.8976      -187.7064      -164.4469      -152.6022      -154.8142
      -163.2991      -127.7517      -92.04175      -88.79651      -89.11734
      -79.97664      -77.04085      -56.02278      -42.68414      -31.11588
      -10.53691       29.75317       41.98462       50.32646       59.33270
       53.50716       48.91476       66.90532       66.74213       62.07765
       58.55582       80.85156       108.5871       113.7751       112.1935
       124.8591       130.9256       146.3102       183.8779       205.1653
       192.9731       186.3965       198.8879       222.3712       249.2977
       263.9961       273.5595       297.1978       289.4940       284.5371
       314.9530       321.5095       316.4890       317.4833       328.1937
       355.3218       365.0657       375.3184       388.5983       388.9934
       381.7490       392.8167       413.1191       413.9307       402.5076
       420.8033       422.2595       402.5220       398.5542       415.0840
       416.4846       415.7992       415.2158       423.4525       411.6038
       395.7661       402.5707       408.4673       374.5674       362.7080
       376.1416       368.5267       334.6326       329.3940       339.4128
       323.9242       299.6713       289.8221       274.8184       274.1168
       251.0400       225.9081       226.8485       231.8071       226.0110
       207.0082       178.1007       182.6556       179.5126       147.9845
       126.9351       128.4522       115.4654       116.9295       109.8380
       93.87378       85.03369       85.00198       76.87207       75.64038
       63.37619       52.13158       27.11583       4.413750       1.403618
       32.68542       31.22332      -3.898514      -27.70441      -27.95950
      -43.85037      -47.96140      -53.45248      -84.99689      -97.13351
      -75.59137      -74.50854      -100.5984      -128.8946      -130.6295
      -139.8708      -173.4110      -193.5693      -195.8505      -204.1198
      -192.6442      -170.7847      -182.9100      -199.0872      -215.8682
      -239.0172      -244.6211      -233.4205      -230.5513      -245.1655
      -244.8588      -225.5541      -225.9171      -218.3907      -210.3954
      -219.3270      -243.5757      -258.0403      -257.8425      -250.6655
      -253.5964      -245.5917      -242.2928      -236.5754      -231.8044
      -229.4706      -219.0539      -202.3871      -212.2216      -214.0936
      -226.5145      -237.6259      -214.0125      -203.8699      -228.4450
      -223.3546      -194.3257      -169.4764      -166.3014      -151.4377
      -145.4828      -164.4012      -174.7967      -165.5517      -161.6629
      -156.2757      -140.5936      -120.5756      -107.6846      -102.6650
      -87.36537      -54.47739      -44.01913      -53.19782      -40.33099
      -34.49091      -59.34984      -42.75094      -10.67136       6.441730
       20.58205       21.00890       26.38326       39.03435       31.06378
       45.26248       72.32928       91.05356       95.44214       102.7412
       121.0719       138.5649       137.3638       158.2588       182.0289
       180.7419       174.6817       190.0448       200.4428       205.2976
       214.6139       222.4282       215.2998       236.0003       257.4955
       266.3090       259.2451       267.7740       287.1622       291.8188
       300.7534       313.3632       290.1212       286.2861       291.0171
       302.6282       308.1589       301.7738       288.1397       304.7482
       325.1559       340.5994       331.0558       321.6904       320.2616
       326.4758       329.1543       336.0846       328.1251       320.2280
       310.7756       325.5979       331.0494       315.2923       315.5308
       330.6288       315.1786       330.3728       339.8303       313.4945
       295.0895       293.0726       297.1570       282.0102       271.9060
       285.0072       260.8771       247.7837       266.0040       263.9360
       238.0813       232.4883       241.8622       246.9407       240.5760
       240.6481       229.5535       216.9673       223.2589       225.6072
       207.4482       202.9342       187.0249       179.0794       159.2308
       129.9067       128.4705       148.1594       122.3858       97.61316
       98.88335       97.31985       60.27959       49.59774       35.07120
       18.10545       1.325026     -0.7440529      -7.217415      -14.51302
      -40.58423      -53.16647      -62.90370      -63.74094      -76.75415
      -101.0807      -110.3085      -125.6621      -160.0040      -161.5374
      -168.8673      -170.6576      -178.9600      -181.4810      -179.1725
      -184.4803      -202.3595      -216.3956      -234.4044      -235.4744
      -237.1656      -230.2782      -244.5315      -239.0118      -242.1327
      -243.6781      -255.1115      -264.9191      -280.0325      -283.1956
      -284.4623      -268.7944      -276.8021      -286.2240      -292.7615
      -286.4244      -295.7836      -309.3741      -322.9213      -321.6058
      -322.9564      -317.8088      -323.3894      -320.9357      -319.0586
      -303.8243      -295.4404      -299.0341      -298.1070      -290.0616
      -307.2715      -308.4818      -297.5908      -296.0870      -295.0785
      -284.9680      -294.5638      -287.0690      -276.7007      -271.1915
      -286.3517      -281.5347      -273.7102      -277.7631      -271.0463
      -254.1095      -256.8981      -268.6666      -279.9221      -281.3287
      -279.1915      -266.7471      -274.7084      -277.2263      -279.0156
      -281.3979      -272.2438      -278.5786      -280.1906      -269.2366
      -291.7095      -306.3340      -301.0522      -285.2358      -285.2364
      -288.6260      -285.9940      -284.7605      -297.6198      -307.3829
      -307.2097      -290.7849      -286.9286      -284.5950      -280.2495
      -288.9762      -296.5601      -284.8861      -270.9608      -254.7084
      -273.3799      -276.8594      -257.4915      -248.5505      -247.9524
      -253.6747      -242.9524      -203.1788      -203.7664      -208.6326
      -189.6466      -193.6111      -196.8374      -176.5094      -178.7891
      -180.2737      -173.1823      -166.6927      -167.9355      -160.7093
      -150.3975      -135.5826      -121.9612      -107.3962      -108.8675
      -95.50037      -65.92206      -49.20023      -62.15068      -46.02689
      -18.53743      -8.707716      -8.256475      0.3030663       4.288651
       24.01025       30.36020       42.05350       60.96819       73.67194
       91.09137       96.78766       91.26328       114.8008       120.1621
       122.3280       139.4681       146.2515       154.5552       171.6463
       163.9200       163.0065       192.2944       202.1068       196.7382
       209.3441       228.6167       253.6331       270.5764       292.1600
       304.5718       306.8910       310.8179       335.6443       354.3706
       367.3025       363.7983       365.6512       386.9738       406.7238
       414.2185       440.9121       450.1401       469.7244       485.3479
       497.2107       508.0905       514.9404       509.7661       519.1079
       526.8640       547.1870       559.2422       558.0173       552.1492
       565.9172       569.5166       560.0862       556.4241       582.5808
       592.7791       582.4943       582.2212       590.4802       594.8221
       596.4027       607.7667       604.0947       588.2604       596.2424
       607.1205       605.2042       597.9799       586.0618       592.3403
       592.8206       584.8096       584.5754       572.6953       555.4686
       553.3340       560.2344       553.0400       541.2192       531.6123
       531.5427       536.2534       513.9639       481.1864       476.2085
       455.4570       434.0852       431.3386       423.9319       407.3875
       387.8762       365.9675       350.9468       332.9301       312.5135
       293.7418       277.4282       255.5446       246.1481       243.6730
       214.4552       173.9137       168.3933       173.0238       148.6519
       114.1453       101.6284       102.3338       89.35352       59.34733
       31.86865       33.04888       24.02719      -1.064005      -4.293617
     -0.7187653      -33.03464      -71.04099      -83.82062      -94.51447
      -118.3026      -137.6263      -150.3775      -166.9724      -185.1792
      -188.5143      -198.4922      -217.8137      -230.1910      -256.5356
      -281.4301      -289.2391      -304.2145      -320.5571      -336.0631
      -349.6797      -361.6946      -389.3743      -409.2002      -403.8011
      -431.3569      -454.9451      -455.2394      -467.2781      -486.6301
      -505.7214      -533.4768      -550.0209      -558.8994      -565.9785
      -584.2615      -591.3109      -605.5415      -626.6687      -664.4639
      -688.6038      -695.3389      -694.6487      -710.6841      -717.0012
      -722.9539      -737.3599      -748.0654      -757.5881      -798.3677
      -810.6382      -803.9829      -808.3127      -817.9487      -818.5952
      -830.5676      -837.0576      -851.1309      -852.8455      -861.8408
      -868.3032      -863.6853      -860.7944      -863.5168      -859.5110
      -871.9302      -867.7151      -861.2637      -860.6284      -858.8689
      -847.5264      -840.4741      -827.4919      -817.0068      -813.5144
      -811.7153      -780.6362      -758.6545      -747.6052      -736.9702
      -721.9927      -720.8601      -707.5610      -685.2786      -671.1855
      -656.7274      -628.8132      -607.4215      -600.6626      -597.1753
      -558.2820      -527.8197      -512.4657      -493.2976      -465.5118
      -448.1517      -421.9612      -418.3464      -404.4463      -364.9329
      -319.4258      -302.4285      -269.1752      -244.6522      -229.7865
      -203.5703      -162.1881      -139.7336      -110.0455      -85.28859
      -66.84179      -46.30902      -3.614655       29.53531       61.94202
       90.27191       111.4270       137.0005       174.2163       207.9325
       239.1445       264.0028       288.6552       309.5891       346.1027
       375.5164       408.2305       450.0187       477.7814       495.7880
       528.6165       544.2810       551.0948       565.2893       608.0015
       644.9730       661.4023       689.8115       711.8311       720.8206
       754.9429       775.6450       783.3374       800.7727       832.4302
       856.5369       869.6018       878.4250       900.0713       919.2654
       944.9373       964.9321       989.5366       1010.958       1030.177
       1034.185       1044.625       1050.709       1063.572       1074.216
       1082.578       1087.537       1117.472       1126.280       1126.456
       1125.205       1133.198       1131.295       1133.641       1139.284
       1140.793       1127.561       1133.558       1130.822       1126.065
       1122.478       1127.209       1118.178       1092.512       1084.310
       1086.002       1072.550       1063.595       1045.707       1031.493
       1028.780       1019.941       998.7642       973.1260       953.3542
       933.4639       905.4438       870.6453       840.8799       808.2158
       778.2920       750.4683       721.7506       689.1444       657.3408
       621.3655       579.0961       533.3394       498.9680       460.9451
       418.0417       381.9784       356.0552       311.8320       276.6353
       236.5101       174.5833       122.4032       96.22077       56.10472
       8.326958      -29.71121      -64.53711      -104.7992      -140.0822
      -162.9304      -185.1599      -232.9698      -278.2732      -310.0801
      -331.9670      -368.2423      -402.5408      -422.0042      -450.0886
      -486.2910      -515.2720      -552.5734      -576.9105      -591.3206
      -604.4307      -629.1678      -657.9457      -676.4226      -688.6785
      -715.3691      -726.7642      -736.6970      -752.7498      -766.8848
      -786.2529      -808.1887      -809.9514      -827.8049      -843.8201
      -854.4824      -860.7229      -869.1965      -869.3657      -862.9224
      -864.7280      -879.0796      -879.8684      -882.0552      -887.1406
      -883.0356      -877.0178      -881.9385      -886.5469      -885.6152
      -879.3140      -888.0681      -898.2637      -901.1252      -900.7646
      -891.2234      -882.4011      -888.8066      -884.7397      -867.2498
      -859.6836      -867.4048      -872.2141      -872.1755      -863.3184
      -847.6226      -835.8684      -835.2683      -830.9500      -820.2742
      -807.8372      -803.5728      -797.3843      -799.7126      -787.7183
      -767.3220      -760.8630      -764.6108      -748.4268      -732.7163
      -717.2817      -706.6394      -693.5105      -685.3645      -668.2161
      -662.5419      -655.7643      -647.2620      -625.9460      -605.8036
      -590.6733      -581.8545      -555.0897      -543.9257      -521.7893
      -508.1418      -486.9291      -466.7258      -452.8752      -442.3848
      -416.6270      -408.3821      -389.1594      -376.0370      -360.2489
      -340.1755      -318.2112      -310.3533      -286.7469      -260.7166
      -234.4430      -212.9249      -187.3325      -174.1691      -150.9046
      -130.8307      -112.3304      -92.62227      -66.72691      -55.54402
      -34.25792      -1.077774       20.18759       28.94659       47.66083
       60.51019       87.65063       104.4055       120.5265       138.9226
       157.7148       177.5611       208.6263       223.8307       235.4462
       248.6453       269.5430       284.2845       309.4060       328.7418
       355.5747       374.4243       383.9001       395.3979       420.4191
       433.9988       446.9224       459.3542       475.0820       484.9015
       497.6001       509.6819       528.5540       541.7231       560.6410
       558.1487       561.9260       572.1034       582.5037       587.3315
       601.8748       612.8273       624.6991       627.4751       642.0958
       657.5248       664.2903       657.5393       666.9436       671.2559
       672.0309       674.3845       684.4285       689.4624       700.5242
       694.9978       705.1233       709.6826       701.1191       692.1357
       699.7637       691.8049       696.2207       699.2441       703.4788
       702.8308       705.1418       703.4404       709.2485       697.2339
       689.9749       686.6311       690.7944       679.3931       676.9792
       670.0791       668.9683       664.5938       654.2458       638.2065
       644.1320       634.1378       621.2319       607.1353       607.5503
       599.5587       588.3601       579.0234       574.9326       556.4734
       554.2391       551.1162       538.6389       522.1501       516.1863
       504.6674       491.4803       472.4908       456.8848       440.6855
       430.0576       412.3446       388.4694       364.6580       353.7584
       334.0732       313.4060       298.4395       291.8091       275.0153
       260.2982       242.9607       218.0624       199.3474       192.7037
       171.7549       148.3511       130.9894       116.6459       98.10712
       82.67181       63.24576       50.10279       34.08572       25.03390
       9.826469      -3.637634      -20.42955      -24.99432      -47.08371
      -68.65033      -94.48700      -114.0074      -133.9043      -150.9943
      -169.9008      -177.0538      -190.4828      -205.0216      -225.5778
      -241.8734      -272.1225      -291.2806      -303.5173      -313.6341
      -329.7007      -346.0016      -362.1226      -380.6685      -397.2294
      -405.8887      -419.6052      -439.5988      -457.7793      -469.5349
      -482.0698      -504.2083      -529.2030      -542.5712      -553.0752
      -567.2373      -577.4034      -587.8438      -595.2942      -601.3770
      -606.8923      -620.4709      -625.7689      -629.5701      -634.2118
      -645.3489      -648.6965      -655.2543      -657.3827      -655.1096
      -649.7024      -656.8037      -658.4741      -665.3345      -666.0464
      -665.0588      -656.1273      -650.6165      -646.6335      -649.3020
      -639.5916      -629.4495      -618.0234      -621.7241      -618.4407
      -608.3213      -594.1823      -586.1934      -577.9761      -566.8464
