     0.02500000      -1086.207       1203.684      -12345.00      -12345.00
      -29.99001       222.9100      -24.89000      -12345.00      -12345.00
       0.000000       18.45000      -12345.00      -12345.00      -12345.00
      -12345.00      -12345.00      -12345.00      -12345.00      -12345.00
      -12345.00      -12345.00      -12345.00      -12345.00      -12345.00
      -12345.00      -12345.00      -12345.00      -12345.00      -12345.00
      -12345.00      -30.16580      -69.47490       2894.000       0.000000
      -31.06700      -68.46300       0.000000       100400.0       0.000000
      -12345.00      -12345.00      -12345.00      -12345.00      -12345.00
      -12345.00      -12345.00      -12345.00      -12345.00      -12345.00
       139.2680       315.5814       136.0942       1.252141      -12345.00
      -12345.00     -0.3265626       0.000000       0.000000      -12345.00
      -12345.00      -12345.00      -12345.00      -12345.00      -12345.00
      -12345.00      -12345.00      -12345.00      -12345.00      -12345.00
      2008       164        19         4         2
       690         6    -12345    -12345     10117
    -12345    -12345    -12345    -12345    -12345
         1         7        13    -12345    -12345
    -12345    -12345    -12345    -12345    -12345
    -12345    -12345    -12345    -12345    -12345
    -12345    -12345    -12345    -12345    -12345
         1         1         1         1         1
VELA    -12345          
        -12345  -12345  
-12345  -12345  -12345  
-12345  -12345  -12345  
-12345  -12345  -12345  
-12345  -12345  -12345  
-12345  -12345  BHZ     
ZL      -12345  -12345  
[...]
      -316.7939      -338.0995      -374.7103      -366.9072      -376.5211
      -373.2124      -368.2231      -399.5476      -389.9626      -351.2288
      -369.6620      -440.9437      -423.7289      -396.3706      -430.9832
      -428.7551      -376.6757      -388.6748      -512.1370      -628.3184
      -599.8005      -483.0991      -392.7573      -393.4155      -461.2017
      -589.6748      -665.2744      -663.2098      -480.5303      -336.9142
      -470.3899      -640.1387      -676.0676      -598.1194      -567.0913
      -544.6584      -590.7036      -628.6936      -513.9711      -545.3412
      -586.0173      -496.0813      -536.0854      -650.2498      -759.8252
      -761.8040      -602.0856      -510.8663      -466.3376      -518.2943
      -667.0305      -633.6263      -479.0032      -492.4659      -555.9109
      -505.4368      -547.8462      -608.4261      -574.8826      -487.7430
      -453.1560      -546.1702      -455.7229      -358.8473      -448.3092
      -491.0623      -494.4684      -431.5490      -429.8334      -432.0780
      -252.2664      -327.1373      -491.7234      -401.5624      -399.9697
      -395.0765      -290.7170      -278.9731      -234.9362      -214.3400
      -297.5319      -357.5658      -213.7039      -153.1370      -369.3140
      -375.4843      -144.9180      -148.8714      -229.8512      -219.7335
      -196.9014      -212.3651      -243.0990      -185.5547      -140.1069
      -120.0170      -95.93060      -134.8220      -165.0760      -183.0274
      -129.1023      -10.83009       63.69690      -10.38170      -66.89575
      -92.76228      -100.9460       10.41112       97.05627       14.22092
      -29.42494      -40.49952      -18.53233       43.01791       92.56531
       187.4836       154.0789       89.84320       128.7512       108.5494
       166.2434       199.9472       99.14349       177.2036       318.1038
       314.0778       296.3854       205.4580       287.6359       404.0214
       325.3345       352.0352       390.1179       351.1633       405.3541
       417.5336       385.9590       481.5007       575.4553       502.1719
       421.5959       526.4727       622.0657       510.7271       517.4220
       630.5714       536.2771       474.2554       625.7722       661.4946
       470.5579       488.2102       700.9496       625.0435       483.4146
       604.8566       703.3885       573.3442       384.9124       346.0616
       463.3009       401.4692       257.3691       398.9617       659.2532
       744.3325       849.3628       904.1005       661.7036       263.9978
       197.2888       395.3596       365.7136       388.0791       511.0918
       554.1924       551.8555       527.2031       584.4229       579.8833
       622.6924       538.4518       306.1663       191.7932      -22.66934
      -89.31622       213.5806       235.8975       170.3304       556.0078
       745.8284       333.9792       296.8115       406.5266      -43.39325
       64.91595       440.7613       32.83931      -129.8185       63.52917
      -143.3440      -534.9047      -290.1040       303.5121       513.9418
       319.1194      -277.0324      -284.0308       373.9064       289.4928
      -144.9470      -346.2825      -425.3637      -377.7168      -137.7678
       239.4020       185.1733     -0.9799805      -23.54614      -199.0200
      -341.1026      -352.7316      -200.6286      -126.5028      -72.57201
       7.048523      -106.5987       125.6863       200.4234      -187.5343
      -160.6710      -178.8699      -373.8683      -408.6935      -327.9068
      -37.47058       101.6902       44.51904      -136.6377      -366.6331
      -66.50165       117.3127      -227.5857      -288.7760      -148.9430
      -133.5456       76.39178      -32.59814      -547.5340      -260.3385
       64.86359      -214.7595      -313.6166      -218.6256      -22.04980
      -55.69934      -395.3627      -256.0828       171.0825      -117.5395
      -437.5313       59.13583       186.9431      -378.3615      -331.4965
       180.6588       90.48474      -485.3176      -495.2817      -131.8330
      -174.5430      -336.9778      -196.3424      -73.26761      -84.05505
       153.3623       181.1804      -161.3270      -250.4153      -277.5345
      -374.3126      -202.3766      -195.2512      -196.2664       17.87231
      -38.70934       35.68210       221.3557      -198.8663      -575.7784
      -338.3476      -154.8235      -118.6276       75.37790      -42.78699
      -237.5410      -121.8081      -87.86267      -194.8273      -344.8896
      -261.4044      -51.99594      -78.79834      -186.3145      -204.6558
      -282.3497      -245.1844      -240.0720      -247.5623      -131.9395
      -364.6956      -347.0256      -193.8232      -235.1898      -55.35846
      -119.6484      -382.7991      -383.7786      -75.58917       32.50867
      -198.2678      -263.8723      -266.8464      -328.3154      -296.8517
      -45.61484       109.7329      -129.1727      -143.1447      -62.93811
      -255.6583      -418.0743      -316.9903      -154.8641      -134.1096
       87.82967       41.09949      -252.1362      -32.15349       133.2595
      -55.31512      -37.89758      -157.5695      -229.0999      -139.1578
      -254.9574      -30.01355       297.7623       144.0610       219.1921
       426.4655       18.86380      -176.6640       88.17804       168.1114
       103.2277      -73.96808       83.39575       308.1729       181.5162
       195.7537       212.2060       148.7715       169.5351       75.08923
       216.8778       471.4384       278.2952       202.4039       337.9968
       273.0607       164.5128       249.1636       331.5171       235.8427
       222.3378       299.6179       353.3409       285.9939       358.3704
       487.1100       479.8566       436.6343       386.2440       420.6823
       360.8307       202.1247       244.7646       457.3784       431.5632
       225.0421       431.0909       519.1838       243.2563       394.7964
       583.8748       439.5880       465.2570       525.3383       238.8767
       149.0448       594.2290       695.7026       491.2271       572.3691
       467.7700       213.3882       268.6429       415.9305       341.0100
       214.3903       207.8867       268.6729       464.3338       366.6567
       174.7665       317.2973       291.4526       120.5742       14.04327
       182.6182       431.9745       237.3696       203.7820       299.8546
       59.59821       58.01855       153.0723       29.26416       38.44925
       155.3110       168.0732       137.3694       202.8284       164.3724
      -41.56067      -86.50317      -1.126587      -164.4814      -189.0175
       104.9442       148.8336      -46.28841      -86.28755       24.26169
      -50.44641      -234.7678      -186.1387      -80.03717      -21.24865
       68.07050      -80.85304      -137.9812       52.90247      -86.26602
      -203.5954      -57.16852      -78.12970      -299.4261      -295.9472
      -19.84716       43.06427      -168.6060      -193.2058      -170.3430
      -321.9982      -310.2963      -166.2655      -189.3658      -364.7106
      -274.8798      -62.83325      -250.0363      -346.8441      -329.9662
      -385.0346      -334.5342      -223.9528      -196.2913      -360.2292
      -400.8551      -286.0424      -322.1936      -397.3370      -404.5597
      -424.5732      -392.9296      -260.2144      -358.5771      -531.8967
      -491.8513      -430.6166      -457.5725      -580.9312      -557.5857
      -464.4426      -555.6993      -514.9724      -378.0527      -438.7949
      -578.3994      -576.7063      -571.2976      -654.2426      -563.1252
      -385.1333      -532.5972      -636.7302      -546.7887      -621.9724
      -641.5771      -558.9291      -584.9492      -592.0466      -555.5366
      -571.3403      -587.8113      -508.9395      -490.6669      -508.2869
      -518.7114      -553.7020      -433.8885      -531.3484      -700.0470
      -405.7776      -352.5652      -537.8550      -550.9106      -605.6141
      -455.3198      -330.1917      -494.0614      -385.7599      -338.4050
      -557.9817      -587.2801      -383.7267      -208.8872      -368.6105
      -483.1305      -244.4296      -217.9133      -310.0830      -327.5779
      -388.8694      -266.0900      -143.1840      -236.4550      -184.9873
      -151.6832      -214.9865      -148.5187      -121.5403      -42.30940
      -28.64426      -46.47531       35.90398       68.50909       49.47852
       45.65344       205.3288       209.7988       75.71802       199.0186
       299.9218       218.5905       222.3083       398.2284       517.6439
       453.7571       376.1660       439.5609       502.2002       412.2485
       506.5405       826.7581       827.2385       683.3005       705.6755
       720.0208       677.5869       708.9619       841.5820       847.4072
       849.1980       837.6987       844.5942       1060.015       994.1262
       796.2771       907.6587       873.1113       821.9451       1032.146
       1017.779       893.0630       1062.077       1046.883       888.7126
       1004.520       1065.092       948.6738       930.8086       1044.807
       982.3772       888.8921       982.2261       949.2954       853.8403
       904.1421       1007.172       988.4805       961.7981       932.6323
       868.0679       870.0916       892.7307       866.3320       825.2085
       838.7861       794.3682       798.7915       837.6641       768.3176
       647.3557       559.7089       601.2017       713.5234       688.0570
       625.1033       734.2515       603.2129       441.4375       591.1713
       544.1677       479.9507       530.5048       438.1019       387.9675
       443.6160       485.5959       415.1042       362.4147       304.9388
       278.6105       299.5867       235.8231       167.4520       194.5803
       187.5735       107.4563       6.336143       18.26303       33.13836
    -0.08450317       52.25214      -28.65594      -205.4704      -122.8318
      -58.51691      -160.9816      -181.1290      -185.4091      -198.9249
      -251.0299      -311.0118      -321.7966      -327.1826      -374.8264
      -457.2252      -432.5841      -446.6204      -445.2804      -369.5132
      -388.2612      -453.2869      -558.0892      -539.5411      -490.5728
      -615.7080      -660.2260      -628.8782      -681.7705      -715.8984
      -720.3230      -701.1782      -699.4045      -766.5557      -773.1511
      -719.5908      -721.3682      -746.5967      -738.1648      -810.0229
      -856.2097      -748.4795      -816.9438      -938.3818      -812.7661
      -833.9812      -985.6108      -903.6201      -837.5916      -875.6128
      -819.6328      -807.8154      -927.1685      -933.9395      -814.6089
      -889.3691      -1010.686      -950.6482      -937.7341      -902.0696
      -865.4666      -937.2346      -939.0447      -896.3167      -965.8347
      -860.4973      -709.6301      -851.7954      -891.2424      -811.5884
      -825.4370      -773.2251      -693.5273      -665.5706      -780.5845
      -808.9136      -725.0767      -732.9297      -754.9810      -757.2466
      -682.9788      -717.3672      -807.9001      -646.9059      -570.0938
      -668.6736      -607.8303      -615.1685      -685.0826      -542.5144
      -576.4215      -647.6052      -545.9143      -589.1969      -627.8491
      -533.2760      -479.2297      -453.1982      -471.0062      -502.3259
      -506.6930      -446.7319      -388.0524      -394.7179      -385.6963
      -335.7703      -308.7999      -317.9744      -309.8958      -309.6042
      -372.2239      -338.7084      -291.1856      -281.7808      -168.3392
      -86.43585      -179.3721      -242.6997      -211.5376      -251.3013
      -293.0316      -207.7985      -125.3843      -139.8503      -95.95818
      -21.30780      -126.8400      -197.5464      -164.8053      -131.1464
      -48.78310       5.579449       18.16961       8.134176      -12.43478
       36.24184       29.99471       16.91257       100.5832       163.8360
       170.0174       143.0055       133.1394       185.5380       244.6097
       258.3099       210.4341       228.5085       279.6863       293.0920
       349.2340       397.7775       384.4750       436.7275       450.4545
       427.4595       417.9644       422.0354       500.7260       561.4789
       581.8066       599.4653       644.6194       707.6184       655.6470
       633.7673       680.4839       732.2119       767.0796       783.0095
       844.2244       860.8013       808.0034       897.1392       907.9397
       845.4319       915.3833       953.5264       948.8372       929.0425
       983.5720       1053.937       978.8081       1004.164       1048.234
       975.5303       1006.588       1055.929       1098.151       1203.684
       1166.301       1043.629       1055.812       1137.502       1121.224
       1058.470       1065.472       1071.545       1047.160       1055.729
       1092.127       1090.017       1045.505       1021.468       1029.005
       1073.290       1024.782       987.4963       1006.984       985.6890
       1012.575       1039.390       988.9541       989.6133       1026.771
       1009.010       952.1775       970.6201       1007.234       944.4287
       903.0730       932.1599       902.3555       835.1118       772.6799
       813.9092       818.7703       743.0549       742.8262       788.2861
       682.5142       625.2034       663.5028       620.8271       529.2711
       515.1978       537.5808       496.0122       436.5673       452.2268
       453.2605       400.1875       346.4276       271.6400       187.8983
       217.6454       197.9925       95.79175       114.2203       168.9557
       59.39758      -18.66396      -13.57721      -85.07692      -55.77892
      -19.59161      -186.8314      -226.7649      -188.3032      -312.6278
      -335.0063      -250.4554      -267.3888      -336.3218      -391.2802
      -362.5142      -381.0190      -456.3440      -460.0277      -461.6555
      -560.4133      -606.0950      -561.2969      -558.8713      -579.6597
      -593.2958      -622.1396      -677.2231      -802.1011      -793.8188
      -703.0542      -736.8018      -808.2629      -815.0229      -838.2341
      -877.2241      -838.2012      -816.0640      -879.9392      -855.0957
      -900.6235      -977.8257      -980.7705      -964.3743      -936.5820
      -951.6782      -931.1060      -915.2634      -1037.039      -970.4614
      -903.7356      -979.3745      -1000.850      -1004.158      -1001.389
      -951.0454      -973.3792      -974.5811      -891.6897      -925.6382
      -979.8335      -948.6294      -966.0615      -958.3701      -887.8398
      -856.7629      -926.8955      -896.8818      -892.0840      -907.7483
      -813.0244      -802.4219      -835.9824      -808.4385      -819.9316
      -862.2959      -846.9849      -803.8896      -827.4810      -839.2402
      -832.8550      -818.4270      -785.0610      -740.4087      -738.0269
      -745.1580      -785.6440      -768.7068      -759.7056      -784.8716
      -701.8147      -693.9204      -767.0486      -720.9448      -727.0134
      -741.1362      -714.1206      -756.3777      -752.6514      -675.6990
      -713.9833      -693.1208      -620.7756      -615.4822      -602.4551
      -536.1273      -502.5868      -576.6482      -652.0187      -588.6968
      -579.4548      -553.5964      -494.1399      -473.2957      -492.8823
      -478.3101      -431.1343      -451.2921      -417.4016      -338.9883
      -385.2527      -386.4154      -318.5619      -316.5286      -327.6626
      -264.9660      -263.8134      -242.4453      -192.3065      -202.8921
      -199.0042      -164.6931      -134.6101      -78.01556      -95.64343
      -110.3573      -74.80382      -46.31593      -29.13464       24.81482
       148.1548       175.7208       61.15295       86.60474       172.4589
       151.7142       158.5669       235.5131       240.1687       264.9028
       330.9249       287.2427       280.5954       305.4217       315.9720
       368.6189       379.5530       387.5459       411.5312       427.0337
       454.9114       510.7712       554.4861       518.8213       486.3480
       536.8474       542.3906       544.9417       626.0544       654.6506
       636.9004       719.5671       764.1770       712.7827       744.4158
       789.0071       798.1206       826.5791       818.1184       795.8398
       800.3960       830.8081       863.3643       873.3853       883.0000
       943.5664       977.1895       931.3242       934.6775       941.1458
       962.3757       1001.002       1017.723       1027.444       973.0671
       945.5483       1040.445       1043.054       1000.123       1032.565
       1014.706       995.8633       1062.729       1033.680       996.8599
       1064.819       1051.958       1030.419       1056.606       1005.393
       973.4341       961.8167       976.7698       984.4978       940.6538
       931.4580       918.9609       909.6501       919.4653       891.1665
       872.6667       876.5869       883.6394       856.7856       832.3230
       794.3271       717.2058       731.8254       789.7537       779.8975
       731.0664       709.6702       740.5398       709.3757       638.1389
       608.4214       608.2056       612.2095       590.5774       575.3519
       580.2722       558.8906       525.2655       502.5503       519.3113
       509.7755       430.5278       427.8918       439.8761       403.5121
       393.9038       400.6478       391.3936       334.6387       296.6750
       324.0061       277.8860       226.1833       265.2971       254.6830
       220.9109       232.3246       196.3858       149.0694       100.7545
       65.29373       38.00444       14.73312       45.86903      -8.973541
      -61.08594      -47.88928      -93.13022      -143.2465      -150.9093
      -151.1230      -166.9152      -227.1422      -233.4248      -250.4501
      -337.7083      -349.6731      -345.4844      -375.2993      -375.6096
      -385.4221      -407.7126      -440.5649      -450.3027      -469.4414
      -520.2697      -527.0791      -525.9531      -583.3792      -595.1858
      -599.3999      -621.5854      -636.6355      -618.3014      -575.7156
