     0.02500000      -1278.389       1258.766      -12345.00      -12345.00
      -29.99001       222.9100      -24.89000      -12345.00      -12345.00
       0.000000       18.45000      -12345.00      -12345.00      -12345.00
      -12345.00      -12345.00      -12345.00      -12345.00      -12345.00
      -12345.00      -12345.00      -12345.00      -12345.00      -12345.00
      -12345.00      -12345.00      -12345.00      -12345.00      -12345.00
      -12345.00      -30.16580      -69.47490       2894.000       0.000000
      -31.06700      -68.46300       0.000000       100400.0       0.000000
      -12345.00      -12345.00      -12345.00      -12345.00      -12345.00
      -12345.00      -12345.00      -12345.00      -12345.00      -12345.00
       139.2680       315.5814       136.0942       1.252141      -12345.00
      -12345.00      0.3024460       0.000000       90.00000      -12345.00
      -12345.00      -12345.00      -12345.00      -12345.00      -12345.00
      -12345.00      -12345.00      -12345.00      -12345.00      -12345.00
      2008       164        19         4         2
       690         6    -12345    -12345     10117
    -12345    -12345    -12345    -12345    -12345
         1         7        13    -12345    -12345
    -12345    -12345    -12345    -12345    -12345
    -12345    -12345    -12345    -12345    -12345
    -12345    -12345    -12345    -12345    -12345
         1         1         1         1         1
VELA    -12345          
        -12345  -12345  
-12345  -12345  -12345  
-12345  -12345  -12345  
-12345  -12345  -12345  
-12345  -12345  -12345  
-12345  -12345  BHN     
ZL      -12345  -12345  
[...]
      -465.0721      -445.2770      -459.7535      -518.0193      -435.8601
      -310.4262      -341.4586      -332.6656      -412.0193      -415.5329
      -289.5588      -250.0389      -238.1028      -230.2971      -228.6648
      -239.2063      -254.1420      -173.3116      -87.29126      -174.3330
      -198.0441      -64.32010      -60.84659      -116.4538      -100.3549
      -77.13233      -64.30224       18.44753      -20.67735      -81.05957
       26.02744       52.29423      -1.014038       59.42264       98.17641
       52.73634       69.65102       75.08043      -23.44330       65.24365
       189.1465       135.0322       93.74936       133.7536       125.7379
       149.7607       185.2354       127.3860       139.8573       139.0400
       100.6248       176.8547       234.4675       163.5713       96.09985
       208.3713       319.6784       185.9410       100.6299       220.6093
       193.2087       172.0812       333.8318       360.0442       246.7434
       224.0350       285.7190       279.3997       247.9440       262.8513
       302.4082       239.9144       252.9340       362.5997       349.7639
       351.5659       321.7087       221.4078       275.5726       403.1880
       352.2670       274.6348       288.4319       361.2834       430.1481
       422.1863       367.8813       266.3754       292.1501       361.5925
       415.0806       431.5298       384.0310       414.1598       349.8313
       318.9633       431.2583       453.2783       384.2397       374.7728
       458.9519       458.3945       411.9727       460.8813       463.5653
       360.7595       361.2592       390.5751       395.6531       491.1866
       462.3022       383.3699       360.0470       362.6215       452.2104
       466.6122       375.2750       328.8362       369.1562       373.5446
       394.6174       507.4911       432.0795       336.1025       431.5815
       401.2055       313.3555       367.3167       337.9760       397.0009
       456.5358       313.0043       249.5181       377.3000       476.2038
       309.5413       210.5771       331.9299       284.8591       193.9432
       273.7960       337.6457       231.8412       225.2275       328.0792
       226.3622       142.0145       269.6263       254.7022       156.9754
       184.8281       234.9838       215.7591       117.2605       109.9470
       152.0308       167.0963       166.6191       101.0392       71.58026
       148.3636       170.2804       14.02809       42.07208       165.3665
       82.26060       59.89555       53.92673       48.28561       93.92992
       59.29491      -6.178162      -122.8085      -85.10064       60.28922
      -3.339966      -38.06130      -11.89322      -57.48616      -30.04843
      -39.25461      -119.9468      -163.1099      -141.6506      -46.36063
      -89.83936      -162.0580      -120.7395      -144.1176      -152.5692
      -216.5407      -320.3746      -206.5895      -153.2788      -211.9840
      -203.4674      -232.6443      -238.6337      -255.5718      -234.1288
      -190.8774      -254.4620      -282.1331      -302.5392      -255.8489
      -270.8407      -387.5737      -306.8181      -311.5203      -397.1959
      -340.9683      -299.7290      -263.8013      -281.1879      -323.7524
      -354.1749      -368.0520      -337.5911      -345.8880      -339.7927
      -331.8086      -385.5203      -421.0253      -436.4454      -369.5505
      -293.1904      -354.4294      -350.0840      -283.8401      -359.9537
      -425.1565      -358.4901      -345.6708      -322.8408      -287.7039
      -327.2345      -345.9301      -393.6987      -399.9891      -302.9673
      -276.3634      -366.5513      -344.6394      -278.9006      -321.8804
      -394.1807      -379.9785      -302.2488      -359.2483      -330.2089
      -236.4189      -329.9878      -351.4183      -348.2449      -299.7802
      -242.2531      -277.6888      -248.4371      -249.1401      -319.8696
      -366.8791      -344.1102      -185.8660      -133.2021      -340.1584
      -358.0922      -270.3405      -272.5389      -205.9582      -213.7018
      -253.8795      -187.5563      -129.9881      -227.4764      -279.2900
      -184.6012      -202.6812      -231.8275      -172.3201      -180.2126
      -194.2680      -217.9934      -154.9476      -58.04739      -140.3785
      -195.8285      -123.3372      -5.264587      -60.69977      -179.3148
      -57.25125      -61.99719      -197.3283      -65.73604      -2.025085
      -162.8067      -172.2176      -15.03364       52.87492       5.449036
      -46.82452      -188.7014      -245.2984       3.771545       23.53174
      -121.6799      -67.89734      -141.2587      -101.3983       48.94202
      -86.61237      -175.8452      -60.85422       16.09961      -97.83574
      -92.33688      -20.29367      -140.2912      -76.80614       6.888184
      -97.33583      -94.28574      -54.32437      -119.0446      -74.98688
       2.489746      -89.05402      -98.79739      -5.518967      -6.848969
      -29.19812      -73.66232      -79.33681      -55.67856      -37.99368
      -27.62785      -81.50052      -74.75967      -95.90457      -151.3726
      -15.00460       18.18201      -54.60162      -67.99823      -115.6452
      -156.8078      -90.52660      -2.851212      -9.368896      -74.29605
      -90.93990      -74.72047      -39.36597       5.653442      -68.04163
      -131.5021      -99.24225      -75.38492      -23.25050      -33.84209
      -24.59019      -18.21490      -103.0208      -10.52197       52.50671
      -18.64906      -1.327072      -17.59930      -34.39261      -16.69526
      -48.09216      -10.28384       95.55733       32.47403      -86.20987
       42.63367       116.9363      -48.84973       38.35370       188.7204
       33.48279       24.26273       149.8656       26.32568      -101.7354
       57.31891       168.7176       54.52606      -109.5482      -209.8262
      -70.66162       269.7104       620.2129       850.0007       896.6501
       751.5400       236.8331      -142.3733      -6.481079       38.85309
       3.132996       155.8220       336.9991       305.3878      -42.40842
       22.43939       335.2988       178.6426       512.7188       959.3159
       258.9771      -345.7455       179.1494       918.6401       1152.092
       701.6636      -164.1653      -436.6801      -164.2825      -97.87335
      -2.814575       535.0752       659.1545       316.2378       438.2935
       814.0986       784.7158       543.6487       624.5415       771.2910
       262.1923      -329.4544       16.77040      -28.40625      -101.1777
       877.4233       1164.956       1070.321       570.3723      -265.6316
       553.4160       1037.155       432.8989       1130.108       1155.091
      -464.2269      -654.1758       781.9854       1079.482       125.8564
       50.17578       578.7622       596.5049       751.1123       712.0093
      -2.124680      -121.0270       312.3127       704.3347       685.4025
       183.9771       111.7527       466.3591       792.5083       562.5276
       285.8849       678.6411       331.1359      -800.3029      -255.5078
       770.2235       182.1879      -30.90265       306.3002       124.0032
       284.8611       547.0299       297.5709       460.1654       593.1871
      -5.540283      -264.9705       47.55573       77.07190       219.0122
       647.5365       3.511993      -244.0427       427.5263      -127.5341
      -440.2249       385.6880       596.0228       47.96994      -313.8582
       270.0052       741.6237       29.36243      -412.6976       144.4614
       267.6843      -191.0840       192.6753       632.1829      -131.8708
      -532.0412      -39.90466       70.09418       103.4146       320.1010
      -71.10522      -443.2211      -327.2764      -357.5160       115.0463
       663.5629      -51.81567      -623.8976      -15.32903       100.1217
      -274.1097       191.7216       258.4206      -157.6726       154.4539
       264.2715      -422.3450      -621.4315       71.94220       210.5300
      -263.8123      -227.3019       356.5753       251.6882      -502.0753
      -9.063110       600.3642      -60.81891      -366.9427      -85.19275
      -152.6385      -260.4307      -80.27704      -139.4764      -79.50269
       380.5180       332.1265       143.9688       116.0569      -71.02612
       48.98595       24.99530      -244.4836      -111.6975      -123.9726
      -154.1167       60.56726      -60.50189      -221.8781       127.3860
       316.5609      -230.9894      -282.4534       182.2339      -65.12775
      -343.8904       26.66606       88.09399       29.45361       537.3719
       278.0928      -413.7350      -121.0092       156.3713      -353.1470
      -420.8934      0.6290283      -106.1333      -113.6011       8.375977
      -406.9641      -413.2945       31.53754      -46.58582      -390.3138
      -400.6912      -195.0997      -201.9010      -273.7781      -391.6066
      -572.6068      -265.9493      -79.03613      -277.4414      -628.8213
      -827.5737      -415.6361      -229.7617      -620.4827      -699.2552
      -300.6738      -243.4189      -617.4817      -705.1208      -482.4807
      -515.3682      -947.0800      -757.2051      -275.1626      -572.4380
      -875.9321      -816.7075      -945.5664      -1036.970      -929.7908
      -732.7341      -580.6566      -520.9888      -502.6157      -757.1372
      -925.6919      -816.4604      -725.7942      -623.6821      -755.5559
      -844.7859      -669.9426      -871.2695      -1014.795      -611.9595
      -608.2751      -957.6233      -939.2980      -625.6326      -603.6316
      -793.7803      -871.7065      -858.1226      -899.8168      -752.5735
      -382.2134      -708.0234      -1123.416      -814.9675      -447.6064
      -427.8733      -847.9312      -919.4077      -306.5703      -510.0063
      -1003.257      -396.7469      -237.9021      -784.4395      -674.5112
      -375.7865      -431.8979      -327.0870      -253.7919      -503.9163
      -616.2480      -320.4091      -8.755615      -309.5176      -767.6047
      -540.8558      -71.63193      -55.17773      -253.2346      -144.4436
      -33.50360      -331.1764      -225.6252       36.62845      -152.2480
      -22.96881       140.1423       48.79462       3.748993       48.20953
       71.96155       255.2533       335.4161       135.0287       247.1892
       460.6526       401.0822       228.1874       117.4124       345.6426
       474.4025       291.1746       278.1098       333.4138       346.3223
       490.0342       561.4075       536.5332       701.8270       651.6979
       344.0159       540.8354       704.3879       675.3772       747.1145
       600.5432       632.8788       720.7759       523.9282       585.7488
       737.1357       785.8521       810.7419       741.4612       796.0234
       1013.370       972.1528       776.2000       873.3132       1015.448
       970.5623       900.1733       898.2229       857.3359       822.9924
       1024.825       1081.577       883.8921       741.7507       844.1924
       1024.515       1115.999       1155.262       1027.423       934.4419
       1056.504       1091.820       1161.561       1134.709       887.5977
       949.0959       1061.824       1081.308       1054.672       907.1333
       1054.059       1210.931       939.1299       784.1174       961.5356
       969.3467       882.1309       941.5615       883.4158       670.1426
       907.8267       1258.766       1062.520       812.3730       881.9824
       906.4211       701.8381       811.7046       867.7427       608.7432
       727.2771       874.4319       752.8464       698.6379       620.7927
       628.8918       675.5411       581.1460       725.4155       879.5273
       598.8552       474.9928       555.8977       480.8503       449.1448
       424.2830       426.2081       614.3251       681.8134       451.5295
       402.0319       481.9773       451.6500       289.8258       123.3574
       308.4297       308.1959      -56.95981       89.73267       318.3883
      -33.68350      -158.7196       111.0780       271.1403       126.5994
      -184.5458      -139.5412       12.01607      -75.44035      -55.18597
      -84.10712      -272.7983      -243.4727      -236.4368      -312.5109
      -321.6064      -527.7384      -492.6562      -271.4929      -442.5293
      -479.3947      -353.9961      -596.1801      -634.3518      -493.8953
      -569.6440      -447.1788      -487.4109      -806.6570      -761.9713
      -591.9429      -652.3596      -814.2615      -840.1638      -901.5854
      -948.3330      -831.5337      -920.6597      -956.7578      -790.4958
      -911.2622      -1021.007      -905.7466      -960.8955      -1163.218
      -1062.183      -910.4082      -1144.555      -1278.389      -1184.100
      -1110.931      -1044.167      -1175.991      -1202.328      -1109.776
      -1220.472      -1105.410      -951.0898      -1046.061      -1241.469
      -1204.461      -1037.992      -1185.886      -1105.561      -910.8589
      -1107.129      -1144.536      -1067.298      -1124.754      -1102.552
      -1023.490      -934.7969      -926.7251      -1058.294      -1095.342
      -1040.301      -1132.591      -1188.416      -1026.730      -904.5225
      -928.8706      -877.2637      -794.5427      -916.6665      -968.6526
      -785.9631      -836.4958      -1047.562      -828.9932      -662.2402
      -896.0593      -832.6060      -644.7544      -701.8046      -670.8503
      -630.9995      -732.4666      -653.7700      -563.3894      -731.0710
      -748.7705      -653.1439      -526.6906      -396.5345      -475.6516
      -536.7144      -524.3710      -557.0695      -460.2129      -331.2683
      -448.3074      -568.4160      -436.1245      -248.1315      -341.1333
      -406.9659      -253.2632      -315.7823      -389.9681      -204.4582
      -113.6238      -262.8464      -381.5043      -252.4361      -47.52460
      -103.9538      -288.2280      -212.2834      -110.3672      -85.18192
       109.0500      -14.77740      -254.2984      -35.72467       148.7392
       76.89262       58.84564       95.44931       34.24902       21.92645
       252.7645       288.2302       25.73264       32.34796       270.3158
       272.5161       227.4141       342.7305       266.1403       123.9874
       267.1593       419.0347       384.0214       324.6489       366.7711
       423.2476       360.4591       451.5164       709.6633       650.0521
       456.2996       456.2914       595.7065       607.0011       472.0134
       523.8983       617.3345       583.8214       603.9309       662.0181
       737.8647       765.2859       718.9800       816.3027       790.8042
       600.9011       744.2776       868.6611       808.7476       777.2935
       758.8181       837.4519       893.4956       797.9568       775.2495
       816.4988       800.8364       815.5732       787.9844       749.2427
       920.4448       970.9094       811.3745       849.5356       944.6855
       870.4846       771.6982       710.6450       725.0303       917.4907
       1000.641       924.4219       883.7517       786.1438       778.5513
       880.2207       809.0557       745.8674       894.6038       953.9905
       928.8105       968.1936       900.7363       749.0259       758.9932
       815.3763       654.1602       596.6357       740.8403       765.3921
       899.3560       988.8425       675.3820       548.0383       720.2278
       745.8462       665.6956       662.5393       671.3723       571.4424
       579.6660       736.0908       649.7208       436.4879       496.2966
       549.5328       519.9846       475.9009       436.6483       531.3861
       564.7025       450.6056       398.3445       393.2073       479.6777
       439.3634       259.1324       274.1875       435.8125       418.6688
       298.2097       321.7834       357.3485       308.7985       269.2461
       214.7924       111.8977       126.0082       280.9296       209.0298
       59.46524       55.99950       5.377838       54.34369       150.5482
       89.20816       93.89052       39.87917      -24.53006       61.18163
       68.36267      -69.85254      -222.8066      -234.2734      -214.0205
      -286.3824      -201.1126      -25.01306      -36.65723      -228.0569
      -256.8692      -162.4360      -303.4138      -424.7692      -351.3057
      -257.1845      -222.7401      -391.7572      -495.8029      -394.9501
      -325.5774      -335.9575      -387.1469      -348.5261      -309.8738
      -497.1086      -482.7301      -344.5328      -498.8718      -605.3975
      -455.6753      -318.9392      -348.6865      -437.4119      -469.8936
      -460.9254      -445.3009      -494.2748      -563.0586      -512.8014
      -378.7124      -435.5719      -547.7561      -469.0808      -385.8833
      -553.3656      -624.4015      -427.3555      -351.2269      -466.7084
      -463.9490      -371.0803      -425.4104      -501.5498      -385.7186
      -418.1168      -483.2820      -327.2688      -353.3097      -497.1006
      -430.5428      -383.9192      -410.3208      -382.7433      -418.7360
      -485.5244      -447.4739      -427.9595      -421.2655      -335.2106
      -342.3970      -404.5001      -223.8368      -201.3765      -489.9474
      -507.1488      -394.2551      -448.5044      -371.6224      -225.4553
      -237.3800      -417.2395      -465.1110      -304.6054      -289.9965
      -406.5914      -353.9568      -287.5326      -332.5920      -330.4660
      -257.0990      -342.9250      -435.1826      -236.6779      -148.6404
      -324.0394      -308.2623      -274.3956      -401.6239      -351.8663
      -209.0217      -223.3408      -227.7666      -227.9775      -211.0100
      -225.1076      -278.3192      -232.3665      -248.4816      -299.2466
      -221.7791      -221.9760      -319.3030      -281.0648      -120.6442
      -106.2049      -216.2871      -328.6522      -284.9884      -151.2374
      -192.4216      -273.4887      -247.0691      -158.1084      -71.24438
      -157.7502      -273.8911      -214.9747      -119.3475      -124.8566
      -172.9021      -145.3341      -132.7476      -209.1364      -189.6985
      -182.8495      -178.1570      -113.2165      -101.9615      -142.6163
