     0.02500000      -1866.465       2455.797      -12345.00      -12345.00
      -30.00005       215.9249      -17.20000      -12345.00      -12345.00
       0.000000       12.65000      -12345.00      -12345.00      -12345.00
      -12345.00      -12345.00      -12345.00      -12345.00      -12345.00
      -12345.00      -12345.00      -12345.00      -12345.00      -12345.00
      -12345.00      -12345.00      -12345.00      -12345.00      -12345.00
      -12345.00      -31.60370      -68.72130       995.0000       0.000000
      -31.06700      -68.46300       0.000000       100400.0       0.000000
      -12345.00      -12345.00      -12345.00      -12345.00      -12345.00
      -12345.00      -12345.00      -12345.00      -12345.00      -12345.00
       64.38452       202.3787       22.51238      0.5788934      -12345.00
      -12345.00     -0.6268123       0.000000       0.000000      -12345.00
      -12345.00      -12345.00      -12345.00      -12345.00      -12345.00
      -12345.00      -12345.00      -12345.00      -12345.00      -12345.00
      2008       164        19         3        55
         0         6    -12345    -12345      9838
    -12345    -12345    -12345    -12345    -12345
         1         7        13    -12345    -12345
    -12345    -12345    -12345    -12345    -12345
    -12345    -12345    -12345    -12345    -12345
    -12345    -12345    -12345    -12345    -12345
         1         1         1         1         1
ZOND    -12345          
        -12345  -12345  
-12345  -12345  -12345  
-12345  -12345  -12345  
-12345  -12345  -12345  
-12345  -12345  -12345  
-12345  -12345  BHZ     
ZL      -12345  -12345  
[...]
      -707.3291      -730.7744      -713.6860      -658.1445      -633.3799
      -610.5862      -589.7256      -578.7028      -538.0059      -478.1309
      -461.1517      -464.3356      -423.5176      -376.2220      -330.1886
      -353.6887      -355.5925      -263.9152      -209.0347      -231.9897
      -236.6418      -168.5269      -113.3956      -127.4272      -98.54597
      -58.11489      -36.71021       21.18553       34.94724       28.51813
       93.91055       139.7054       124.8287       127.3922       195.6127
       247.1743       247.0032       265.7517       305.9952       340.2805
       354.8972       377.8547       437.8682       459.5427       462.3057
       497.8335       520.7783       532.9391       562.4106       600.0326
       627.6392       641.1812       656.9507       648.1399       700.4226
       768.2036       751.4209       743.9082       799.3711       850.8462
       847.8630       835.9202       881.9348       901.3662       899.8689
       934.2385       978.6743       982.8984       988.1667       1001.617
       1025.377       1041.468       1053.604       1058.866       1074.873
       1105.513       1114.077       1119.039       1146.074       1153.702
       1156.163       1168.186       1200.408       1221.204       1204.782
       1196.237       1212.204       1240.065       1255.478       1231.459
       1216.377       1256.259       1272.259       1239.384       1218.997
       1242.708       1264.043       1242.844       1214.091       1227.918
       1237.649       1229.093       1224.589       1198.904       1177.483
       1186.344       1186.820       1174.632       1138.911       1093.413
       1105.045       1132.952       1117.742       1085.300       1053.971
       1032.284       1024.761       1002.584       978.9849       943.4158
       916.6208       893.1536       888.1794       869.5969       837.3936
       818.1045       800.3018       757.4973       723.8198       692.7446
       671.5774       655.1436       618.0623       574.2915       571.7173
       564.1147       512.3079       464.4460       470.2687       442.1785
       398.1473       389.4829       380.2520       332.7921       281.2259
       261.1886       254.9798       212.9667       175.2282       155.7321
       125.4827       76.48218       83.91658       68.12561       10.55262
      -11.50702      -1.827255      -27.03934      -89.24371      -123.9979
      -114.7968      -137.8129      -166.3893      -200.7623      -214.9871
      -241.3134      -268.1526      -285.4635      -315.5227      -349.4037
      -358.2378      -389.2808      -423.4012      -434.3888      -440.2091
      -476.7898      -495.9698      -506.9055      -516.0608      -531.1975
      -554.5444      -598.1580      -619.7811      -602.5513      -606.0197
      -633.0105      -653.1267      -666.9550      -665.6641      -681.6946
      -697.6736      -708.4736      -718.4431      -720.6926      -721.6162
      -738.5908      -750.2349      -766.4902      -767.0994      -749.5220
      -767.5767      -784.5996      -770.5859      -778.2671      -787.7534
      -774.1189      -772.0750      -796.7534      -778.6785      -767.2595
      -781.1719      -776.8174      -763.8098      -761.2886      -757.4551
      -772.2844      -763.3513      -759.6523      -759.4409      -753.6606
      -746.7119      -745.6282      -747.9941      -741.6538      -725.9163
      -727.5962      -714.5737      -725.8213      -736.8066      -716.2854
      -699.1687      -703.8848      -690.4529      -688.6831      -696.1414
      -691.4182      -672.9182      -661.1509      -658.4375      -663.6235
      -657.3867      -657.0349      -625.1202      -614.7070      -637.2537
      -621.1440      -606.1699      -616.9783      -602.4764      -602.0601
      -607.1897      -584.4578      -573.6401      -608.8965      -585.6130
      -556.3906      -565.1062      -555.0654      -574.0923      -583.2058
      -539.6293      -525.4585      -546.0847      -555.6257      -530.8538
      -528.7827      -521.7524      -518.0718      -524.4711      -525.0610
      -522.0959      -535.0276      -546.8026      -554.9373      -570.8025
      -550.9178      -433.1533      -352.6482      -443.8405      -587.8346
      -574.8505      -515.4664      -453.7737      -418.4611      -447.8361
      -394.9595      -323.0735      -500.4143      -852.1527      -750.8511
      -186.3404       113.6331      -56.25928      -572.6487      -920.4878
      -799.3362      -614.9257      -39.17877       497.5259      -249.0969
      -646.3816      -569.2356      -766.0819      -281.3733       22.49146
      -24.30228       121.1124      -303.8975      -827.6453      -356.3949
       43.41748      -184.7559       40.30800       64.16162      -220.9684
      -163.6449      -156.9840      -40.92987       137.1774       172.7238
       53.09253      -236.6753      -291.1085       93.64722       440.7853
       211.1888      -43.14392       76.12427       373.3861       93.58304
      -279.1289       375.9705       630.5206       230.5406       258.3159
       131.3249       4.177368       235.9226       400.0403       526.2219
       547.2383       170.6339       256.3571       548.2820       218.3573
       176.7509       553.1714       628.1251       649.0714       444.6072
       68.64453       422.0381       742.3784       597.3562       508.0840
       375.8127       625.2871       727.9436       670.1927       578.4092
       353.9666       577.1467       845.8154       910.2329       782.8555
       511.0824       597.3074       791.7529       700.4949       665.8918
       670.7188       860.3411       946.7107       562.9128       789.4380
       1160.371       915.4673       517.8574       602.4358       1106.300
       1295.161       955.5173       580.3159       846.0947       943.4792
       681.2869       944.1323       1160.472       1143.919       1046.333
       953.0771       893.6707       920.6892       947.6948       922.5923
       1157.863       1085.181       821.2097       1011.433       1158.147
       952.0449       877.2207       1054.101       996.6152       1079.124
       1039.341       976.4519       1140.762       1086.796       1017.208
       1099.352       1190.146       811.0906       544.8247       1179.643
       1399.447       930.9175       948.2305       1096.810       929.2637
       1024.344       1001.960       838.9414       1074.365       1054.240
       855.5186       1002.557       893.9609       738.3567       922.5642
       1025.438       944.3123       785.2354       742.9614       805.1123
       836.9355       940.3191       880.8564       718.1680       655.3379
       545.6080       480.5393       837.5574       944.1848       507.0557
       552.1741       572.0048       509.1942       732.9980       390.4902
       297.0468       616.4871       482.2516       342.7933       310.6978
       385.3140       471.5106       294.3704       237.4315       227.9913
       57.38242       112.2200       230.6013       53.47178      -48.73409
       80.40056       26.54004      -187.2981      -141.4911       171.7112
       37.84052      -344.3902      -196.0730      -142.8922      -494.7727
      -519.4490      -266.2803      -343.9319      -557.8303      -370.3809
      -286.9236      -590.3157      -718.9919      -808.5835      -796.3079
      -593.0098      -693.2778      -863.9033      -793.3625      -758.0818
      -925.3950      -1035.244      -1110.410      -1036.568      -773.8833
      -996.0791      -1344.457      -1260.179      -1093.559      -1155.851
      -1239.380      -1285.586      -1380.617      -1223.740      -1151.600
      -1498.930      -1548.135      -1295.333      -1469.844      -1572.164
      -1489.304      -1639.760      -1480.118      -1322.491      -1666.641
      -1739.959      -1446.940      -1410.861      -1617.664      -1805.831
      -1495.240      -1186.535      -1578.973      -1713.858      -1516.781
      -1622.313      -1711.065      -1619.381      -1445.122      -1350.295
      -1466.553      -1651.203      -1650.930      -1493.283      -1529.562
      -1433.359      -1093.679      -1202.935      -1516.164      -1541.620
      -1264.581      -1140.787      -1406.000      -1349.469      -1205.910
      -1249.375      -1287.510      -1339.192      -1207.822      -998.8770
      -1140.989      -1185.705      -958.6331      -1062.218      -1155.010
      -1008.576      -1036.612      -1013.183      -868.4326      -821.8699
      -984.5115      -970.3701      -777.3013      -765.0786      -703.0256
      -751.1262      -847.6395      -600.2158      -544.1461      -615.2839
      -579.4854      -674.7419      -594.0933      -262.4935      -345.8713
      -759.8528      -570.1320      -89.23364      -329.8972      -574.4694
      -378.3416      -236.4823      -108.4129      -48.50635      -146.1622
      -284.0338      -193.9142       39.17090       3.540009      -143.7276
      -77.85248       71.01410       259.7599       264.9801       74.96130
       198.4369       292.9022       193.6464       184.2291       181.3699
       169.6978       396.7834       620.3333       484.0578       259.2461
       416.5189       624.7589       322.0062       464.2979       860.7480
       725.1257       700.3611       548.2343       560.7224       927.4409
       873.6425       636.4116       550.1787       708.7725       1052.297
       1066.668       972.0359       726.0205       584.7168       1258.014
       1463.154       837.2327       887.1235       1238.003       1249.819
       1236.851       1066.526       940.2021       1191.509       1389.863
       1269.086       1102.006       1237.965       1499.843       1489.608
       1220.197       1158.435       1389.193       1507.722       1492.506
       1496.018       1586.151       1437.435       1052.162       1293.927
       1700.435       1556.074       1433.243       1449.569       1502.424
       1603.122       1426.255       1311.794       1603.412       1749.271
       1454.259       1302.905       1556.288       1561.499       1274.805
       1338.867       1378.602       1389.607       1637.812       1575.623
       1506.936       1347.490       1234.909       1479.729       1442.911
       1448.726       1381.553       1104.528       1278.761       1471.658
       1193.873       1057.147       1214.811       1145.686       1193.312
       1209.275       919.4832       1194.953       1308.113       875.2715
       960.7546       854.1704       619.1306       825.5154       1011.298
       897.8550       723.6477       895.6941       849.7290       562.9921
       394.7678       609.0629       726.7615       293.4594       148.5237
       494.3729       735.7664       325.4615      -105.0026       107.4489
       376.5392       188.2436       13.92728      -45.19658      -68.22238
       112.4021       15.30438      -229.6556      -311.1396      -257.4173
      -24.66443      -226.5289      -625.5530      -467.9114      -261.5289
      -265.9512      -451.5713      -776.7102      -722.4106      -569.6062
      -683.7852      -666.0898      -659.3477      -672.2405      -708.7700
      -879.8027      -1031.793      -1123.072      -721.4448      -581.0664
      -1112.717      -1190.139      -967.0894      -1013.794      -1120.998
      -1079.506      -1111.125      -1175.297      -1012.258      -1053.772
      -1372.233      -1461.252      -1127.031      -1021.746      -1260.455
      -1211.976      -1275.381      -1331.654      -1183.562      -1301.766
      -1458.368      -1424.146      -1116.344      -1128.065      -1638.613
      -1796.154      -1327.743      -859.9541      -1166.828      -1697.195
      -1422.978      -825.5984      -1039.221      -1317.280      -1376.644
      -1537.034      -1280.932      -1274.138      -1319.446      -1230.946
      -1376.932      -913.7310      -877.1743      -1729.594      -1638.044
      -1282.960      -1055.116      -821.9287      -1357.228      -1457.761
      -969.0002      -921.8623      -937.9106      -735.8896      -777.9971
      -1426.324      -1411.212      -227.9211      -224.2651      -1677.793
      -1866.465      -999.3068      -491.1777      -445.8325      -841.3662
      -833.0292      -605.8149      -791.4985      -1169.856      -1533.771
      -1031.112      -31.49402       355.3751       64.79858      -628.5908
      -1071.790      -792.4553      -78.65503       1022.532       1378.482
      -222.4473      -1748.764      -1590.146      -390.5020       1049.693
       1203.972      -267.9594      -1068.569       416.4226       1558.598
       468.8633      -996.8152      -1270.762      -65.23218       878.8033
       429.0128      -123.9669       419.1279       836.8451       233.1216
       1162.850       2455.797       902.4617      -1310.565      -1206.365
       521.3694       1380.226       715.8286      -224.8447      -286.3325
       691.0415       1360.989       1339.418       745.7073      -188.4694
       244.7534       1358.803       1106.737       653.1093       515.0696
       14.34998      -15.85986       720.5100       1214.713       843.8074
       359.7529       314.7720       175.9624       515.7659       1141.033
       651.3677      -75.59729       347.1765       862.9523       614.0189
       423.9109       784.2407       1482.205       1373.052      -448.6896
      -1288.052       690.4756       2174.515       720.9874      -666.3257
       474.0012       1268.415       454.4053       96.27869       310.4667
       420.6150       505.9219       839.0801       914.4407       570.6741
       528.2870       594.1066       224.8391       269.3945       857.3995
       565.6307       129.1567       435.3149       701.0627       913.3378
       662.4188       26.58228       347.2544       1032.426       821.0436
       433.9456       120.5720       290.4170       923.4901       751.3091
      -17.69916      -173.0713       759.1643       1212.500       705.4111
       516.3696       223.9501       283.7092       1022.478       918.7437
       136.2827       6.726929       362.1433       455.0339       686.3721
       830.3448       143.9755      -82.38062       546.4961       386.8787
       103.4678       745.1068       788.1635       260.7926       330.3268
       440.9583       105.1982       240.1700       586.4738       213.2099
       143.9940       529.6889       352.6324      -156.0197      -91.63562
       415.7145       424.1776       132.1927       176.5941       497.8284
       457.4452      -240.0758      -280.3693       586.8387       430.3646
      -374.4949      -261.4263      -69.77740      -301.5839      -168.8646
       42.52069      -104.5479      -243.8727      -284.3439      -181.8345
       390.3669       575.4131      -217.0513      -933.4038      -552.2040
       372.4533       115.0239      -835.7424      -716.8467      -427.2008
      -283.7394       10.31787      -456.4082      -983.6498      -660.3434
      -49.68028       218.4470      -181.2812      -768.0627      -550.3604
      -78.63696      -283.6270      -689.2091      -603.7986      -301.9185
      -463.3022      -767.9556      -801.1144      -714.8959      -456.3365
       16.65356      -193.3137      -978.5583      -870.5386      -193.4108
      -188.4729      -485.0807      -278.0751      -141.9767      -288.3512
      -200.0465      -191.1130      -407.6521      -428.2015      -330.0199
      -373.1024      -302.3678      -78.21990       45.33313      -137.3181
      -485.8839      -527.3902      -362.2208      -71.54846      -44.83887
      -484.8024      -316.7815       237.2118       181.6365      -264.2419
      -265.8659       114.2837       212.6828       38.50269      -127.4020
       291.7410       681.5901       17.22064      -452.5906      -2.190796
       303.1537       72.09418      -315.6666      -197.9985       291.6744
       184.2764      -331.0437      -609.6075      -174.9991       444.6122
       391.3196       215.0977       191.8644       155.1498       390.1000
       429.8705      -11.07312      -98.90305       89.02710       282.1080
       491.8536       401.4044       63.73157       26.41833       249.9292
       117.9299      -244.2771      -220.0490       147.1295       207.1039
      -255.6719      -454.7939       125.6868       458.0479       210.1092
       67.74188       132.7183       275.4206       92.53523      -112.8138
       174.7119       401.4008       30.27802      -292.5363      -5.257355
       216.6149       42.69241      -58.53625      -25.96656      -8.415512
       59.18693       46.99365      -101.0354       14.22458       14.72681
      -437.9152      -575.4993      -395.7137      -197.0495      -82.87009
      -84.74449      -53.50430      -93.34583      -79.40125      -275.2283
      -589.8212      -417.0355      -274.6590      -371.5602      -210.1060
      -63.83240      -247.3861      -527.6022      -261.2604       131.4283
      -327.0172      -732.2432      -456.0098      -363.7064      -483.0024
      -470.5487      -475.1134      -477.2026      -295.4832      -234.7576
      -668.4075      -840.7012      -236.8480       136.0859      -199.9393
      -528.7772      -438.0074      -211.5433      -20.51874      -80.34448
      -274.4362      -247.6391      -250.0630      -393.0138      -385.4188
      -250.4968      -271.5801      -545.0371      -819.9524      -693.7155
      -243.4601      -175.9069      -259.8688      -194.6993      -388.4822
      -593.3220      -456.5280      -152.8311      -65.96216      -159.7957
      -83.62903      -106.3389      -268.3694      -180.8462       8.699036
       106.8240       99.74219      -50.66394       20.64111       4.585754
      -282.3071      -281.9556       95.31909       360.7216       173.9976
      -45.25131      -75.29764      -125.2819      -92.11865       47.11707
       168.1591       201.9683       123.2246       64.48639       162.0239
       203.8570       279.7485       371.5620       293.9971       234.7997
       217.8706       128.6418       73.47107       176.0811       370.0637
       364.6273       247.7979       343.0745       546.9367       374.4724
       146.2990       430.0735       617.0946       524.6757       556.4099
       602.7607       570.3340       537.8036       532.0736       464.0190
