     0.02500000      -2489.975       2246.532      -12345.00      -12345.00
      -30.00005       215.9249      -17.20000      -12345.00      -12345.00
       0.000000       12.65000      -12345.00      -12345.00      -12345.00
      -12345.00      -12345.00      -12345.00      -12345.00      -12345.00
      -12345.00      -12345.00      -12345.00      -12345.00      -12345.00
      -12345.00      -12345.00      -12345.00      -12345.00      -12345.00
      -12345.00      -31.60370      -68.72130       995.0000       0.000000
      -31.06700      -68.46300       0.000000       100400.0       0.000000
      -12345.00      -12345.00      -12345.00      -12345.00      -12345.00
      -12345.00      -12345.00      -12345.00      -12345.00      -12345.00
       64.38452       202.3787       22.51238      0.5788934      -12345.00
      -12345.00     -0.3648157       0.000000       90.00000      -12345.00
      -12345.00      -12345.00      -12345.00      -12345.00      -12345.00
      -12345.00      -12345.00      -12345.00      -12345.00      -12345.00
      2008       164        19         3        55
         0         6    -12345    -12345      9838
    -12345    -12345    -12345    -12345    -12345
         1         7        13    -12345    -12345
    -12345    -12345    -12345    -12345    -12345
    -12345    -12345    -12345    -12345    -12345
    -12345    -12345    -12345    -12345    -12345
         1         1         1         1         1
ZOND    -12345          
        -12345  -12345  
-12345  -12345  -12345  
-12345  -12345  -12345  
-12345  -12345  -12345  
-12345  -12345  -12345  
-12345  -12345  BHN     
ZL      -12345  -12345  
[...]
       728.6250       716.3706       745.0105       708.9050       691.4398
       692.6903       665.7246       648.4569       648.1099       637.0974
       636.7803       606.9607       584.9700       572.7811       554.4399
       542.0894       526.3118       495.1595       504.0364       495.7766
       425.4062       426.0128       462.8999       412.1078       363.6931
       364.3713       360.7491       343.7868       303.8641       278.8781
       267.7972       226.8174       210.8881       211.5064       193.3710
       175.5991       155.0304       150.6642       122.8798       53.67413
       66.57373       111.5347       52.37132      -3.075731       11.85245
       3.889150      -4.229382       5.969177      -58.88971      -102.1136
      -72.46744      -66.74191      -98.48880      -112.7015      -110.6504
      -127.0072      -167.6115      -180.5765      -154.0615      -145.7442
      -209.3000      -243.4061      -219.3627      -209.1816      -220.7827
      -241.6487      -276.8063      -280.1665      -291.1386      -304.8824
      -302.2441      -325.5594      -356.0630      -331.7546      -339.3701
      -388.6084      -408.5295      -394.8500      -405.4586      -400.5586
      -405.8723      -430.5796      -437.9325      -446.5894      -469.0559
      -461.6111      -449.9514      -452.4586      -485.1787      -491.7515
      -481.3630      -502.0815      -507.3779      -492.7074      -488.0554
      -483.8872      -496.0217      -478.1896      -473.6858      -496.1989
      -498.0127      -494.7329      -495.9022      -504.1460      -515.4012
      -490.0161      -482.7783      -488.5664      -477.8760      -461.7190
      -434.1827      -433.5903      -458.1691      -452.2235      -446.7263
      -441.7236      -420.1188      -405.1577      -417.8088      -418.0775
      -396.3785      -370.0209      -376.6704      -381.9727      -353.0354
      -345.6179      -364.7161      -360.0867      -337.8520      -330.7838
      -337.5411      -332.1261      -327.1478      -323.0963      -321.1489
      -309.5681      -296.3506      -283.8616      -274.6365      -285.4769
      -286.0852      -253.7983      -268.9714      -283.5580      -271.9077
      -251.3354      -238.6756      -228.1027      -238.4222      -251.2434
      -249.0105      -244.6859      -242.0801      -218.3427      -212.8561
      -231.8861      -230.0648      -199.3879      -188.2004      -205.8100
      -218.9907      -189.5625      -201.4391      -232.2221      -196.1324
      -169.8352      -186.4600      -179.2615      -173.2385      -161.4059
      -151.9073      -138.4478      -140.3258      -157.2890      -149.1960
      -118.1452      -122.8884      -107.6979      -102.2230      -126.4763
      -115.6065      -90.08887      -117.0410      -125.2583      -106.7186
      -110.1913      -119.9471      -100.2916      -94.57007      -110.9867
      -114.0800      -110.6124      -120.9096      -123.4196      -128.7463
      -133.4498      -122.7886      -126.6750      -147.1908      -138.5259
      -141.0975      -165.6040      -181.6449      -149.2377      -129.2615
      -164.7539      -202.1815      -206.9662      -202.9734      -204.2582
      -206.5336      -204.0275      -210.8000      -215.9048      -208.9818
      -213.9459      -216.7876      -231.5074      -237.1445      -228.9850
      -242.4930      -244.4666      -233.3188      -229.7856      -230.4838
      -251.0809      -255.2565      -220.3597      -204.3025      -210.1512
      -208.9659      -220.2671      -224.5908      -200.5382      -190.2513
      -190.1013      -170.7488      -171.0602      -173.0192      -128.3496
      -112.8522      -176.7625      -214.6643      -136.9796       3.266861
      -13.85822      -126.1320      -84.89992      -50.36669      -60.49287
       8.188953       4.511177      -55.76221       162.0164       340.6165
      -15.02740      -257.9899      -37.83154       253.0071       401.0107
       364.2690       204.5230       59.44690      -223.0902       69.20093
       869.4407       396.7113      -64.08948       721.1848       374.1273
      -295.5818       348.7561       532.7272       539.7043       661.5625
       228.1479       348.5640       525.3932       181.9807       358.2255
       648.2329       624.9640       434.5586       366.9817       451.7860
       317.6819       599.7644       681.1270       368.8572       601.0669
       865.7273       526.9808       226.4485       440.1361       436.6619
       433.0134       790.0698       961.5065       614.8174       312.4507
       470.3270       557.9211       703.4989       643.8533       492.1182
       627.9872       588.6333       708.5146       594.8354       283.7202
       1031.106       1091.717       8.842529       337.8657       868.7748
       549.7910       742.1572       603.6256       324.1038       888.6530
       829.5381       368.7729       624.9166       649.4136       244.2234
       483.9875       985.7252       535.4016       90.14771       607.6091
       959.8472       343.0400       223.0034       682.5024       671.4241
       494.7719       372.7788       322.7893       372.4557       573.0842
       441.3610       211.2899       386.4722       548.3046       426.3391
       55.61450       251.8820       374.9745       74.79797       337.5352
       455.9484       168.7552       102.2452       142.9615       105.7366
       239.6018       206.0358      -201.2488      -19.75745       332.2555
      -91.61755      -316.3752       79.94344       99.24619      -32.43721
      -11.87531      -178.8612      -271.1682      -94.36658      -175.2672
      -318.4447      -75.81915      -184.3472      -330.9847      -98.69531
      -333.8984      -495.4048      -287.9116      -224.1948      -449.6096
      -475.4954      -308.4664      -325.8214      -367.3658      -480.4446
      -672.4163      -554.7742      -208.6658      -434.0743      -716.4672
      -480.5686      -440.9882      -488.6216      -522.3940      -651.0244
      -724.4248      -693.0963      -516.6704      -439.7644      -564.3630
      -559.5287      -601.8989      -813.3674      -764.1610      -563.1111
      -558.6807      -442.5631      -492.8267      -1011.722      -856.7632
      -267.5286      -619.2749      -922.9465      -532.9844      -521.8945
      -738.4395      -608.7363      -691.1160      -701.3132      -486.3999
      -716.1323      -824.5088      -622.7281      -635.4817      -663.4426
      -665.5801      -535.4880      -546.7190      -668.0088      -496.5471
      -403.1213      -777.0327      -810.3188      -389.7949      -505.6548
      -702.2460      -548.6707      -470.6150      -330.9045      -452.5020
      -687.4539      -507.0782      -202.0854      -285.1541      -567.1462
      -575.6372      -299.3752      -281.9507      -351.6233      -288.6361
      -428.4025      -404.2707      -202.8366      -172.5314      -213.8068
      -247.2075      -125.1355      -76.16003      -93.08209      -90.45023
      -94.55791      -33.67310       21.77969       97.72581       102.8308
      -114.6754      -162.7651       262.8938       233.6323      -223.5466
       129.9233       512.7037       296.7786       77.88832       17.04044
       43.18982       203.3846       379.7866       151.7050       123.5902
       650.6680       530.1391       46.28857       300.4648       512.1146
       341.5475       300.0574       333.2642       502.1807       433.8645
       289.8672       501.8512       480.6743       253.6802       322.3428
       545.1519       733.2267       618.0129       223.1013       404.3558
       725.7747       362.2017       464.8571       752.4344       472.5673
       365.5601       567.2559       589.9717       468.9587       606.9800
       749.2144       680.4631       651.2914       492.1693       442.7385
       594.7705       698.4603       574.8333       482.5305       489.6306
       571.3789       935.9302       889.4705       492.6804       619.2623
       691.3623       568.2830       534.5142       682.8037       637.1576
       411.8601       767.7517       989.4979       558.4894       326.3867
       599.3022       860.9875       736.4082       553.0941       479.1355
       719.2017       858.3721       526.0831       377.6981       560.8771
       661.8123       596.4209       559.8320       482.8571       410.1100
       559.5396       533.2065       403.3574       560.3420       710.9302
       408.6542       229.2993       583.5651       476.8882      -61.00586
       219.1168       677.3794       286.4709       99.39575       374.4474
       291.2691       253.0814       256.8672       64.42078       141.9952
       174.7339      -102.4130       134.3760       267.8861      -169.1934
      -62.53467       197.4114      -36.13655      -30.18613      -18.68372
      -264.9915      -68.41376       212.5139      -91.48523      -476.4830
      -369.4905      -103.7054      -60.19904      -220.2722      -456.6569
      -534.4757      -309.0022      -122.5529      -281.9360      -302.9823
      -368.9424      -604.3772      -375.1208      -209.3146      -579.9722
      -547.9027      -279.2073      -396.1881      -520.3008      -688.2971
      -705.1187      -297.9257      -247.4241      -619.2234      -786.6122
      -603.3882      -495.5153      -466.6118      -344.6198      -474.3125
      -820.7058      -783.8550      -425.3394      -422.6501      -745.2332
      -811.4821      -678.5479      -639.8296      -611.5137      -672.7258
      -740.6813      -559.9111      -619.6506      -694.7546      -415.7344
      -721.9941      -1015.525      -490.8047      -469.6736      -773.2039
      -816.0898      -883.1433      -807.3157      -762.4382      -812.3320
      -731.6675      -677.8602      -622.9941      -607.7285      -719.7617
      -768.4574      -676.6239      -582.1829      -542.0442      -700.3413
      -854.2070      -775.2593      -516.6462      -512.7832      -695.9331
      -737.9817      -645.0012      -384.7859      -481.0295      -817.7924
      -523.9021      -253.9427      -483.8635      -469.4700      -523.7488
      -785.4148      -497.0160      -370.1268      -420.6956      -99.34216
      -429.9006      -798.1362      -362.3021       7.080933      -36.48401
      -343.4017      -434.3704      -483.7192      -394.4411      -84.67517
      -138.6961      -317.9990      -172.3178      -110.6470      -3.794388
       18.29736      -272.6392      -123.8018      -26.17676      -197.8497
      -1.401245       37.83980      -47.33704       118.2742       163.7785
      -28.55203       32.87711       143.7788      -24.38113       31.18677
       291.5487       279.2541       155.1797       158.1467       187.9720
       267.7268       420.2255       316.9838       274.7301       379.2885
       208.7344       77.58093       352.6636       742.2355       513.8248
       114.4294       272.4302       643.0914       539.6844       58.50562
       218.2161       771.6392       719.5254       415.1675       366.8059
       446.9399       749.7708       646.1079       299.3064       486.7051
       726.7515       646.8048       330.1719       280.3584       690.4556
       946.7654       510.6216       304.4844       706.9009       679.1809
       712.3674       1046.011       823.7544       306.8483       346.4916
       613.1858       745.5552       666.1716       563.0332       863.7595
       653.9146       216.8928       575.2180       789.4556       766.2854
       745.8788       566.1401       427.4612       1.586548      -254.7935
      -154.6612      -149.4604       44.70332      -5.850525      -28.73486
       761.8433       1254.601       1739.940       1965.361       1168.466
       904.8616       702.2766       233.7908       165.4482       443.1497
       1080.228       1681.990       1179.264      -633.9619      -909.4783
       445.6810       741.8919       63.70236      -182.9292       775.5610
       2246.532       2035.641       315.2978      -14.68896      -38.95825
      -1044.003      -190.3986       594.2709      -686.6439       91.08179
       1652.081       766.7378       982.3481       1996.602       897.7490
      -352.4351      -845.2697      -772.9609      -367.2131      -772.4956
      -1228.179      -387.9863       1239.502       1463.367       860.0608
       779.6808      -101.7012      -945.2785      -295.7009       625.0249
       406.6864      -214.8288      -107.6674       87.41713       146.3822
      -136.2729      -930.3818      -1240.438      -725.8353      -8.067261
       627.7231       184.5356      -1411.292      -1568.179       103.0468
       857.4717      -87.63525      -905.7607      -575.2012      -590.6162
      -1456.130      -753.5801       627.7045      -66.09399      -717.2798
      -504.4131      -1598.178      -2489.975      -915.7863       843.1708
       314.2217      -1170.966      -1435.363      -803.1808      -245.8022
      -195.1772      -620.7549      -858.5012      -527.7986      -374.6880
      -1260.819      -1962.338      -1387.723      -732.2305      -281.6893
      -225.8591      -1143.553      -1349.896      -808.8976      -726.4212
      -257.0345       120.0833      -358.7307      -806.1372      -952.4268
      -942.5909      -362.0417      -482.4973      -1231.214      -730.3755
      -512.2993      -1044.738      -947.4004      -701.5776      -549.2616
      -449.7927      -637.9106      -1013.421      -1050.679      -348.9463
       101.2202      -552.0547      -1195.859      -1105.535      -499.3443
       41.20239      -50.34082      -437.0587      -453.3662      -672.9006
      -1232.334      -929.1030      -256.7987      -242.5837      -312.5225
      -315.4033      -842.1719      -1269.184      -903.8136       27.60486
       701.4909       107.5769      -834.3685      -548.3698       174.9971
      -23.44629      -603.0221      -425.8646       197.1732       472.2522
       150.5626      -523.2465      -99.76758       545.2642       35.07138
      -156.0544       403.6768       389.8538      -585.3524      -570.9868
       215.5129       331.7902       509.8748       210.6087      -237.4507
       475.3450       953.3684       390.0453       364.2011       422.1336
      -198.0520       473.9729       1338.631       392.4343      -618.6078
      -43.18945       1102.558       1489.391       1046.236       303.5514
       234.6201       280.8359       350.3157       1132.958       1235.249
       326.9031      -42.94226       437.4805       1048.852       1126.253
       914.3457       1125.769       855.5168       196.4797       451.2495
       924.4790       694.3293       794.5630       1064.083       677.0386
       673.2754       1172.428       1236.164       724.3398       496.2200
       839.0864       543.4584       57.85681       378.8685       609.9102
       782.0371       1115.091       1189.999       1102.006       910.4214
       1071.184       1276.653       849.5424       566.3936       421.5593
       372.4487       1128.309       1103.259       158.8789       445.3833
       1303.364       1188.858       545.0914       5.642822       149.6963
       953.7261       1275.325       1037.258       718.8138       561.8555
       752.9756       1110.750       1220.896       702.5886       56.20282
       124.3340       602.7881       577.6617       412.7257       401.3571
       9.349243      -172.4189       358.5512       470.4940      -1.875000
       268.8267       969.8834       677.7712      -69.14819       108.5924
       617.4668       454.4932       133.8903       186.0682       279.7303
       117.4357       150.4408       267.4844       219.6908      -9.717651
      -448.6741      -274.6492       258.7303       122.8773      -73.63104
       251.2863       316.0710      -120.1016      -106.1489       152.2046
       73.92297      -189.1578      -346.5826      -250.6160      -161.1727
      -165.7209      -348.9755      -512.0515      -289.2690      -363.1030
      -556.8175      -277.2554      -70.59485      -183.9375      -510.6848
      -626.4749      -667.1287      -920.3401      -783.8328      -586.1631
      -572.9409      -272.9359      -30.61084      -310.1702      -640.2773
      -604.6041      -317.0312      -422.1213      -874.3564      -720.2669
      -181.4325       167.6383       173.6299      -484.3335      -931.4314
      -484.0186      -242.7019      -394.7190      -490.6248      -856.7568
      -847.7266      -308.8499      -216.4567      -370.1880      -163.1303
      -126.0718      -416.5827      -384.4061      -234.0846      -355.4565
      -306.7666      -222.7589      -321.9417      -594.3037      -886.3225
      -693.6846      -349.9026      -486.7793      -826.7578      -778.0066
      -574.2526      -428.6567      -440.0999      -707.0344      -704.3145
      -490.0428      -414.4678      -307.0767      -180.5776      -332.7360
      -505.0627      -604.4548      -745.4316      -847.7454      -659.3011
      -260.8055      -247.4553      -419.6455      -450.6467      -424.0299
      -291.7086      -460.3503      -710.9634      -765.9062      -862.4690
      -839.4988      -640.7346      -510.6996      -461.6108      -478.6042
      -478.4131      -295.8915      -206.9949      -323.0483      -386.0370
      -431.4417      -449.9738      -516.4761      -481.8737      -282.6738
      -272.8879      -573.9001      -610.2732      -129.8666       87.57684
      -214.8805      -358.2415      -403.4333      -417.6343      -380.4956
      -500.7621      -439.9938      -284.1240      -263.8123      -160.3411
      -212.0386      -243.8373      -234.5178      -379.1213      -599.7734
      -538.9310      -47.07236       176.6191      -22.76630      -100.3184
      -239.3475      -332.5240      -64.07544       305.3076       150.1877
      -444.7083      -322.1907       204.7798       116.3438       56.39307
       43.35468      -332.6362      -190.2904       437.3272       326.4645
      -247.7654      -297.8087       68.96088       213.1267       89.47205
       74.92944       207.2098       122.1844       72.00800       255.7107
       514.7617       620.7424       441.4005       243.9092       373.8303
       638.7296       393.0154       21.37158       131.0349       324.7670
       307.8713       135.6950       122.9654       303.7776       388.7866
