     0.02500000      -1649.948       2256.654      -12345.00      -12345.00
      -30.00005       215.9249      -17.20000      -12345.00      -12345.00
       0.000000       12.65000      -12345.00      -12345.00      -12345.00
      -12345.00      -12345.00      -12345.00      -12345.00      -12345.00
      -12345.00      -12345.00      -12345.00      -12345.00      -12345.00
      -12345.00      -12345.00      -12345.00      -12345.00      -12345.00
      -12345.00      -31.60370      -68.72130       995.0000       0.000000
      -31.06700      -68.46300       0.000000       100400.0       0.000000
      -12345.00      -12345.00      -12345.00      -12345.00      -12345.00
      -12345.00      -12345.00      -12345.00      -12345.00      -12345.00
       64.38452       202.3787       22.51238      0.5788934      -12345.00
      -12345.00      0.3795509       90.00000       90.00000      -12345.00
      -12345.00      -12345.00      -12345.00      -12345.00      -12345.00
      -12345.00      -12345.00      -12345.00      -12345.00      -12345.00
      2008       164        19         3        55
         0         6    -12345    -12345      9838
    -12345    -12345    -12345    -12345    -12345
         1         7        13    -12345    -12345
    -12345    -12345    -12345    -12345    -12345
    -12345    -12345    -12345    -12345    -12345
    -12345    -12345    -12345    -12345    -12345
         1         1         1         1         1
ZOND    -12345          
        -12345  -12345  
-12345  -12345  -12345  
-12345  -12345  -12345  
-12345  -12345  -12345  
-12345  -12345  -12345  
-12345  -12345  BHE     
ZL      -12345  -12345  
[...]
       433.9924       444.6118       468.5082       463.7493       436.3977
       450.2130       492.0906       480.3165       454.1799       456.9963
       479.3710       480.5623       454.6974       469.7434       488.7693
       458.0225       462.8740       489.1544       459.0671       447.5985
       469.7223       466.6705       472.4923       477.9958       450.1981
       449.0929       489.3611       462.2964       429.7328       453.9648
       455.1929       411.9846       426.1514       463.3782       427.0339
       399.6389       399.8662       371.2831       393.1987       409.9220
       364.9114       339.0427       343.5569       327.1872       289.0121
       266.6619       292.6143       287.1385       243.7655       225.1121
       235.6629       229.7595       196.1353       163.4504       152.5993
       145.8885       143.4432       114.7943       83.10458       79.77354
       51.18517       21.27332       21.51337      -6.263618      -24.45019
      -31.62753      -49.54184      -64.18890      -92.81299      -135.3820
      -148.7391      -151.6711      -178.4658      -219.7904      -256.2127
      -256.5329      -246.7083      -278.5935      -307.3077      -311.5663
      -324.0122      -344.2261      -370.4128      -400.0303      -426.3921
      -442.3652      -453.0994      -496.6670      -519.8975      -502.5110
      -528.9155      -573.8560      -591.1143      -582.8474      -593.3480
      -625.8340      -624.0679      -650.3101      -696.9534      -704.4312
      -705.3352      -722.4846      -723.1870      -726.2295      -748.6919
      -760.7642      -749.1060      -755.8247      -773.3972      -797.3569
      -805.9409      -818.0420      -812.1467      -802.7168      -810.9233
      -838.3149      -830.5952      -823.5598      -834.1177      -844.3169
      -823.5835      -825.0615      -847.2429      -855.8066      -847.5005
      -856.4973      -838.5369      -828.0051      -833.8398      -836.1699
      -823.8259      -822.8853      -805.7654      -790.1870      -784.1235
      -798.7717      -795.2332      -771.8711      -750.8215      -748.8271
      -725.9849      -701.5737      -689.8365      -685.4957      -669.6881
      -655.9099      -638.1394      -622.4592      -603.9714      -575.4636
      -540.7563      -547.3706      -530.4250      -485.3776      -459.4504
      -457.6703      -433.0577      -405.4076      -394.2743      -371.0289
      -337.7155      -330.0352      -322.4266      -273.6725      -230.5188
      -228.5862      -210.8567      -183.9196      -159.8520      -129.3950
      -107.4629      -86.43685      -49.03680      -15.03086      -8.430466
      -2.628571       43.58366       79.94443       75.68195       98.08231
       142.8403       155.4419       168.9941       201.0532       215.4981
       218.0555       240.6938       266.5825       274.3348       280.5053
       295.3480       301.3376       318.4303       342.4489       352.5547
       372.0627       397.2266       395.4156       399.7952       421.0228
       424.5959       408.8429       419.0215       451.0828       455.2461
       462.0461       476.7356       477.8488       465.0710       441.4585
       442.6227       457.7471       461.8116       456.5939       463.1405
       474.8962       476.5763       467.2782       446.5684       433.1833
       442.5930       448.1357       447.9882       446.4858       435.9763
       435.2385       440.2615       430.9938       447.1355       479.9100
       441.9622       370.2654       357.0579       432.2947       497.4062
       478.3143       447.9463       401.5987       312.1764       307.2002
       378.1764       477.7435       580.0222       728.5566       569.0996
       224.7833       144.9218       203.7349       402.0918       683.0925
       808.5928       803.5192       213.9777      -233.0654       531.1143
       856.9258       500.9067       775.9644       584.2520       79.78809
       305.0942       600.9418       669.6693       593.4580       437.2021
       785.6592       874.7061       309.7047       316.0312       573.2382
       392.3691       441.8862       911.1479       818.7772       307.6470
       505.3821       617.8423       601.2051       684.3977       476.2289
       469.0892       446.3687       586.0894       941.7423       457.4197
       18.19263       587.1001       835.7900       440.9292       442.5623
       657.5564       622.6588       361.7114       399.6145       659.1335
       446.9789       317.8182       468.6927       398.7260       606.2148
       608.7389       82.01038       335.5957       668.1384       398.6708
       398.1277       240.5081       232.7324       436.4362       326.7532
       452.0190       477.6941       42.79814      -70.63269       224.7067
       563.8965       314.8693      -73.81842       168.4753       273.8104
       119.5370       177.6572       119.3108       6.488525      -195.2765
      -145.5490       443.4642       397.0933      -247.5484      -379.1654
      -15.96631       181.0022      -96.51538      -313.2297      -189.8593
      -66.05182      -212.1601      -108.6365      -8.872559      -283.8497
      -344.6960      -253.5989      -205.5120      -272.9208      -249.0703
      -240.1464      -559.1303      -290.1108      -12.32617      -419.7981
      -459.4203      -264.3237      -321.1261      -358.0931      -318.8933
      -271.9510      -435.8625      -623.4739      -518.0158      -236.5229
      -243.7726      -475.8389      -499.5972      -322.4211      -359.9377
      -439.9489      -397.0999      -463.1626      -290.0134      -240.8188
      -565.1350      -572.7698      -480.3033      -490.4896      -339.7739
      -60.16370      -157.6259      -619.7682      -645.0624      -260.6168
      -225.5298      -405.7322      -497.0458      -410.7661      -231.8229
      -373.3312      -436.2551      -143.3673      -217.2944      -373.4658
      -409.5270      -499.1133      -417.1166      -182.0565      -259.4756
      -404.5643      -347.8523      -357.8430      -316.6620      -148.2606
      -256.5492      -330.8492      -184.0974      -317.4788      -459.7615
      -276.9965      -252.9895      -224.5515      -302.0944      -439.7782
      -148.9736      -120.5725      -375.6982      -195.8824      -239.2742
      -363.4528      -198.3722      -201.8412      -340.6581      -384.4177
      -291.6322      -195.6356      -253.6613      -273.1583      -201.3576
      -252.9417      -394.7349      -345.8864      -199.5999      -166.7180
      -303.1813      -205.1776      -197.4020      -473.7217      -395.3347
      -281.6451      -240.4601      -103.7789      -318.2046      -436.7413
      -306.6465      -484.3237      -538.2153      -194.5732      -140.9736
      -363.1639      -315.6644      -193.2804      -366.6083      -472.2335
      -446.8479      -354.4650      -297.6721      -476.3024      -568.6577
      -436.8982      -347.2537      -495.8284      -463.1853      -189.1248
      -418.0817      -547.2965      -354.9578      -374.0133      -432.3894
      -548.8621      -565.5401      -339.0702      -244.9763      -412.8828
      -641.4873      -544.7939      -532.5570      -620.7687      -383.9250
      -270.7722      -479.7458      -622.3501      -705.3574      -630.5321
      -435.1027      -484.9307      -544.6389      -518.0884      -507.9059
      -454.5825      -599.3369      -564.4116      -307.4702      -398.4412
      -496.6299      -362.1490      -436.9597      -539.8267      -573.8236
      -538.8976      -400.7588      -409.0583      -268.5782      -76.60681
      -201.3735      -267.3099      -451.7715      -504.0948      -248.7106
      -126.3061      -27.60809      -81.64606      -237.5722      -169.0058
       56.48389       135.0544       11.52010      -84.21150       2.838684
       152.6019      -27.73487      -41.53619       192.4948       288.7626
       424.3605       367.9119       184.2847       376.0773       467.9106
       228.7314       296.8459       536.1562       489.2842       395.6387
       399.0439       650.5317       838.1199       630.7974       636.7388
       750.6470       707.5361       641.2744       597.9504       802.3032
       1005.114       861.2285       758.4150       827.9287       859.6841
       947.4165       964.9507       844.5002       825.2290       1083.742
       1047.823       736.1360       938.2000       1172.971       984.1311
       969.7749       1004.231       882.2993       1006.268       1074.304
       1131.129       1307.360       1260.621       1109.162       922.0361
       819.1606       1004.447       1185.816       1099.665       1005.157
       979.2590       937.2124       989.6914       1045.939       1125.756
       1189.874       1090.028       870.3179       794.2241       1045.598
       1081.069       746.4783       772.0032       1063.228       915.4629
       699.8982       813.0737       816.9785       785.5503       878.5046
       810.6205       655.9412       524.5654       584.6448       802.7974
       679.3481       372.6631       566.2397       823.1206       533.9275
       366.6323       422.1030       372.1252       471.1858       453.7246
       316.2308       430.5966       428.1602       181.4216       140.9943
       348.8618       372.5225       96.68079       74.51868       223.4191
       154.8417      -72.88808      -71.97006       185.0778      -30.85516
      -44.61755       373.7317      -118.0099      -465.9440       11.92442
       30.47592      -179.7699      -145.4261      -213.7083      -243.6319
      -90.36389      -177.0642      -388.9222      -316.3084      -155.8617
      -198.0022      -474.1924      -513.5949      -252.8644      -240.8582
      -489.2590      -571.1912      -414.8708      -299.1771      -376.2844
      -425.9556      -476.8287      -611.8840      -490.5341      -290.2852
      -558.5288      -856.7653      -587.8257      -412.1633      -669.7820
      -629.1960      -600.7444      -748.3210      -562.0977      -590.3884
      -736.0149      -659.3511      -770.5193      -893.3223      -694.9072
      -538.1033      -703.5964      -802.7520      -772.1152      -678.5704
      -621.6533      -639.9946      -756.7046      -930.1541      -942.0889
      -776.3748      -473.6152      -621.7666      -995.6040      -773.8369
      -571.7253      -829.5151      -807.7642      -673.4312      -763.2979
      -580.1646      -565.1438      -753.9292      -750.2214      -739.7050
      -653.6221      -542.1252      -598.4265      -631.5129      -587.8630
      -606.1653      -649.8517      -471.4434      -297.5216      -627.8813
      -707.5748      -506.1433      -595.7314      -494.2375      -417.7108
      -456.0819      -298.6943      -444.5901      -581.3859      -304.4301
      -327.2089      -509.2810      -503.8666      -413.8740      -184.4452
      -275.9810      -454.2377      -303.1956      -318.3005      -443.6982
      -430.7041      -282.4601      -103.6931      -422.7758      -672.1472
      -285.5945      -356.7668      -551.3568      -330.1699      -339.3857
      -329.1380      -273.6842      -149.0048      -110.0498      -625.9866
      -801.0919      -453.5114      -9.251312       364.3677      -425.3435
      -1139.499      -569.3295      -74.45563      -95.38062      -466.9643
      -305.9050       155.5369      -432.1381      -447.1191       305.8016
       180.3792       97.66052       567.4507       222.1660      -1172.862
      -1608.805      -676.2191      -382.3274      -373.5487       136.4044
       256.2849      -325.7178      -1346.173      -1649.948      -866.1143
      -272.3323       254.3314       661.9159       154.3374      -373.2483
      -643.7351      -577.3776       425.0354       1021.466       248.4355
      -811.9856      -1270.013      -998.4416      -24.18750       785.8878
       764.7878       517.5330      -124.1731      -739.8127      -221.7407
       263.4184      -58.36035      -505.3828      -747.9067       82.46851
       891.3828       470.8928       647.0774       757.4630     -0.4671631
       14.37891       692.0071       240.1467      -912.8633      -211.1494
       1383.478       1106.650       107.8868       378.4946       607.9022
       182.4427       54.35229       442.6255       796.5564       389.7024
       368.3545       1306.413       1638.880       865.5479      -246.7933
      -167.4126       913.9893       1278.142       964.3040       441.4600
       386.1411       728.6622       506.3154       642.4856       1124.576
       1073.725       691.2660       401.8416       605.9792       463.1033
       447.6528       1433.354       2028.983       1411.505       308.4756
      -1.770508       543.8938       864.5083       594.3274       349.7842
       1270.015       2256.654       1038.557      -233.7271       87.68018
       535.6243       934.1470       1196.115       1228.491       812.1479
       424.2174       524.5132       254.4648       656.5874       1385.145
       680.6432      -208.0713      -282.3898       94.23633       885.7092
       1223.483       644.1027       269.7767       464.7139       809.3533
       720.3088      -6.667969       149.0981       974.1873       625.8516
      -197.9081       147.6270       807.8735       602.9011       470.7151
       401.1698       102.4766       392.2020       447.2021      -43.86560
       41.38110       385.6069       294.1579       214.7134       345.0659
       366.2019       378.5338       287.8116       41.77577      -37.28357
       97.83398       590.7408       637.6607      -139.7971      -283.1210
       212.2000       102.8497      -34.38028       206.9697      -25.24277
      -24.07251       523.5034       505.2561       216.4331       147.8209
      -141.0274      -242.2133      -5.405029       305.2950       471.9987
      -71.46997      -425.6954      -225.2615      -169.2617       72.23370
       304.1199       239.0471      -131.4955      -586.1406      -602.1459
      -429.2778      -214.8191      -276.1876      -513.7017      -123.5505
       370.8553       69.16724      -556.8063      -416.0990       263.5845
       77.06262      -609.7342      -392.8536      -108.9948      -463.0654
      -728.8071      -624.2876      -280.4802      -349.9317      -423.0699
       30.87891       81.92041      -683.4202      -967.8529      -214.1779
       244.6912      -143.8215      -487.4859      -199.9114       164.1577
      -310.7720      -996.4528      -801.2196      -320.5552      -185.5325
      -87.42749      -278.0942      -703.2920      -580.6705      -154.8834
      -67.47913      -314.1398      -501.8497      -525.6229      -430.0119
      -314.9220      -93.78479       183.3408      -53.96460      -567.7393
      -639.8577      -298.6238       43.48309       303.0470       335.4493
       13.52283      -548.0817      -499.9331       201.8031      -243.9070
      -1137.723      -765.3482      -183.6954      -225.7520      -350.7594
      -295.6194      -314.4928      -584.5449      -563.1407      -230.9207
      -4.813187       180.1456      -231.1626      -653.9111      -426.7437
      -368.3892      -372.7838      -110.0277       78.34818       150.1080
      -45.79370      -271.9529      -229.9018      -98.87299      -73.34912
      -303.2929      -392.8646      -225.2466      -252.8649      -253.3308
      -306.3744      -482.7854      -473.9407      -576.8690      -483.1789
       62.95808       117.1967      -187.6183      -224.3167      -116.3931
      -112.6648      -245.8951      -280.1893      -129.9329      -257.2335
      -506.9497      -297.6460       156.3597       212.1250      -434.1218
      -900.6961      -388.4996       255.5757       41.34045      -403.3910
      -160.3000     -0.3697510      -309.7981      -418.2743      -242.6474
      -88.38335      -71.44202      -23.99774       87.96466       180.4062
       161.8181      -2.216919      -200.6050      -332.3314      -91.26460
       73.85876      -158.2129      -166.7230      -126.5021      -263.8832
       32.47015       339.4195       68.74399      -79.46375      -14.72449
      -218.8503      -200.8408      -56.43509      -125.6882      -30.50488
       186.3077       362.1927       310.3235       140.0348       137.1785
      -78.50446      -262.9584      -95.25055       46.03735      -250.9219
      -350.5021       6.022385      -29.76378      -90.13739       193.3120
       99.77750      -63.70752       128.1817       258.8550       211.7367
       165.2767       135.3297       280.3483       361.2327       156.1753
       20.94119       22.25507       140.6606       294.0259       203.2602
      -97.22766      -336.2678      -411.8408      -330.4300       48.69867
       202.3494      -28.26343      -76.32697      -22.19656      -95.52747
      -4.682800       177.2311       196.2323       62.25925      -194.4531
      -79.70190       325.9221       155.4885      -155.7275       79.38257
       252.8622      -139.7169      -248.5426       158.8275       212.2027
      -36.79333      -86.51852       6.646484       151.8824       180.8721
      -14.24365      -219.1982      -243.5534      -120.0876      -3.580383
      -197.1705      -210.5775       118.6845      -2.491577      -261.9504
      -74.73080       120.7748       107.4153       195.8737       295.9852
       209.7770       93.76410       58.79059       203.8478       169.5067
      -51.68719      -145.8995      -61.17303       138.7143       154.2248
       159.9454       228.8223       165.3540       70.40846      -64.68835
       185.2913       379.5952       156.2757       283.1882       258.7143
       18.39313       167.2877       128.9139       157.9908       273.0877
       103.7167       40.52378       14.39606       6.805664       340.1360
       355.6040       24.94409       128.1284       342.0609       289.0425
      -26.68994      -241.8180       63.64922       174.1104      -124.9374
      -165.2847      -12.49182       161.1475       356.8046       224.4237
      -58.43439       70.09937       288.9867       148.4291       90.50673
       44.16335      -5.579376       160.5653       87.71729      -240.5743
      -213.3340       122.0651       227.0198       158.1345       155.7027
       88.92389       77.68146       129.5042       141.5167       281.1494
