     0.02500000      -34969.93       37553.70      -12345.00      -12345.00
      -30.00001       223.4250      -25.55000      -12345.00      -12345.00
       0.000000       19.68000      -12345.00      -12345.00      -12345.00
      -12345.00      -12345.00      -12345.00      -12345.00      -12345.00
      -12345.00      -12345.00      -12345.00      -12345.00      -12345.00
      -12345.00      -12345.00      -12345.00      -12345.00      -12345.00
      -12345.00      -30.40760      -69.24540       1968.000       0.000000
      -31.59500      -68.73200       0.000000       105100.0       0.000000
      -12345.00      -12345.00      -12345.00      -12345.00      -12345.00
      -12345.00      -12345.00      -12345.00      -12345.00      -12345.00
       140.4804       339.4403       159.7035       1.263064      -12345.00
      -12345.00      0.1652005       90.00000       90.00000      -12345.00
      -12345.00      -12345.00      -12345.00      -12345.00      -12345.00
      -12345.00      -12345.00      -12345.00      -12345.00      -12345.00
      2008        13        10        50        52
       950         6    -12345    -12345     10138
    -12345    -12345    -12345    -12345    -12345
         1         7        13    -12345    -12345
    -12345    -12345    -12345    -12345    -12345
    -12345    -12345    -12345    -12345    -12345
    -12345    -12345    -12345    -12345    -12345
         1         1         1         1         1
ARRO    -12345          
        -12345  -12345  
-12345  -12345  -12345  
-12345  -12345  -12345  
-12345  -12345  -12345  
-12345  -12345  -12345  
-12345  -12345  BHE     
ZL      -12345  -12345  
[...]
      -919.6809      -949.4639      -978.7637      -955.4111      -966.3091
      -968.2451      -1004.339      -1015.382      -1037.289      -1022.460
      -1019.080      -1010.394      -1043.586      -1026.237      -1024.199
      -1043.954      -1079.846      -1041.214      -1021.887      -1023.465
      -1069.082      -1097.184      -1196.003      -1324.280      -1496.529
      -1490.263      -1337.628      -1251.785      -1448.407      -1792.271
      -2067.654      -1726.600      -996.5649      -1208.992      -1846.010
      -406.3240       234.0327      -1697.701      -1242.193       1273.550
      -293.5330      -1853.473       1348.785       1478.670      -1725.627
       90.26953       3098.312      -1805.954      -3511.451       4279.417
       4201.862      -2295.904      -220.1240       4181.898       567.0923
      -3744.328      -463.7659       1852.946      -2397.717      -1193.551
       457.3076      -3621.702      -2250.963       1560.622      -416.2725
      -3365.467      -1817.455      -1367.012      -1659.631       681.6709
       1615.479       5024.530       3925.949      -3031.429      -2708.396
       1271.763       2992.184       941.5032       135.8564       2093.988
       1445.264       1657.847       1455.506       145.0093       524.3843
       1236.067      -281.1780      -2035.660       1723.926       3038.943
      -2122.305       894.3057       6608.427       643.0273      -5239.033
      -1738.507       1591.316       1199.819       2886.609       4551.555
       1252.318      -1761.327       1605.929       4696.699      -409.9238
      -1456.080       4489.108       3854.152       986.0518       1875.130
       1051.325      -69.41162       685.0830       1436.060       1373.337
       662.5234       753.3008       2701.409       3291.538       151.6287
      -583.1416       1817.758       2677.247       3056.697       2000.743
      -299.9546       526.3057       4270.111       4508.177       1185.096
      -921.9700      -1280.999       806.4961       3277.692       3453.947
       3020.833       1555.950       347.0791       2635.391       1315.536
      -3207.677       415.1641       6049.106       4175.291      -50.06015
      -73.93628       548.4874       600.6680      -380.0732      -3777.939
      -1930.522       2243.589       1418.188      -1318.711      -2460.195
       2083.606       5493.970       643.4092      -2273.722       385.5964
       848.7477      -18.89587      -698.0728       840.0684       3826.963
       826.6729      -2780.633      -1361.111       147.8989      -1258.702
      -3254.428      -1798.985      -185.6942      -298.7341      -1057.855
      -1986.724      -1619.989      -1452.910      -1209.926       777.3652
       395.3772      -1651.564       39.67676       2897.918       2405.244
       60.26752      -338.4053       843.5216       1106.476      -907.3784
      -1323.358       508.0723      -2266.726      -4278.172      -1749.906
      -1413.849      -2460.369      -1566.232      -763.8403      -2201.118
      -1972.018       108.8359      -2378.285      -4571.405      -1169.811
       801.5192      -505.6045       383.6458       1589.969       493.8658
       234.9009      -407.0957      -4635.372      -4992.052       173.4399
       1522.196      -465.0465       462.2988       14.95898      -1324.748
      -241.1069      -1380.162      -2720.169      -1162.090       1881.597
       1000.896      -2860.923      -1454.832       466.6836      -1879.104
      -2704.086      -993.5903      -1011.327      -1581.426      -767.5229
       918.2935       1300.385      -670.0742      -1994.740      -1507.766
      -2315.112      -3189.459      -1279.780       887.0698       1121.060
       1037.059       1515.771       1722.239       697.5620      -514.1309
      -1452.965      -1693.649      -557.2417       431.7111       548.4109
       644.9561       1945.864       3108.622       2185.264       1158.568
      -165.2842      -1235.824      -505.5312       2255.007       4537.406
       2026.196      -1303.610      -939.9570      -680.6406      -1780.963
      -1394.850       1481.768       1405.880      -580.7261       1744.864
       3573.487       3009.305       3196.238       2129.262      -265.9897
      -1326.280      -212.9072       44.49100      -393.5217       304.7747
       54.64160      -1575.078      -1493.964       861.7168       2736.148
       2374.246       302.8279      -1257.513      -800.3303      -274.2370
      -475.1042       550.4360       1930.668       1090.976      -24.62024
      -525.7347      -336.1887      0.8974609       1364.003       1840.248
      -807.8412      -817.9155       1578.445       1312.741      -522.4883
      -1571.308      -890.4524      -739.0039      -1332.698      -319.4191
      -241.8513      -622.8828       987.1299       2421.867       1691.378
      -418.8000      -1225.961      -342.7664       712.5117      -1193.748
      -1934.487       460.8927       124.9183      -1082.968       404.1636
       1556.194       836.3477       642.5466       1044.322       1157.986
       1628.882       956.2676      -149.0928       83.63037      -368.8145
      -2892.726      -2433.068      -222.1270      -2372.445      -2288.533
       1809.440       1911.567       327.8169      -890.0676      -1294.593
      -974.3379      -2459.276      -1174.854       2447.275       1645.151
      -998.2148      -1452.232      -1119.866      -2349.822      -3169.646
      -2698.477      -3418.239      -2136.237       968.9434       771.4834
       777.8568       656.8416       90.10962      -338.1279      -2926.424
      -2248.503       313.7498      -1303.161      -1404.393       1251.768
       763.2876       80.55713       2096.468       1639.987      -1306.616
      -1443.568       193.9902      -780.4673      -1352.681      -875.5420
      -2306.886      -1456.125       471.6514      -1863.182      -2987.971
      -1743.102      -1997.714      -1099.502      -9.968750      -1144.292
      -462.8804       1395.454       1740.858       2401.451       2670.608
       1787.772       52.87891      -2420.700      -1540.665      -223.1880
      -1493.219      -1763.428      -2747.909      -4170.991      -2746.843
      -618.3165       569.5833       462.4155       671.0983       1376.292
      -1293.994      -3696.283      -1019.019       929.3402       212.3838
       831.7310       2599.835       1892.067       696.7915       995.2515
       836.0424       324.2861      -623.8022      -373.5109       747.8179
       32.99512      -1078.106      -112.0703       3387.085       2587.402
      -1840.320      -2212.046      -722.6880      -844.7864      -784.4080
       871.8186       1289.991       392.5635       1388.541       2217.225
       638.6458      -1438.995      -433.6808       655.0552      -623.3792
       84.36621       2903.273       3558.323       2231.943       2931.646
       5597.881       4027.212      -1254.716      -1316.140       1002.812
      -1472.756      -2196.648      -142.5317      -638.7368      -1464.991
      -1071.263      -1215.118      -803.7184       342.2217       1119.461
       1941.885       2400.387       2159.338       1925.399       277.1030
      -1163.837      -1030.729      -1143.755       1007.278       2644.059
       1148.534       594.3374       1590.017       3160.231       2976.040
       2410.945       2308.205       604.0118      -340.9608       320.4138
      -384.8340      -2298.878      -3158.883      -1096.445       471.9038
       369.9106       965.1101      -967.2998      -3059.914      -1287.587
       328.5145       250.3816       470.4937       1443.999       3243.751
       4290.712       2504.634       1270.790       2538.229       2220.669
      -131.5479      -1135.774      -1238.741      -826.9497      -1035.281
      -824.8101       1679.161       1426.773       8.089844       2032.045
       2611.020       950.6685       629.7529       2198.735       2328.555
       328.9092      -2347.429      -2019.078       1102.440       856.5934
      -203.0078       459.8379       1494.140       1318.873       680.5322
       2365.011       1360.972      -1650.389       152.2017       1994.621
       907.3730       3063.584       2253.614      -2043.856      -1184.247
       74.85864       134.9349       480.4224      -1539.089      -1272.772
       507.0830      -1123.593      -1750.513       394.7214       60.36670
      -1089.899      -279.5671      -785.0291      -173.5256       1438.147
      -626.2322      -1653.780       497.5190       438.3223      -1371.652
      -2020.390      -2063.600      -2161.671      -2594.666      -1754.493
      -661.0046      -1350.610      -836.1448       367.0439      -1232.313
      -1475.939      -327.6031      -141.7644       513.0983       981.4548
      -178.8613      -2180.699      -1865.323       267.0300      -59.64111
      -1725.748      -396.8267       1235.416       146.3564      -427.2593
       199.8762       889.0732       1108.958       1377.545       1720.924
       766.7070      -1414.782      -2274.211      -888.4088      -30.84607
       49.26953       1170.281       729.5583      -634.5383       28.40485
       13.62982      -599.7223       189.7463      -393.3032      -1758.088
      -1512.220      -336.8314       465.1907       763.9526      -306.5479
      -1677.737      -1746.336      -1096.668      -1326.333      -1958.297
      -1256.451       1099.147       2348.417      -240.6768      -2198.439
      -1006.129      -934.5483      -1460.993      -966.2655      -143.9441
       882.2362       921.5125      -373.8779      -1498.330      -868.3828
       535.6953      -292.4824      -1246.096      -1427.103      -1655.270
      -1049.757      -217.2376      -103.1536      -347.2529      -1399.644
      -2286.700       366.4653       2627.289       813.3550       762.3032
       1801.930      -5.655029      -730.2705       1024.980       944.9161
       272.9614      -504.6445      -1554.165      -1731.553      -3942.270
      -4383.343      -1077.105       1376.731       2711.818       1205.154
      -226.3633       1560.502       2106.849      -689.1260      -2210.817
      -985.7095      -957.0173      -899.8462       639.8643       1380.000
       2067.698       3433.750       2498.668      -1571.486      -1759.883
       1925.856       3746.891       3374.572       1608.493       175.8162
      -144.7988      -1765.099      -3558.420      -3631.027      -3223.710
      -1544.472       179.1792       661.1582       1996.949       3359.600
       3415.428       1020.362       110.1404       764.1851      -716.0405
      -920.0527      -406.7168      -775.5923       508.5083       2059.083
       1750.967       1433.734       2174.345       1090.724      -960.8652
      -893.5229       653.0186       1251.528       1233.326       959.6367
       367.1979       84.08380      -13.41046      -177.4185       904.0088
       2817.760       2782.388       1987.349       1013.906      -381.6608
      -14.36572      -557.9578      -1273.596      -994.7310      -1063.765
      -350.1584       1102.874       156.9897      -2891.951      -1795.843
       1755.758       1281.668      -187.4202      -91.99292      -379.2803
      -1179.943      -1292.538      -745.6055      -297.8150      -273.2111
      -170.8914       305.2812       2021.371       2301.777      -1098.226
      -2000.911       714.4321       1262.473       812.6060      -686.9067
      -2645.878      -1596.499       902.0089       1074.923      -1264.685
      -2692.382      -2214.647      -1199.165      -177.3352       519.3320
       1720.873       2265.066       981.6255      -197.5866      -32.44849
      -329.3893       32.43213       1459.666      -368.7124      -2217.300
       130.6348       315.8979      -1563.002      -1376.121      -1176.620
      -1987.144      -3418.166      -3575.137      -1422.634      -565.0347
      -1748.276      -813.2183       1241.053      -119.9451      -663.4316
       924.6223      -183.2678      -919.6016       1931.189       1298.658
      -3359.529      -4305.533      -2812.431      -4305.637      -6597.532
      -4657.963      -2045.096      -4972.029      -8384.031      -7129.941
      -5817.484      -8687.254      -10252.77      -6833.050      -1161.812
       4764.205       6938.139       6818.447       7396.396       6259.367
       8484.000       12424.24       10508.78       7699.237       6505.034
       1006.699      -7123.543      -14914.11      -19867.84      -20081.44
      -18394.37      -15544.75      -11169.81      -5779.619      -231.6016
       10251.67       24151.94       22123.90       7882.289       5467.438
       9594.371       4618.949      -830.8970       735.3242       6271.203
       17564.00       30222.84       37553.70       36354.40       21708.81
       6986.853       1514.180      -10325.30      -24056.73      -23775.04
      -24992.69      -34969.93      -34520.59      -21604.78      -10576.63
      -1947.242       11119.51       27330.34       33956.45       23664.98
       10146.61       6171.059       8318.701       8501.340       3712.425
      -2089.312      -5731.500      -7890.199      -12245.45      -18480.25
      -12970.62       4244.174       10638.84       8362.809       13300.80
       15840.96       7997.963       194.1992      -4722.162      -8876.459
      -8810.791      -2837.260       3398.258       6561.889       6079.969
      -2714.238      -10993.60      -7710.883      -6818.482      -11452.31
      -4007.219       6467.295       6401.410       6439.683       6013.347
      -422.0459      -5041.021      -3502.640      -2052.450      -1998.830
      -403.0381       2553.246       9162.598       16478.62       17618.52
       11108.62      -198.5176      -6243.248      -5620.914      -6735.189
      -7453.246      -4677.161      -2624.086      -5192.818      -10541.21
      -8188.986      -4091.169      -7677.396      -870.4141       13595.35
       11201.71       4144.750       9054.217       12293.82       3971.707
      -5004.766      -13018.96      -18652.13      -11528.79      -3988.133
      -5751.004      -6427.502      -5704.031      -4199.838      -1792.414
      -4634.316      -7134.646      -3404.123      -40.90039       1134.119
       5105.363       11327.41       12337.07       2687.990      -6517.652
      -3041.990       1802.875       2410.928       1298.971      -553.5760
       1094.917      -454.7246      -9081.107      -10456.26      -5517.000
      -5547.844       2370.191       14643.35       9721.876      -573.1049
      -28.61572       1319.353      -3419.916      -3413.376       14.21887
      -51.05322      -451.9941      -3494.233      -5977.286      -1803.440
       3800.348       3804.827       775.4883       3842.801       11310.34
       15173.84       8117.043      -1899.582      -3095.727      -7127.188
      -14596.87      -11677.04      -3744.738       1216.051       1482.916
      -2233.186       638.8906       9898.027       11189.62       9567.330
       8128.894       204.9492      -5301.781      -7607.043      -12717.18
      -14711.61      -13336.96      -14327.19      -15991.47      -14524.29
      -10841.41      -6914.663      -453.7109       5383.980       5773.582
       10884.06       18924.49       18895.08       19205.75       20384.80
       11028.43      -2580.619      -4892.862       1653.497      -1820.266
      -12206.59      -12766.38      -8901.670      -7090.901      -1335.582
       2922.641       1121.351       2915.461       6274.507      -25.52734
      -5273.363      -909.4033       2239.832       3234.479       4620.100
       3524.648       4436.957       7862.869       6177.963       2709.996
       6788.238       11988.00       7104.802      -117.7480       1800.778
       4279.215      -1435.354      -6924.227      -872.7344       9948.463
       10770.00       4785.238       2888.211       49.46094      -5169.447
      -2832.684       530.0410      -2242.492      -422.5273       5554.206
       6126.290       1325.418      -5657.371      -8971.465      -8980.102
      -10675.30      -8973.119      -5409.729      -6489.556      -6697.634
      -1723.354      -626.8604      -4584.297      -4426.646      -3745.695
      -6706.473      -5957.695      -3434.024      -2543.687       1369.786
       2710.447      -92.09662      -414.8989       738.0643       1378.331
      -1536.185      -3612.617       1853.656       7461.170       7609.936
       6863.753       3533.229      -667.4600       2588.691       6958.431
       2161.568      -4220.729       482.3672       8479.465       3014.408
      -7810.157      -5046.704       4595.283       3833.316      -272.7000
       1215.921       1202.304       816.4307       1113.491       409.9001
      -165.9844      -3372.996      -3246.883      -1703.840      -8332.398
      -16611.99      -11887.48       814.6641       4455.615       4320.361
       7254.484       6502.092       5584.918       6349.240       4526.011
       2240.282       116.3340      -3431.580      -7434.902      -7808.737
      -5218.432      -3649.046      -735.9125       1749.858      -2037.054
      -4237.879       3889.021       9966.752       8117.301       8942.381
       9878.721       3578.606      -1884.678      -1911.476      -2286.757
      -2329.468       1571.913       3150.221      -1359.674      -4086.199
      -4746.748      -7063.680      -3109.810       3437.206       2299.344
       539.8325       2142.771       1511.848       2063.800       3864.035
       3535.884       2972.230      -2655.473      -9606.977      -8055.574
      -6791.951      -10030.99      -9626.426      -7037.438      -8033.465
      -9086.711      -4001.863       3128.279       6842.613       5883.139
       454.6548      -1873.011      -1003.137      -4058.590      -9130.758
      -10984.63      -13100.22      -16552.28      -13724.65      -5809.273
       1126.913       4275.324       7588.016       19242.26       30417.28
       26846.81       15624.82       10865.89       9190.465       3806.606
       190.7114       1763.253      -385.5996      -6561.830      -8555.428
      -8355.580      -7872.096      -7294.471      -6177.489       707.6133
       6436.545       4314.217       5797.812       11515.21       10874.95
