     0.02500000      -37369.94       30569.19      -12345.00      -12345.00
      -30.00001       223.4250      -25.55000      -12345.00      -12345.00
       0.000000       19.68000      -12345.00      -12345.00      -12345.00
      -12345.00      -12345.00      -12345.00      -12345.00      -12345.00
      -12345.00      -12345.00      -12345.00      -12345.00      -12345.00
      -12345.00      -12345.00      -12345.00      -12345.00      -12345.00
      -12345.00      -30.40760      -69.24540       1968.000       0.000000
      -31.59500      -68.73200       0.000000       105100.0       0.000000
      -12345.00      -12345.00      -12345.00      -12345.00      -12345.00
      -12345.00      -12345.00      -12345.00      -12345.00      -12345.00
       140.4804       339.4403       159.7035       1.263064      -12345.00
      -12345.00      0.2776712       0.000000       90.00000      -12345.00
      -12345.00      -12345.00      -12345.00      -12345.00      -12345.00
      -12345.00      -12345.00      -12345.00      -12345.00      -12345.00
      2008        13        10        50        52
       950         6    -12345    -12345     10138
    -12345    -12345    -12345    -12345    -12345
         1         7        13    -12345    -12345
    -12345    -12345    -12345    -12345    -12345
    -12345    -12345    -12345    -12345    -12345
    -12345    -12345    -12345    -12345    -12345
         1         1         1         1         1
ARRO    -12345          
        -12345  -12345  
-12345  -12345  -12345  
-12345  -12345  -12345  
-12345  -12345  -12345  
-12345  -12345  -12345  
-12345  -12345  BHN     
ZL      -12345  -12345  
[...]
      -868.5105      -854.2280      -853.5273      -837.6084      -808.0366
      -794.2056      -798.3723      -769.6897      -733.1443      -702.5942
      -701.8130      -712.1643      -694.5381      -649.3628      -635.7668
      -634.6382      -612.6157      -566.5803      -547.3750      -541.0204
      -504.0360      -423.0995      -342.2886      -223.2715      -74.48486
       30.24960       24.58997       17.61078       57.27271       172.7762
       331.0532       364.9358       281.0027       458.0841       612.6206
       157.6624      -453.1528      -736.2500      -698.9888      -978.3459
      -1370.029      -653.1884      -319.9312      -949.8760       12.37036
       384.4023      -2000.584      -1902.871       274.9556       526.4156
       865.7332       256.9048      -1489.317      -962.0431      -520.9048
       576.0737       1943.913       468.2668      -641.3143      -569.6567
       444.8271       1548.546       1175.385       2230.244       2640.545
       479.8760       1381.360       2116.834      0.9028320       1587.765
       3449.740      -794.7852      -1774.551       2155.217       1783.494
       74.69678      -1164.436      -1502.342      -1982.879      -4754.755
      -4454.094       154.9922       2374.444      -270.3311      -1710.080
      -738.2959      -2109.767      -2244.359       849.5479       2809.056
       2983.850       1362.155       459.8232       1152.345       1865.066
       3402.229       3907.723       1425.094      -470.0283      -733.9651
      -989.0815       1027.820       1388.575       301.8340       1816.931
       1206.123      -802.9517      -1410.415      -2015.818       376.9131
       3389.793       2550.100       1754.627       1333.442      -712.5679
      -1852.770       117.2207       1925.918       927.1094       1205.943
       2270.949       1366.200       481.3461       145.3599       1473.607
       2380.184      -221.6748      -1761.605       301.8013       1427.821
      -150.2759       432.2961       1065.947      -1210.792      -2888.978
      -2842.485      -105.9697       2242.167       767.7546       790.5742
       2107.401       300.0154      -1088.917       1156.621       2797.768
       1923.621       1890.862       413.7090      -283.5518       1880.925
       1631.427       291.3372      -1147.128      -1134.056       1121.101
       1138.012      -60.83789      -895.8350      -2466.966      -1413.633
       885.9844       1409.819       3197.037       3843.670       2389.430
       2557.988       1344.884      -2.201904       1129.869       799.4436
       862.7184       916.9980      -2042.599      -2119.554       608.6006
       10.10034      -1614.012       169.7729       2693.753       2537.830
       1308.164       573.7083       167.9526      -2155.745      -3456.142
       126.3662       1758.367      -1390.710      -2991.994      -478.4750
       989.2552       18.30078       595.7627       1882.564       2346.583
       1574.854      -1737.144      -2323.996       980.3145       1401.424
       1607.279       5196.903       4565.481      -1211.325      -3858.000
      -2490.107      -1467.895      -1124.624      -1631.136      -2730.938
      -2187.437      -1641.998      -710.7520       1529.631       2046.485
       469.3381      -1202.547       342.1382       3081.498       691.1079
      -83.94043       3315.885       1541.595      -793.4382      -356.7334
      -1957.129      -1607.405       291.7119      -1215.598      -1426.927
       703.5193       406.6418      -1096.058      -91.63501       1719.459
      -393.4399      -2251.593       103.5164       986.3202      -557.3564
       204.4780       1787.286       1608.333       1386.240       604.6812
      -1302.181      -611.0345       735.9545      -639.4602      -332.4458
      -143.6890      -2556.604      -1539.116       1306.188      -444.6504
      -962.2034       1502.640      -312.8682      -3053.147      -2230.770
      -1301.053      -2051.680      -1337.697       189.6534      -452.2164
      -835.6609       317.6895       1924.444       2115.317       1006.663
       1403.369       53.30078      -2238.212      -1481.149      -544.6714
      -1544.272      -2504.336      -972.8210      -240.9280      -1158.970
      -398.9028       644.7275      -684.7134      -1759.542       286.7817
       1209.922       616.9167       1610.888       401.7144      -1263.978
      -177.6846      -1027.174      -2079.585      -523.1118      -40.50598
      -163.0620       179.6865      -656.7498      -990.9039      -90.19165
       736.8337       718.8308       416.1460      -464.9272      -969.3376
       637.3579       491.8076      -1691.400      -2570.468      -1185.781
      -430.3604      -999.9482      -94.46631      -565.6433      -1492.410
       406.0229       966.7490      -1615.506      -1729.419       1534.804
       1906.120       1748.986       3508.812       1377.259      -1833.123
      -976.5602       708.8693       315.3877      -1486.497      -1033.796
       1029.035      -326.2949      -2837.100      -3402.703      -3187.218
      -2755.618      -2665.659      -2102.879      -861.5637      -965.8462
      -1876.448      -1033.994       242.8870      -985.2195      -1910.083
       1046.017       1899.716      -815.9336       494.6279       2882.650
       381.4724      -1854.209       182.6987       642.4492      -2216.176
      -1271.523       315.5889      -2418.996      -2186.536       3.310059
      -1496.842      -2306.691      -1103.038      -734.0129      -511.8497
       192.5513      -785.3257      -2368.494      -757.4065       1771.925
       417.3813      -1862.954      -2095.535      -2618.540      -2105.393
      -480.3130       892.6895       2768.405       3361.881       1540.337
      -229.3369      -863.6432      -393.8589      -210.5947      -2286.987
      -1471.760       1009.389       66.05322       831.2061       2362.009
       617.6580      -134.2589       274.5001      -673.2008      -164.3555
       1387.620       408.7458      -1138.076      -1203.476      -651.8521
      -1838.735      -1304.511       2878.000       2184.720      -872.2324
       497.5322       2549.155       1313.903      -352.8442       1300.174
       2293.056       1578.576       775.6969      -267.3538      -4.351562
       627.6914       319.2104       1209.686       1290.537      -1345.274
      -1966.177      -425.5569       1145.188       1476.837       1081.195
       2557.068       4205.671       4145.195       1582.567       336.1079
       1584.891       985.4236       160.5591       1440.223       2972.317
       1396.019      -26.25098       1413.181       564.2970      -1121.977
       540.0664       2407.889       770.9433      -392.9172       1209.243
       1646.931       1747.592       3247.031       3210.184       1932.487
       1027.976       479.4708       179.5359      -924.9876      -649.4517
       993.1157       696.0455       392.9272       1183.748       606.9092
       508.8872       1139.951      -288.8164      -1101.681      -714.2985
      -790.9967      -55.47949       1525.740       1635.665       636.2323
       73.55737      -975.1040       208.5244       2326.260       1170.406
      -24.58459      -235.4434      -1532.391      -3178.967      -1803.743
       906.1647       5.703003      -739.4510       261.9463      -100.6335
      -252.7073       363.8696       1687.531       1634.763       8.526123
      -803.0862      -1225.590      -350.0605      -355.0244      -2752.542
      -2118.408       2027.945       3875.150       1342.721      -2697.797
      -2766.570      -672.0693      -2059.018      -3986.950      -2717.453
      -605.4021       836.9688       2348.098       2267.045       255.7451
      -919.7344       324.5043       513.3245      -307.2070      -1927.708
      -4817.815      -4057.835      -2333.491      -2262.896      -403.5244
       930.0612       306.3296      -221.2871      -2021.888      -4473.951
      -3869.504      -818.7987       208.1067      -520.9634      -998.4771
      -743.1556       163.7500      -1255.032      -3078.380      -1920.765
      -798.9375       58.62891       2008.173       2124.772       918.9053
      -261.1704      -1906.245      -1876.973      -950.3438      -1421.254
      -2020.328      -1234.119       982.2905       1516.637      -105.4058
       1483.652       3175.466       808.0142      -163.3701       1818.307
       2634.819      -173.0981      -2686.711      -2379.275      -1999.626
      -1553.453       180.9189       1781.659       1236.957       800.9297
       3138.406       3495.935       864.6060       1044.711       3092.758
       1991.858      -27.65210      -167.9348      -921.6812      -1178.496
       212.6523       1084.866       755.7457       234.3796       923.3477
       1615.288       2354.224       4302.609       4192.021       2591.381
       2303.367       1479.451      -190.5991      -11.52686       2121.096
       1853.898       655.4863       1442.792       1868.576       1583.686
       1023.404       714.5132       2458.967       3025.476      -338.1160
      -1862.509       361.5371      -102.3721      -2227.964      -501.9126
       722.1099      -1287.655       137.3643       3905.334       3434.219
       1120.737       324.8384      -916.9885      -189.1157       2022.905
       1256.518       2276.920       4283.856       1635.116      -992.7465
      -458.2524      -400.8096      -1735.774      -1352.244       506.9258
       1111.772       43.07556      -166.1152       2256.533       2624.238
      -1945.387      -2839.083       713.2461      -1032.214      -4262.258
      -2410.854      -441.3484      -401.7881      -174.4338      -436.0710
       625.9297       2666.630       1702.632       771.2727       1029.528
      -832.1758      -4068.145      -4945.878      -3966.725      -4072.809
      -3725.227      -2506.500      -2281.280      -1210.676       815.4795
       631.7114       606.8760       2421.310       2018.180      -706.4321
      -2679.828      -2641.478      -3075.158      -4906.725      -4966.133
      -2884.212      -1462.199      -1236.542       142.6260       2496.070
       2498.359       799.2800      -48.52686      -950.0107      -2809.632
      -2778.014      -1271.046      -587.0104       117.8910      -106.4766
      -1140.331      -1080.957      -233.5546       606.6346       227.6301
       250.4089      -140.5117      -1837.275      -1851.522      -2192.331
      -4094.377      -4097.089      -2789.149      -2104.841      -1452.100
       292.1865       2834.499       3001.787       1540.136       1772.185
       1651.937      -433.5664      -2370.587      -2097.733      -1024.594
      -770.5806      -1110.013      -615.4167      -489.8389      -1909.316
      -1599.948       578.0641       1040.955      -1083.645      -1435.557
       1213.335       389.0066      -1752.650      -526.1383       75.98047
      -1356.118      -2002.206      -1383.826       700.5864       2357.901
       2353.559       2694.185       1899.214       1084.903       1842.418
       491.1990      -1087.657       187.3589       1434.961       638.1670
      -996.2339      -1479.293      -1188.837      -1522.005      -1351.496
      -718.6929       510.8130       1625.509       931.0584       67.85712
      -53.61401      -673.9995      -883.5859      -419.8580       152.0562
      -879.2910      -2660.328      -2544.569      -1252.387      -7.097900
      -243.5258      -346.2007       1565.374       1307.854      -155.7786
       476.1626       1506.716       2202.721       1016.317      -1099.428
      -266.3936       574.3884      -399.2611      -274.5151       611.6152
       1471.922       2848.177       2588.360       202.9989      -801.3766
       39.51318      -563.9390      -1292.869      -312.4779       81.06372
      -488.6429      -203.4605      -222.4912      -363.6625       332.5493
       296.8809      -373.4541      -345.8706      -1035.966      -1770.767
       1316.801       4565.257       3298.047       2428.369       4089.609
       3583.547       1441.737       2467.772       3684.516       3512.682
       4584.381       5516.229       5913.562       6876.734       7550.951
       6858.684       6875.957       7661.336       6274.312       3559.623
      -591.2280      -2370.305       600.4844       4461.953       9149.840
       13680.10       12749.77       5586.557      -439.2305      -2577.605
      -5941.910      -7363.334      -2877.538      -55.81543       1478.887
       7974.691       10947.27       6236.780       1297.251      -402.3572
      -1211.135      -859.2656       5951.672       13187.37       8554.865
      -4362.445      -15562.79      -24043.40      -30849.30      -34375.95
      -37369.94      -33895.56      -13923.66       9498.750       20454.72
       27660.02       30569.19       16551.83       479.1895      -3759.568
      -7357.270      -11422.59      -4066.344       9076.957       11342.15
       9999.797       18253.18       18060.59      -2315.438      -18537.42
      -20424.30      -22946.87      -20889.59      -2369.301       10335.97
       453.3584      -7634.509      -292.1968       1948.774      -1684.808
       4624.216       5423.445      -12405.60      -23783.23      -17203.41
      -11974.63      -8874.445       4114.902       16133.34       16441.34
       12078.80       5778.901       1036.044       4485.211       5171.771
      -3470.674      -5196.783       1017.896      -410.6846      -4092.348
      -3286.670      -7004.250      -10509.51      -2706.568       4021.647
       1016.333       878.1250       7196.389       10293.74       6877.977
      -113.0879      -8378.574      -15354.19      -14247.29      -6193.566
      -4065.784      -5863.705      -1688.888       4681.664       6544.321
       2431.744       2335.637       11875.86       19314.42       19660.59
       15685.31       5071.268      -7349.145      -12298.39      -12833.66
      -15604.45      -15408.25      -10704.92      -11272.78      -12220.27
      -4957.398      -1676.597      -3968.256      -373.1543       4343.898
       6361.203       12138.46       18555.86       16571.05       6089.895
      -3232.076      -4796.588      -1193.559       3775.920       4261.905
      -3320.637      -8221.566      -5252.712      -2664.034      -2414.298
       1381.808       4603.923      -512.8994      -5283.846      -3437.912
      -2581.939      -5720.910      -4400.188       4571.678       10615.52
       8793.480       2059.055      -3347.643      -1646.172       5479.145
       13831.43       16860.38       10912.53       4860.374       3858.517
      -948.0532      -4710.521       1863.412       3210.957      -3199.073
      -3717.229      -1353.771      -4002.543      -7126.867      -5975.953
      -5481.380      -2573.033       2826.158       1166.768      -1487.961
       2845.978       5575.396       1119.502       775.3887       5783.094
       4650.561      -3586.840      -11407.88      -10050.20      -4745.022
      -2751.344       2981.852       10624.72       13632.00       14440.08
       16710.55       17174.35       12482.72       7539.948       3441.959
      -1651.999      -4704.244      -3252.707       2308.085       5757.228
       4855.400       1830.875      -5257.012      -9998.590      -6542.895
      -6013.531      -11264.75      -12298.73      -12573.77      -17480.04
      -19919.11      -16346.05      -11791.39      -9377.531      -3237.144
       3656.119       2898.620       2802.199       5805.174       6417.105
       7179.576       5947.723       4067.936       8853.207       12127.06
       5804.814       3090.282       6261.515       1643.736      -6533.139
      -7884.375      -8425.564      -10174.35      -6435.890      -803.5908
       1384.975       562.0803      -945.3147       334.8755       1446.438
      -152.4854       1315.904       6949.646       9416.180       6323.156
       4449.834       6289.868       4117.325      -2433.839      -4021.779
      -2311.828      -4715.437      -6074.039      -2730.328      -772.8174
      -1510.266      -3037.176      -7148.043      -11490.01      -13125.98
      -13103.03      -11765.00      -6650.113       1598.605       7796.734
       11301.24       12505.19       12527.29       12356.25       10692.53
       11519.31       11289.80       7013.771       5548.201       3780.414
      -3218.215      -7982.389      -8536.668      -10858.53      -8922.155
      -1667.060      -938.1602      -5323.506      -7391.354      -6002.305
      -3738.476      -1124.407       2318.541       4532.896       4788.107
       5269.124       5999.613       2212.574      -2363.695      -574.9019
       3198.876       1501.652      -3256.492       459.6582       9599.973
       12482.97       9121.066       4497.647       3376.421       3780.682
       2029.759       1799.833       3765.379       2885.151      -790.4631
       33.87793       2191.947       374.9150       3217.510       9089.237
       6072.969      -1956.613      -6060.088      -8542.215      -11194.85
      -9840.585      -6146.510      -2080.297       1704.777       2290.234
       1880.373       4710.002       6041.996       3268.683       2215.352
       2409.632       2226.129       2189.301      -158.1450      -2345.736
      -3305.688      -7826.344      -10858.81      -4792.836      -1917.158
      -7247.880      -4071.647       4812.506       3613.189      -2537.421
      -4025.539      -4810.719      -10435.92      -15590.35      -16602.65
      -14842.11      -12084.38      -11674.58      -8964.589      -1117.593
       2644.807       3034.805       7454.959       8012.949       4331.615
       8929.902       13073.15       6199.858      -66.62988       477.9055
      -318.7578      -2282.719      -2720.606      -4501.927      -3975.838
      -423.2021       2446.746       4230.488       5786.613       7109.702
       5962.804       3722.746      -330.6191      -5257.705      -7166.262
      -5445.008      -3037.999      -4729.092      -5007.443      -1430.159
      -1642.617      -2242.300       1546.727       5163.625       6339.857
       7622.911       5662.232      -2531.449      -9233.180      -9064.719
      -6256.438      -4831.591      -1899.209       2408.144       2225.488
