     0.02500000      -14352.55       22752.14      -12345.00      -12345.00
      -30.00001       223.4250      -25.55000      -12345.00      -12345.00
       0.000000       19.68000      -12345.00      -12345.00      -12345.00
      -12345.00      -12345.00      -12345.00      -12345.00      -12345.00
      -12345.00      -12345.00      -12345.00      -12345.00      -12345.00
      -12345.00      -12345.00      -12345.00      -12345.00      -12345.00
      -12345.00      -30.40760      -69.24540       1968.000       0.000000
      -31.59500      -68.73200       0.000000       105100.0       0.000000
      -12345.00      -12345.00      -12345.00      -12345.00      -12345.00
      -12345.00      -12345.00      -12345.00      -12345.00      -12345.00
       140.4804       339.4403       159.7035       1.263064      -12345.00
      -12345.00    -0.07958616       0.000000       0.000000      -12345.00
      -12345.00      -12345.00      -12345.00      -12345.00      -12345.00
      -12345.00      -12345.00      -12345.00      -12345.00      -12345.00
      2008        13        10        50        52
       950         6    -12345    -12345     10138
    -12345    -12345    -12345    -12345    -12345
         1         7        13    -12345    -12345
    -12345    -12345    -12345    -12345    -12345
    -12345    -12345    -12345    -12345    -12345
    -12345    -12345    -12345    -12345    -12345
         1         1         1         1         1
ARRO    -12345          
        -12345  -12345  
-12345  -12345  -12345  
-12345  -12345  -12345  
-12345  -12345  -12345  
-12345  -12345  -12345  
-12345  -12345  BHZ     
ZL      -12345  -12345  
[...]
      -695.5959      -695.1506      -724.4944      -728.0046      -714.2048
      -708.3184      -730.2737      -718.1040      -718.2888      -681.1910
      -554.9933      -219.8040       320.3809       1107.845       1787.945
       1880.160       1475.108       1228.583       1557.051       2321.069
       2591.650       1787.238       1582.885       2699.459       1725.817
      -1419.998      -4763.847      -5802.936      -4094.443      -5336.137
      -9146.229      -4614.294       1501.284      -1420.928      -2486.145
      -4460.217      -9861.707      -7404.836       1148.516       6627.890
       4972.370      -697.0786      -2176.483       254.5752       1145.535
       3436.961       4739.441      -191.6494      -5104.965      -3772.860
      -2024.394       997.4043       3787.097       1211.326      -1515.930
      -3731.043      -1959.574      -1778.408      -4873.497       1777.065
       7054.056       1949.870      -4289.478      -2602.735       1397.260
      -294.1157       248.7458       1277.642       716.7572       219.4141
       1210.391       4735.539       2383.447       501.6345       2007.103
      -1809.367      -3416.297       1814.174       3378.815      -1318.364
      -1482.958       3337.154       2336.894      -3029.090      -4386.778
      -1591.235       645.5544       852.5118      -479.2561      -415.3472
       2970.608       1032.402      -3129.154       2602.995       6123.091
       1691.966       1412.294       936.5791      -2463.100      -111.6216
       3057.092       816.7128      -553.2222       2032.815       835.5229
      -2859.466      -1350.794       2178.521       993.8042      -2239.074
       1001.887       3712.552       291.6216       1598.526       4208.408
      -385.6504      -4528.560      -490.1562       3742.696       2255.963
       1845.934       289.8003      -2291.443      -675.8102       237.4070
      -870.4104       322.0162       1252.990      -702.4905       182.9102
       314.4829      -2993.364      -95.17480       1831.896      -3395.558
      -1967.306       3261.412       3527.994       3022.233       1060.561
      -1532.258      -1440.448       365.5850       3763.150       2548.723
      -2157.421      -847.5229       14.94971      -2963.449      -1809.311
      -628.9778      -236.3196       1202.587      -591.1631       319.5430
       3409.469       1143.726      -2056.552      -2081.803      -1896.023
      -935.7603       689.9197       485.4414       2312.376       4396.251
       1551.962      -952.2689      -210.2788      -914.2046      -1646.504
       595.1143       1419.240      0.5351562       988.8118       1056.834
      -737.9790       382.7550       560.8500      -1063.652       1254.077
       2727.584      -970.1973      -1991.614       748.9652       503.6147
      -1937.791      -588.3521       2019.594       717.7434       79.06543
       2705.882       5090.372       3050.662       88.31055      -594.9775
      -2495.755      -3152.973      -3325.617      -4506.488      -2396.860
       1152.247       2530.941       1206.753      -851.6704      -965.7998
       1153.047       575.2823       206.1763       454.0288      -2502.323
      -1262.513       2017.811       1471.986       500.8408       2275.269
       2792.437       35.60938      -1163.653      -595.5734      -392.2103
      -197.3071       1066.942       488.4509      -1270.623      -683.9744
       573.9385       628.4564      -102.1017      -203.2788       1482.941
       2892.297       1380.051      -885.2241      -813.0679      -510.8262
      -2190.788      -1452.134       693.8713       431.7070       1302.233
       1438.594      -2092.076      -5061.725      -3905.676      -642.5475
       445.0290      -15.12195       709.6788       280.7124      -1537.597
      -636.5322       1843.052      -41.20386      -1702.545       676.2089
      -109.0479      -1757.828       1323.360       3962.692       1997.702
      -1395.635      -313.5327       2198.747       797.8540      -831.6234
      -38.94250       163.8801      -1355.607      -916.4188       94.39307
      -1894.280      -2396.017      -1352.344       423.5342       2686.967
       637.9507      -653.1698       328.5374      -1166.193      -1056.055
       520.8110      -738.0908      -2565.535      -2525.604      -1657.005
       649.9980       2932.801       2462.062       188.4544       22.59570
       480.6953      -2010.677      -2803.044       1488.527       2033.123
      -2563.090      -1379.093       2466.697       341.3710      -681.8623
       1763.404      -329.2490      -3017.890       476.2031       3502.328
       1141.709       82.52759       1113.689       146.8499      -211.9453
       916.7428       784.8862      -2061.194      -1456.405       2443.469
       2589.825       1736.328       2739.572       1371.529      -2226.545
      -2833.936      -2930.894      -4640.317      -3111.122      -869.9482
      -1638.825      -1405.759       419.6858      -248.9224      -1858.730
      -1060.357       1860.841       3196.871       1793.533       818.5508
       519.1820       163.2749      -220.0566      -1853.654      -836.6074
       613.7114      -1432.117      -1720.462      -1447.778      -2744.839
      -78.16504       4990.268       4366.032       2003.665       3509.613
       1958.229      -3581.493      -2432.985       3099.323       360.4921
      -1501.696       1436.693      -1253.073      -3515.859      -771.7722
       1405.893       750.8337      -1126.768       1008.030       2974.010
      -208.3264      -883.7839       789.6599       50.48364      -370.9204
      -2414.205      -3068.570       1416.749       2217.944       245.2280
       2310.705       3047.186       96.08496      -2439.699      -2069.175
      -369.8953      -766.1260      -551.1519       1564.262       400.4492
      -625.0293       1474.022       1994.776       163.5104      -476.1521
       981.8851       956.7267      -163.2664       201.0420       243.5181
       270.1415       87.58789      -1597.755      -2965.975      -2300.384
      -885.4178      -245.9254      -652.0848      -167.5088       1811.798
       1393.330      -987.0819      -751.2791      -331.9863      -1860.310
      -1314.898       1026.522      -331.9630      -1746.798       1616.996
       3237.942      -1137.222      -2596.603       2078.508       2333.577
      -1719.611      -1749.124      -568.8516       31.01807       2287.322
       2514.545      -285.7195      -853.3296      -692.2383      -2940.366
      -2852.378      -835.3271      -1358.169      -1123.710       1032.668
       809.5369       135.8545       2772.353       3012.820       1233.421
       1389.263       1005.390      -555.0225      -2659.949      -4828.517
      -4152.135      -617.9352      -3.701660      -1368.204       220.3750
       2205.182       1579.960      -577.4856      -774.4173       196.8555
       189.9019       1656.794       2203.794       63.92102       36.40491
       446.9355      -1298.324      -2716.036      -375.5891       1189.075
       947.5426       660.1514      -2744.458      -2059.271       2510.214
       2537.413       442.0054       834.3835       1030.006      -1280.671
      -624.0093       1122.368      -1170.042      -3378.936      -2188.703
       987.3926       1779.683      -1057.736      -519.8452       1642.907
       773.1545       378.4221       972.0574       385.4424      -1200.706
      -2241.375      -981.1022       657.6924      -1199.006      -2432.454
       170.8471       510.2432      -473.7676       1953.902       3433.325
       1500.380       622.7834       446.5516      -427.4396      -405.6042
       487.8619      -62.30615      -1850.699      -853.6360       962.5283
       41.14746      -788.5281      -809.3594      -878.2971      -721.5187
       166.5938      -1372.997      -1985.636       1825.888       3036.545
       1721.920       269.0020      -1262.299      -1290.043       417.8120
       1417.029       625.6484       1436.218       1626.870      -1119.797
      -3752.602      -1906.437       1201.917       735.2292       1230.606
       1182.785      -738.4852       124.1147       466.4146       491.3896
       1801.611       1287.499      -323.1597       393.9165       1804.921
       1147.178       1551.136       1148.561      -1460.291      -2174.801
      -1200.335      -51.06934       434.4233       1550.030       1962.604
       443.8333       637.6089       1483.518       1630.752       1988.306
       1643.424       90.41479      -842.0275       405.8136       15.35425
      -1388.311      -891.4756       186.1412       109.8375       101.2910
       835.8052       854.9927       41.17676       1012.395       3086.483
       499.6667      -1980.969      -139.5759       1191.771       426.0270
      -748.5107       709.8279       1794.583       355.1917       24.20251
      -113.1042      -1028.298      -378.8447       931.1202       172.1416
      -1219.610      -632.6569       194.2712       636.3677       978.4579
      -126.4232      -234.6091       932.8225       649.2700      -63.04883
      -983.6550      -1390.759      -7.373291       1515.252       616.5217
      -59.47839       656.8183       228.5028      -144.8504       252.7957
       73.01245      -979.5000      -730.2764      -1194.652      -2052.367
       1020.486       1561.097      -1030.933       276.6609       1240.777
      -383.9537       132.0420       1382.499      -292.1509      -2310.248
      -1179.555      -161.8706      -924.7046      -57.01074       2299.551
       3491.064       4068.535       3027.653       646.6543       678.2427
       1435.483      -748.9902      -3356.884      -3555.188      -3766.519
      -4459.053      -3159.254       315.6489       2000.093       965.2305
       3321.903       5774.493       3990.264       3105.920       2181.013
      -617.8687      -1884.643      -1877.111      -2300.550      -2345.629
      -2514.630      -3680.229      -3345.346      -2329.111      -696.9478
       1489.497       1543.721       1084.537      -687.5371      -1717.184
      -752.1426      -2147.041      -3526.318      -2337.512      -975.8398
      -2308.156      -2818.303      -317.4163       787.4390       1088.865
       2655.989       1954.774       158.5962       1038.568      -167.2129
      -2716.651      -2457.366      -277.4136       1785.303       2104.077
       2362.560       106.6562      -1852.473       983.8115       3054.587
       1752.897      -165.8789      -1503.698      -3211.950      -4337.733
      -4153.387      -3033.473      -2169.893      -1916.192      -188.5828
      -166.1375      -1012.245       1661.240       3441.256       1686.103
      -142.2837      -627.3193      -988.8818      -2118.883      -1973.328
       1150.303       2847.278       1510.547      -1347.283      -3686.770
      -1986.831       355.4590       651.2159      -196.7734       28.82422
       1665.862       2203.240       2218.148       988.2556      -134.8206
       1179.689       129.7244      -1393.979       579.9631       1284.156
       225.5984       319.5538       431.3811      -929.7808       515.1377
       3696.339       1128.089      -1203.734       1859.343       365.1270
      -3798.448      -645.9233       1001.293      -2202.453      -2239.650
      -958.7441      -1366.887      -1754.959      -1740.141      -1421.542
      -348.2330      -323.8955       569.6084       3107.147       3498.846
       2283.130       1716.460       1498.958       488.7764      -1892.254
      -3821.393      -2474.395      -867.2734      -1807.495      -2254.250
      -2325.221      -4408.175      -3979.023       1777.516       5221.952
       557.5879      -3995.813      -1439.798       2167.173       2883.990
       2812.683       2795.249       1380.142       549.1201       2929.312
       5198.207       4755.281       4627.148       8251.199       5587.353
      -2873.925      -1343.117       4055.227       2372.724      -58.52832
       2575.243       3316.250      -115.2793      -2542.546      -3200.935
      -884.2188      -295.0000      -3900.217      -6638.186      -6954.240
      -3865.108      -2375.135      -4900.850      -4051.446      -1710.498
      -2963.662      -3285.129      -1659.334      -2358.028      -4962.518
      -5843.439      -3002.621       41.29102       3548.395       9295.062
       13175.90       13805.80       11360.12       6677.825       936.5205
      -2991.193      -3516.520      -5008.443      -8386.555      -9808.895
      -6954.418      -1461.975       4450.863       7086.526       4313.699
      -1409.410      -8919.887      -12030.50      -8892.215      -8300.504
      -10618.62      -10159.93      -7534.385      -5674.312      -2553.930
       2232.766       6179.266       10229.73       16714.63       22752.14
       21194.62       12118.90       3581.451      -2512.648      -9299.508
      -13803.05      -12097.61      -7979.332      -7414.203      -8502.945
      -4604.822       4490.262       9881.818       9068.578       8589.070
       7028.694       2161.458       693.7339       2981.011       1092.830
      -5670.463      -9341.879      -6911.815      -4343.248      -1921.056
       988.3984       2579.993       3136.535       836.6577      -1931.267
      -536.2207       3297.475       6144.592       8138.402       6712.447
       3766.798       3537.468       640.7671      -2876.153      -978.9194
       1961.551       2367.260       2771.789       3490.151       3402.034
       3391.165       1917.588       903.6133       3660.528       3151.213
      -2584.926      -5803.794      -3894.770       594.8193       2664.397
       1768.159       1721.061       2864.289       4533.169       3670.885
       3498.684       9202.900       10472.38       6729.881       6207.794
       3548.953      -3035.359      -6873.301      -8548.355      -12293.33
      -12842.44      -10019.64      -8547.248      -5929.787      -2263.102
      -68.48145       1505.852       5063.172       9592.598       11096.26
       9642.848       7705.595       3760.467      -4988.445      -12986.92
      -14035.37      -14352.55      -13929.50      -9228.238      -4470.895
       692.7012       5613.859       8565.834       8750.668       4079.666
      -2737.021      -3364.738      -1561.638      -4751.876      -2529.727
       3210.321       1819.340       2362.551       7622.910       8691.385
       6150.122       2892.533       870.6885       1776.353       215.4492
      -3032.535      -3790.280      -2929.999       167.2910       1454.037
       2641.057       5499.788       1899.789      -6115.410      -11575.08
      -12680.86      -12726.53      -12109.49      -7640.092      -3903.046
      -3176.216       636.0078       6494.883       8554.178       8890.637
       6406.436       630.0020      -901.0967      -1632.318      -4667.000
      -5718.102      -6923.635      -8535.887      -8563.146      -5481.504
      -957.3164       1113.203       4258.762       10175.70       13959.85
       15043.82       14339.61       10128.90       4460.604      -273.9268
      -2624.189      -1949.972      -1207.527       680.0166       2929.959
       1365.719      -1273.908      -3194.828      -4463.508      -4563.294
      -1820.661       857.0494      -339.0669      -70.91602       2378.517
       3544.909       1793.417      -1336.903      -1852.360      -2168.770
      -4772.495      -5612.326      -3866.309      -3454.650      -3601.477
      -1069.691       3170.668       5226.904       5238.034       4685.345
       1116.081      -3653.740      -3778.229      -1596.452       516.7129
       4907.260       8083.197       8176.159       5977.587       1388.257
      -136.8579       153.7734      -2893.828      -4263.588      -2017.996
      -322.2617       699.6689       1063.541       175.3867      -2084.861
      -3920.525      -4106.482      -6860.512      -9135.480      -6940.525
      -3803.433      -1629.944      -1221.772      -857.6431      -864.6854
      -447.5176       2901.213       4788.328       5159.682       7752.779
       8480.889       5609.810       2641.632       1561.754       1284.833
       929.3799       2187.140       2591.953       2264.789       2686.459
       2003.820      -590.3193      -4449.707      -6638.711      -7641.334
      -7848.029      -6356.094      -3900.481      -1828.537      -543.9434
      -1325.670      -5575.751      -6363.383      -2513.574      -25.10889
       935.1045       1631.759       2137.061       265.3633      -1824.250
      -2357.580      -4656.539      -6956.902      -6781.460      -4096.389
      -2129.822      -2288.847      -1217.095       148.3828       2577.440
       5297.665       5162.963       3407.556       2565.862       4533.314
       4939.863       3512.543       6066.291       8909.248       8284.100
       6515.793       3519.880       1562.409       2343.873       1502.588
      -1570.018      -3128.610      -3563.383      -3806.745      -2384.794
       1451.361       3645.825       2195.358       1844.947       3836.159
       4886.884       3715.248       3401.628       4508.047       3780.469
       55.44873      -1894.908      -1257.193      -4514.449      -5775.078
      -2153.702      -2585.887      -3569.086      -1469.931       385.2996
       1282.369      -48.99512      -1808.901      -2885.537      -4627.643
      -6507.013      -5492.250      -851.2217       2921.734       3776.967
       5462.057       8456.934       7959.680       5124.984       3670.783
       2932.246       386.6982      -3841.309      -6013.363      -5392.446
      -3010.801      -533.0361       804.8838       2540.264       4781.318
       6727.074       7662.809       6661.293       5417.730       5957.270
       5425.396       1834.922      -1512.598      -3528.941      -5743.297
      -9908.930      -13467.16      -14068.98      -13883.27      -11276.73
      -7580.273      -5501.905      -3742.848      -1482.283       2962.662
       7771.957       9857.617       10260.81       10580.69       8885.188
       4552.720       2511.492       2475.590      -1571.229      -6309.109
      -6163.114      -4427.993      -4029.372      -4091.133      -3184.240
      -2016.561      -2708.617      -2995.961      -1512.723      -852.2736
