     0.02500000      -31033.66       58716.23      -12345.00      -12345.00
      -30.00499       214.6950      -15.48000      -12345.00      -12345.00
       0.000000       11.43000      -12345.00      -12345.00      -12345.00
      -12345.00      -12345.00      -12345.00      -12345.00      -12345.00
      -12345.00      -12345.00      -12345.00      -12345.00      -12345.00
      -12345.00      -12345.00      -12345.00      -12345.00      -12345.00
      -12345.00      -31.75110      -68.43510       640.0000       0.000000
      -31.59500      -68.73200       0.000000       105100.0       0.000000
      -12345.00      -12345.00      -12345.00      -12345.00      -12345.00
      -12345.00      -12345.00      -12345.00      -12345.00      -12345.00
       33.04966       121.6594       301.5043      0.2971617      -12345.00
      -12345.00     0.03411009       0.000000       0.000000      -12345.00
      -12345.00      -12345.00      -12345.00      -12345.00      -12345.00
      -12345.00      -12345.00      -12345.00      -12345.00      -12345.00
      2008        13        10        50        42
       880         6    -12345    -12345      9789
    -12345    -12345    -12345    -12345    -12345
         1         7        13    -12345    -12345
    -12345    -12345    -12345    -12345    -12345
    -12345    -12345    -12345    -12345    -12345
    -12345    -12345    -12345    -12345    -12345
         1         1         1         1         1
BOZA    -12345          
        -12345  -12345  
-12345  -12345  -12345  
-12345  -12345  -12345  
-12345  -12345  -12345  
-12345  -12345  -12345  
-12345  -12345  BHZ     
ZL      -12345  -12345  
[...]
      -51.96716      -8.749176      -39.87561      -89.61226      -6.285408
      -1.180374      -82.41250      -68.72481       33.32283      -28.42317
      -105.4534      -17.22406       61.39960      -83.18990      -111.9997
       38.28897       38.50479      -107.7080      -53.07944       15.05147
      -16.85779      -71.76364      -18.33421      -8.972321      -66.52982
      -70.64895       25.19875      -7.626282      -94.22476      -85.70070
       41.74661       12.60629      -110.8425      -68.67915       61.15735
      -41.36906      -117.9641      -18.31283       60.05832      -76.86115
      -114.7901       4.637383       24.40317      -80.91309      -55.79858
      -27.51943      -1.019745      -48.55153      -44.17728      -11.91576
      -36.64368      -67.38850      -16.12815      -9.361725      -59.45135
      -81.16174       25.27675      -23.44302      -97.33157      -24.29634
       23.04459      -69.55745      -78.13618      -2.952232      -2.600449
      -100.0242      -43.20990     -0.4894257      -54.38727      -82.80954
      -31.82802      -36.13379      -54.22003      -67.83662      -48.51535
      -46.99551      -47.56268      -73.30664      -32.62730      -41.50424
      -49.03195      -53.29786      -21.88036      -36.85486      -44.77647
      -48.21041      -9.351471      -19.49252      -37.17051      -30.91759
       16.17284      -21.10151      -30.72357       15.27725       42.53880
      -44.76355       4.820679       77.49552       36.37589      -34.00987
       67.46436       100.1422       19.06369       14.50937       130.6459
       95.89769       14.18561       70.01126       177.5309       98.45569
       44.44278       122.0936       205.8861       102.8026       93.03149
       191.6108       205.2196       97.92078       157.9893       265.2346
       201.5315       111.0424       222.1935       265.2307       198.8018
       192.2536       253.8417       247.2805       239.9782       244.2352
       274.1132       258.8561       263.5818       242.7103       305.0558
       318.9720       255.0349       245.9427       353.0190       315.3410
       249.1119       299.4493       379.3593       279.0414       250.2700
       362.8909       363.4246       245.2795       301.5033       385.6745
       324.7073       248.0927       356.4160       371.7073       284.9614
       288.0898       375.5660       335.1305       282.6907       316.2977
       369.3558       290.7952       279.4863       343.8086       339.5397
       254.2360       288.8284       346.2884       302.4983       235.3457
       307.3406       310.4321       258.4151       235.9424       301.8549
       276.4071       209.9852       242.5417       308.9343       224.8776
       190.3738       237.2885       283.2263       186.5410       184.8466
       227.2614       222.1191       160.6159       174.0215       211.0315
       186.4017       106.0208       164.8185       198.5167       142.8939
       69.11694       150.5853       152.9245       89.98303       68.54959
       111.9645       80.32697       43.61789       61.70743       87.67374
       4.299728     -0.8687134       47.15974       45.70714      -62.08033
      -32.36524       13.39639      -31.24878      -105.3201      -42.51045
      -39.48660      -101.1564      -139.1981      -83.49933      -106.1695
      -149.5123      -177.7763      -146.7941      -155.5942      -184.4898
      -223.0922      -175.7204      -200.4972      -241.0203      -264.8174
      -207.2663      -236.7125      -300.9789      -295.6611      -239.5927
      -293.3353      -314.1462      -300.1257      -288.3455      -347.0233
      -337.0442      -312.4236      -316.5924      -392.3649      -365.9153
      -317.9396      -349.7202      -421.4739      -360.1392      -338.0934
      -407.5712      -437.1057      -341.0947      -363.5054      -447.3184
      -439.2407      -348.5090      -385.1891      -434.8652      -433.3142
      -375.2201      -385.9425      -421.3760      -418.7336      -381.1462
      -411.6550      -412.8510      -396.3457      -372.3329      -414.8237
      -390.0687      -374.9335      -385.1111      -396.7747      -353.3890
      -339.4893      -373.1755      -390.7935      -303.0940      -306.5232
      -343.9945      -355.3159      -282.4865      -265.0073      -311.6246
      -310.4091      -232.6356      -266.7136      -291.8308      -234.4622
      -178.6026      -264.9348      -256.2213      -154.7458      -169.5927
      -243.4989      -146.6972      -100.4503      -174.7115      -202.1821
      -56.51041      -51.40100      -146.4094      -119.2085      -17.09225
      -44.29662      -73.07468      -21.98790       5.099144      -40.13808
       11.09471       49.53846       39.79048      -3.384918       55.35847
       87.36490       74.42180       37.19717       90.05270       127.6175
       84.89487       75.16425       149.7842       123.5854       104.2643
       116.3832       175.0329       118.6780       114.7508       149.6768
       154.1141       129.0251       143.9374       147.9854       153.5020
       134.8613       166.7405       164.7260       158.6669       118.6809
       163.1428       193.1141       144.5328       99.71014       182.0826
       175.9352       115.6102       121.9531       213.7644       141.3788
       95.10803       153.9161       193.9854       128.9774       106.6151
       149.7398       161.3893       97.32050       121.8384       160.2589
       146.4950       53.68805       119.4472       191.3688       102.0776
       20.73245       157.6023       167.3141       19.74472       46.63647
       196.1577       97.04129      -17.27258       77.81992       165.4977
       39.47235       30.19705       85.98299       69.32190       17.70126
       74.85830       59.13223       2.631065       4.885727       69.07648
       19.96121      -11.17505       2.186546       12.10265      -22.27285
      -11.41145      -14.76578      -15.48992      -41.77534      -24.70292
      -30.55910      -27.97015      -62.16225      -37.85080      -30.10661
      -32.13644      -77.38963      -46.54274      -30.83910      -49.48457
      -73.80453      -36.59023      -40.11140      -50.48770      -67.61151
      -8.157448      -30.80664      -56.71540      -40.13369      -1.611427
      -21.30116      -37.91592      -32.69820       28.06199      -22.55967
      -25.70122       20.23085       36.38361      -42.46482       2.650772
       80.29281       25.52113      -54.00006       66.65469       95.60491
       16.02708      0.8635559       96.72882       84.73468       23.81924
       47.92807       137.6477       75.37079       39.72229       108.9148
       150.1978       69.42361       70.25104       136.2432       162.3335
       69.20142       82.47760       173.0332       165.2869       49.82806
       120.8880       207.2115       144.2033       57.05981       153.4976
       183.3670       113.5421       115.8621       178.7933       133.5932
       97.51886       138.3715       204.9622       102.1575       72.14673
       162.9726       204.6785       86.45166       74.86279       187.4359
       169.8374       49.71027       121.0005       193.8934       129.5114
       43.04358       128.2480       180.9966       102.5962       49.14307
       135.9716       141.9244       75.92004       68.86227       149.5329
       101.9099       30.26703       75.18695       158.4616       61.04779
       1.543762       92.27426       132.6550       2.042236       9.952515
       92.08626       77.31143      -21.81324       21.41197       79.62541
       21.64111      -54.77019       25.36470       68.00430      -10.87750
      -88.91448       28.51511       39.72467      -79.40355      -80.69862
       31.24567      -17.36569      -125.8605      -62.48621       38.44525
      -114.5829      -153.2635      -21.76239     -0.9033813      -165.3443
      -153.3202      -35.56494      -84.55872      -163.7983      -101.4752
      -114.4854      -139.2971      -129.1170      -96.93478      -148.8455
      -165.1010      -112.4447      -102.7521      -161.1285      -133.9012
      -113.3105      -118.8229      -143.8401      -101.6126      -112.3826
      -119.2578      -102.7936      -92.72586      -113.8974      -70.40457
      -62.58798      -94.41460      -77.84270      -23.52551      -56.38606
      -62.60976      -5.337051       9.813492      -58.30915       4.088425
       64.78787       22.84595      -16.12086       68.42216       91.92078
       36.23663       55.01001       130.0017       86.28687       59.93524
       121.2426       170.2287       96.26385       100.1719       165.5693
       180.4365       108.9445       136.4843       194.9803       163.2655
       111.5264       195.8328       216.1218       139.5208       129.4701
       230.5176       203.7919       128.8328       158.9604       238.0497
       178.0705       121.3801       183.2917       239.5690       131.7809
       115.7559       206.6860       214.3662       110.3571       128.1501
       201.5416       170.0598       116.3576       149.3350       148.5479
       138.9447       120.9588       161.5230       125.5600       79.60233
       126.7770       165.5368       88.36511       67.56790       123.8538
       132.4070       47.54065       74.94202       116.5161       90.38254
       40.95810       72.88185       82.16519       55.34956       45.18301
       50.76080       44.18198       45.08717       20.68401       27.25899
       32.67488       37.47940      -14.50647      -5.616608       28.93224
       15.46094      -39.92105      -25.01414       4.967339      -18.91211
      -57.66782      -25.22112      -33.09024      -61.43098      -70.31743
      -43.36044      -73.09909      -86.04044      -78.76855      -73.51825
      -129.5972      -117.4362      -82.46744      -114.8631      -163.8663
      -141.9070      -115.8797      -126.9194      -183.3704      -162.4791
      -154.7327      -171.7903      -184.8663      -162.8809      -177.7041
      -209.7198      -203.7904      -148.1622      -202.2114      -232.4171
      -178.5296      -162.6838      -243.6464      -237.8294      -148.8236
      -180.2586      -273.3966      -198.7189      -152.5782      -207.9061
      -239.6306      -170.6599      -179.5509      -223.0382      -198.7586
      -155.6537      -198.2762      -225.4886      -185.8422      -136.4664
      -186.4166      -224.2740      -165.7288      -111.9899      -206.9845
      -193.0234      -125.7937      -145.0372      -209.7547      -178.5128
      -106.5610      -151.0067      -222.1553      -126.1268      -105.8653
      -169.7696      -187.7921      -108.1447      -113.5358      -176.4535
      -160.2801      -80.75116      -118.9117      -170.0200      -134.5012
      -83.56555      -141.7322      -140.5809      -84.90771      -99.14407
      -171.1600      -94.65440      -29.70386      -139.4467      -171.0921
      -35.59152      -54.48108      -150.9314      -103.6561      -16.83447
      -94.83459      -126.4758      -65.25311      -42.19180      -89.29520
      -84.35014      -56.15408      -44.41745      -79.32970      -59.67481
      -25.43954      -54.02899      -84.57224      -30.40995      -14.34604
      -55.69179      -76.97433     -0.9841003      -14.66631      -63.61525
      -24.23684       15.47461      -49.84613      -59.80432       37.45529
       31.40001      -75.61971      -32.65718       67.86512       16.14909
      -75.29071       15.84680       65.58214       1.688919      -59.91876
       37.22136       83.68099      -29.47096      -37.64163       88.80768
       67.49898      -47.41034       2.877106       118.2229       46.14201
      -30.09898       42.24930       114.1435       30.00955       30.21997
       77.28889       97.54405       44.21568       36.28043       127.4069
       106.3325       27.14526       74.10602       142.3610       137.5666
       21.63358       92.12296       193.7921       114.7960       34.13269
       145.6021       205.6511       95.20886       62.88324       190.7349
       163.9120       105.6440       142.9337       174.0746       130.8956
       141.7053       189.7714       175.1824       102.7511       165.3533
       210.1601       172.7584       128.2249       179.1123       193.7303
       142.9447       143.9967       207.9088       188.1469       128.5847
       136.8293       214.6356       171.0413       128.4336       152.7585
       187.3731       153.2881       121.6180       167.0744       192.7602
       132.2649       101.5518       169.8118       219.2830       103.0963
       74.26331       202.5134       208.1724       58.82043      -86.08154
      -793.6719      -4964.590      -15589.38      -27161.07      -27669.92
      -31033.66      -24259.95       24299.56       58716.23       55698.23
       33953.62      -7270.648      -28717.65      -21512.56      -6801.761
      -503.4141       6639.503       9459.330      -4576.549       3113.159
       7096.975       1521.356       1769.518      -8424.768      -2531.766
      -5109.818      -11647.18       14639.46       26074.32       2484.120
      -2153.099       9171.168      -12623.20      -26385.87      -481.9121
       9887.763      -2311.336       7790.656       18539.63      -872.3281
      -10817.28      -1026.287      -2569.312      -6295.420       3256.740
       9328.758      -2354.691      -10886.93       2703.525       9128.720
      -1583.677      -286.9014       7133.304      -2419.844      -10997.67
      -5554.939      -4115.892      -3560.575      -88.66797       4306.420
       8254.599       3582.262       3639.576       9013.445      -2547.777
      -9214.373      -132.7373      -2076.604      -3359.709       2525.165
       2765.479       357.7920       1426.298       4891.404       1891.579
      -2201.458      -1018.077      -2335.107      -1199.907       1006.414
      -1698.509      -1020.460       1746.490       2425.367       1923.822
      -947.3081      -3152.186      -1774.948      -2425.455      -1207.170
       3613.735       2079.473       375.9192       146.8242      -3160.073
      -1935.591      -52.67322       588.2197       531.8027       1162.935
       3169.614      -198.1025      -2655.077      -2109.237      -1523.830
       450.2266      -298.7787      -712.0896       1631.805       48.81421
      -1930.801       643.8813      -725.3413      -3168.290       2628.852
       5248.677       360.6113       1065.783       3144.288       65.26660
      -345.5239      -937.0967      -2904.741      -2358.665      -1333.512
       1079.782       249.4702      -1916.009       829.9912       2471.661
      -675.8816      -2111.555       293.8204       922.1978      -1822.341
      -4186.661      -2996.599       178.8770       2750.558       5522.760
       3999.370      -1052.084      -946.9055       190.1241       96.37866
       312.5000       745.5173       1037.550      -787.4160      -360.0603
       879.0514       7.777710       406.6577       65.58691      -2355.938
      -3399.265      -1268.919       1969.749       90.94092      -1990.739
       305.8669       157.9180       345.0547       3581.302       1305.974
      -993.5713      -508.1304      -3167.117      -152.5410       2562.400
      -5.334961       1033.126       2227.108      -643.3110      -2314.813
      -1144.231       217.8115       4173.955       4251.936      -1840.122
      -2703.875      -1299.482      -2055.598      -938.6465      -1045.549
      -1544.935      -478.4169       625.6555       1214.908       443.2715
       49.34814      -1144.624      -2335.401       699.9161       1181.855
      -1055.311       789.4990       3198.149       2013.337      -1508.984
      -2934.661      -2038.539      -464.9448       835.8809       1622.770
       635.7673      -672.4102       2522.636       3908.083      -1620.705
      -3642.133      -86.08716      -948.3787      -1674.067       3031.260
       1539.386      -3323.101      -1413.203      -309.6917      -1320.101
      -930.8220      -679.9631       1086.954       1165.763      -1554.459
       535.2686       3009.390      -89.29999      -188.6010       542.7046
      -3131.865      -2269.737      -1416.352      -2890.542      -183.3867
       1696.384       2233.220       310.7617      -803.3165       781.0127
      -3457.901      -3094.157       1647.504      -630.5330       222.0210
       2228.920       488.7889       332.1104      -423.8596       104.5056
       1216.490       74.93616      -777.2285       970.5195       3211.942
      -975.8413      -2778.582       295.6252      -648.0483       930.9558
       1083.837      -3068.735      -3339.544       1009.109       2117.804
      -629.4099       336.2979      -1259.928      -2681.862       1707.759
       2787.123       1052.309      -1386.338      -2284.461       171.5837
      -130.1187      -1376.173      -1432.724      -122.3367       1313.323
      -530.0986       1051.750       4209.240       293.0020      -2000.975
       1577.303       768.2695      -3638.721      -1192.339       1768.820
      -814.2925      -2348.863      -1789.876      -778.3987      -1337.151
      -1122.349       2626.387       2350.409      -2567.561      -480.6045
       2174.745       37.47852       3147.804       2202.151      -2261.799
       1356.200       2315.618      -96.40549      -184.6106       239.2425
      -333.9922      -251.6406       2646.686       830.3530      -2289.412
       1288.073       2104.961      -2714.795      -1267.049       1701.824
      -1264.180      -33.83887       3498.972       1813.885      -215.2412
       479.4014       2253.779       1955.599      -958.3733      -1458.435
       1389.159       1552.181       431.5576       1486.473      -222.4590
      -2142.293      -349.7998       1605.443       808.8577       273.9651
       720.7174       438.9478       735.7944       2878.950       1721.301
      -3041.295      -1247.531       917.8013      -1773.862      -1566.268
       2060.479       2658.785      -177.1472      -1699.962      -260.9697
       2978.757       3497.685       2648.824       2108.488      -610.8262
      -3599.237      -1713.041       1256.024      -2116.403      -3295.696
      -559.9758      -878.3400      -506.2925       477.6748       1389.821
