     0.02500000      -51261.95       60831.27      -12345.00      -12345.00
      -30.00499       214.6950      -15.48000      -12345.00      -12345.00
       0.000000       11.43000      -12345.00      -12345.00      -12345.00
      -12345.00      -12345.00      -12345.00      -12345.00      -12345.00
      -12345.00      -12345.00      -12345.00      -12345.00      -12345.00
      -12345.00      -12345.00      -12345.00      -12345.00      -12345.00
      -12345.00      -31.75110      -68.43510       640.0000       0.000000
      -31.59500      -68.73200       0.000000       105100.0       0.000000
      -12345.00      -12345.00      -12345.00      -12345.00      -12345.00
      -12345.00      -12345.00      -12345.00      -12345.00      -12345.00
       33.04966       121.6594       301.5043      0.2971617      -12345.00
      -12345.00      0.4563089       0.000000       90.00000      -12345.00
      -12345.00      -12345.00      -12345.00      -12345.00      -12345.00
      -12345.00      -12345.00      -12345.00      -12345.00      -12345.00
      2008        13        10        50        42
       880         6    -12345    -12345      9789
    -12345    -12345    -12345    -12345    -12345
         1         7        13    -12345    -12345
    -12345    -12345    -12345    -12345    -12345
    -12345    -12345    -12345    -12345    -12345
    -12345    -12345    -12345    -12345    -12345
         1         1         1         1         1
BOZA    -12345          
        -12345  -12345  
-12345  -12345  -12345  
-12345  -12345  -12345  
-12345  -12345  -12345  
-12345  -12345  -12345  
-12345  -12345  BHN     
ZL      -12345  -12345  
[...]
      -93.02858       89.15718      -3.915741      -160.7715      -34.94217
       110.4012      -87.22330      -207.9178      -13.29303       105.8110
      -130.8143      -177.6905       18.45361       23.62009      -189.7548
      -116.9814       61.48117      -78.01605      -246.9946      -30.59071
       87.34924      -136.5842      -278.0908       10.79276       90.11169
      -176.4012      -194.8302       25.79257      -19.84308      -156.7922
      -97.28384       60.04370      -76.80560      -183.6924       3.060638
       94.76923      -145.8533      -171.0957       93.81639       116.2800
      -178.1373      -116.0830       142.7719       59.55742      -145.0406
       41.91797       171.0426      -47.06145      -111.7081       169.9263
       176.8819      -58.21057      -38.00049       229.1702       147.7347
      -54.70322       83.66125       243.0885       96.50867       41.68448
       145.3099       211.1745       116.0751       129.9603       187.0708
       155.3513       143.1237       208.1614       160.1006       134.1848
       177.8073       225.6853       158.9208       148.3684       178.1308
       217.8505       177.2793       164.1086       185.8116       203.6043
       155.7271       148.0541       188.3198       236.8386       131.6449
       103.9108       189.5060       215.3518       110.9393       122.5515
       191.4042       165.2270       60.59180       136.4790       214.4288
       112.2619       1.718750       155.1052       207.4025       59.05774
       13.62439       167.5981       144.1786       16.20767       58.17392
       183.9138       57.12280      -14.41534       119.0413       167.9626
      -19.54128      -20.31390       156.3920       139.9667      -53.83873
       27.87265       160.9865       55.06308      -58.14783       102.3615
       142.1913      -18.39285      -28.78064       154.3218       109.4125
      -50.46204      -6.694244       173.6125       78.87314      -63.20189
       41.03558       147.8021       26.03038      -6.244888       77.82404
       99.08527       3.490433       35.91135       97.85586       35.30800
      -3.254852       109.9347       87.72712       4.266556       27.56738
       118.6161       65.38130      -8.601715       47.48264       132.5802
       5.508358      -19.03555       93.67157       85.67136      -9.920540
      -8.115967       53.48216       87.10020      -21.54216      -27.21778
       18.15256       18.38285      -18.05985      -29.14902      -17.64497
      -14.54303      -86.59628      -54.01097      -3.491913      -44.34109
      -135.7101      -95.16003      -47.32047      -80.56586      -159.6925
      -125.8085      -91.61670      -147.5674      -180.8293      -112.2153
      -149.2313      -201.0886      -206.2931      -170.7279      -176.6997
      -216.3373      -220.8198      -211.0369      -273.5234      -223.8715
      -178.1912      -256.7966      -317.4463      -249.5402      -209.3977
      -273.8202      -318.3185      -208.2247      -257.6699      -372.1550
      -259.6768      -173.3343      -316.1550      -385.2570      -276.4359
      -176.4352      -315.8459      -385.2617      -239.4941      -230.9379
      -364.2471      -302.3395      -204.4761      -269.5004      -381.9601
      -276.6290      -169.8832      -275.0204      -374.8369      -237.7479
      -161.8580      -297.3555      -320.1068      -161.4923      -217.3937
      -315.3311      -210.8614      -107.9781      -226.8748      -310.4277
      -151.2443      -62.84424      -228.3596      -221.6564      -76.21588
      -97.30457      -213.6604      -144.1288       8.021332      -63.00281
      -233.5177      -73.37701       58.13367      -115.5292      -105.8089
       60.96391      -21.33014      -98.71994      -11.22070       100.1534
      -6.725288      -85.30353       93.05774       104.0446      -46.47401
       46.90259       147.4078       90.72615      -6.085327       76.16711
       190.3243       68.42673       9.818665       182.6049       165.9273
       36.22437       90.26208       211.5198       133.2997       40.84961
       165.5641       252.5310       83.84247       56.38208       205.0339
       195.3516       103.5544       166.1064       201.8895       108.4813
       90.67841       252.8069       223.2864       60.22864       119.9241
       253.0757       175.3776       64.32800       201.1118       308.4138
       83.95526       39.38879       261.5515       277.1873       69.90759
       81.10229       293.7556       213.3363      -7.599487       152.3339
       339.5294       155.1201      -42.01239       152.2293       331.5430
       114.3125      -21.36426       216.9938       268.6079       34.41675
       15.75049       256.5873       228.5979       1.172424       45.20862
       241.1443       131.0127      -32.72760       126.3950       262.5126
       34.46275      -69.53049       162.1476       231.6406      -10.06198
      -26.57837       166.6909       133.5991      -30.99423       44.59500
       147.0914       33.73670      -34.91315       88.79901       86.51675
       1.712067       14.80057       71.33954       19.17431      -36.70216
       55.13417       70.81065      -65.89204      -18.68773       96.42926
       17.34372      -121.7106      -29.46065       124.7002     -0.2617798
      -148.1231    -0.04857635       66.08459      -83.77965      -116.1122
       29.83010       30.34769      -134.6095      -114.6472       57.20204
      -10.22757      -200.1759      -96.94286       101.8253      -48.12582
      -167.0646       310.9023       1148.346       2254.551       4025.973
       5664.259       2707.836       975.3682      -879.1016      -12727.29
      -10913.51      -1609.490       1665.934       6319.562       325.8975
       3326.378       4313.556      -4736.257      -549.3652       2612.608
       1232.833      -199.0010       1549.842      -5872.354      -9008.563
       1755.889      -247.9535      -733.2852       2958.267       4098.599
      -225.3350      -5119.541       1939.348       7498.449       5883.387
      -134.4473       430.4199       1171.912      -7794.080      -10528.93
      -4330.858       4724.025       6897.679      -1932.744      -4587.308
       1850.699       3849.784       2966.685       1971.900      -1121.328
      -5172.039      -6346.400       1298.941       5543.045       479.0869
      -1125.722      -2149.255      -3265.566       428.7976       1193.632
      -951.1655       1237.230       2609.606       519.8667       1912.953
       504.3340      -7414.427      -5798.341       3569.647       4120.951
       2406.628       3362.948      -1786.026      -3476.524       1855.133
       1244.983      -507.9536       2546.038       440.8096      -3255.288
      -1205.163      -1125.777      -1987.880      -487.8896       1025.237
       1246.185       1698.663       4794.944       3845.393      -2592.342
      -2258.037       1837.332      -346.3848      -2181.395      -1411.833
      -1494.958      -1233.387      -852.6011       1312.243       3761.221
       3474.562       109.7085      -1929.463      -1019.762      -1205.711
       1070.842       3723.019       713.0566      -1394.548       2291.464
       532.9702      -2560.976       1152.222       243.8555      -1958.031
      -838.4695      -616.4294      -1035.210       1182.042       2772.167
       888.1472       977.6571       628.6284       431.0148      -273.4963
      -738.8823      -515.0612      -1847.741       1859.447       1944.341
      -2541.414      -1893.428      -1281.601      -685.2007       2047.015
       2675.504       815.3233      -266.5498       691.2574       1776.731
      -1987.610      -4715.250      -831.3027      -901.2961      -912.4780
       3037.704       542.4927      -1536.224       627.4773       322.4863
      -2574.868      -1828.438       2344.857       2511.203       1820.246
       1252.691      -64.23938      -71.09570      -1742.897      -2991.415
       330.2942       1213.569      -632.0916       1478.634       819.8337
      -775.1582       2297.112       1216.340      -1501.948       775.1322
       999.2124      -774.4727      -1525.371      -2147.967      -850.7083
       678.7311      -499.6646      -571.8345       1259.453       1240.252
       170.4717      -1065.662      -1290.469      -240.6918       377.0887
       300.1663       952.5736      -121.5979      -1580.005       348.9673
       1011.277       976.5168       1347.774      -522.9417      -295.3666
       253.9320      -205.3335      -415.0879      -2195.089      -733.2404
       670.6590      -28.49854       813.8936       1475.135       1043.501
       327.4675      -1019.929      -1673.374      -590.8643       684.3090
       817.4932      -65.19147       317.7469      -25.74542      -406.6003
       24.33838      -980.9868      -1622.597      -564.2993       2164.592
       3845.553       1565.213      -1530.954      -2434.535      -1330.919
      -482.5195      -1261.950      -1234.146      -198.3159       2094.671
       3543.988       1300.375      -241.0593      -491.0811      -1409.701
      -1652.319      -59.92578       2142.753       336.5044       501.8223
       2070.786      -2467.060      -2700.037      -35.90076      -942.1357
       1490.394       2340.794       341.6768       1380.894      -762.0225
      -3445.427      -2758.207      -1494.491       984.2617       2338.601
       2174.922       1184.252       61.64575      -1619.129      -647.8838
       1802.698      -965.8193      -2567.272      -368.2716       161.4501
      -397.5974      -539.3113      -1109.496      -434.3662       893.7183
       871.9766       2315.390       2137.800      -125.9856       28.42773
      -2908.470      -4628.064       50.77197       1871.284       1643.184
       1424.238      -1738.351      -2461.369      -1401.817      -2851.306
      -1654.636       1131.198       1073.992       648.2446       715.8911
       2114.333       2527.779       48.79199      -1446.062      -2913.400
      -1195.727       1751.355       897.6523       1448.900       2432.270
       524.7256      -816.5305      -550.0879       388.5386       976.0259
      -1158.407      -2567.669      -2241.978      -287.8530       2382.440
       2940.162       457.3008      -2519.284      -440.3964       848.0050
       167.7224       1070.546      -1441.658      -1232.766       1017.140
      -1641.636       526.6641       3045.808      -697.6088      -1211.797
       1418.259       978.7661      -383.9219       2454.244       4835.246
       1834.575      -424.7472      -317.3865       19.66058       268.3748
      -1338.875      -1020.325      -1682.760      -4117.548      -1521.354
       1838.553       464.9646      -442.2065       2470.590       3640.480
       1662.607      -1435.345      -2591.396      -2046.373      -1409.433
       36.48193       868.0439       2309.638       2852.821       9.762329
      -1183.122       323.6666      -8.164062      -1339.904      -2334.940
      -1116.858       1327.617       1552.564       1967.072       1134.729
      -1229.260      -1374.177      -746.2034      -1164.958      -206.5999
       922.6174      -465.4058       248.3433      -255.6196      -1785.427
       1226.331       1805.126      -1195.804      -1739.412       132.4373
       937.2556       864.7333       114.1548       1081.086       1604.971
      -1870.286      -2508.949       1250.156       1146.999      -2152.100
      -1251.980      -185.3892      -908.1440      -1262.797      -1101.494
       540.2516       11.64502      -822.3164      -381.7593      -1430.301
      -1657.194      -57.26648       663.1055      -889.2300      -769.9883
       2023.562       2015.558       325.0912      -148.9360      -1098.927
      -1941.147      -459.1759      -77.68567      -933.4878       1427.404
       1800.181      -323.8796       345.5244       1003.035       645.2714
      -34.85278      -923.6188       17.29382       952.0890      -237.7439
      -1169.923      -261.5562       931.5083       1727.655       474.8071
      -1540.596       238.7969       557.0110      -1371.403      -65.74512
       1446.727       1102.239       1573.769       2265.506       15.69189
      -2049.544      -576.2249       7.968262       130.1963       2535.979
       3048.651       1231.184      -628.9949      -1237.935      -530.1025
      -1231.686      -579.8140       1668.912       1162.245      -491.2353
       464.5503      -90.27759      -1533.926       1525.043       3948.300
       2894.664       4355.221       7721.029       8686.064       8082.187
       3499.336      -4564.797      -12054.84      -20029.89      -26494.34
      -28622.31      -34435.83      -41367.91      -37267.19      -33076.14
      -16938.98       25121.88       51998.59       57367.17       60831.27
       49989.28       36494.19       22360.38      -6025.680      -23986.31
      -30858.39      -47301.61      -51261.95      -34000.89      -12378.89
       14520.20       34640.27       41079.03       42064.54       25197.13
       1847.277      -1408.843       4523.824      -2695.699      -13090.62
      -14734.23      -16234.25      -22377.57      -25298.58      -2102.551
       22985.33       12544.49       4566.396       8944.996      -6571.875
      -12460.24       3855.160       14540.10       20460.79       16042.74
       8553.572       7865.871       1717.859      -11404.20      -23559.64
      -19460.92      -7019.101      -2038.682       6416.357       13511.60
       3354.303      -1720.676       9564.965       9612.744       3081.560
       3313.441      -4895.629      -11980.86      -13704.64      -15372.26
      -3946.937       1017.350       302.8086       11778.01       8665.092
      -6054.301      -10741.56      -5794.344       5625.722       3047.408
      -2404.572       4301.748      -1574.844      -10266.99      -1660.445
       7087.189       6082.975       3862.811       3563.949       194.8735
       809.7754       4675.989      -2037.172      -2863.314       1764.859
      -2676.012       577.8862       4697.403      -3167.547      -7449.408
      -9200.527      -12285.17      -7363.485       1073.939       3849.518
       5096.734       8765.796       5762.587      -555.8025      -80.69043
       3279.374       2629.941       330.6384       1410.782       134.0508
      -4622.387      -6519.422      -6075.711      -4678.648       1408.912
       6935.106       3365.556      -1800.969      -1685.726      -389.9404
      -1873.273      -3595.732      -5312.570      -7152.669      -1939.185
       856.6348      -4500.110      -271.9453       6894.215       5817.334
       5931.491       3348.706       586.0977       5365.363       3373.412
      -3611.016      -4788.385      -2984.555      -3547.479      -4238.695
       2175.196       7061.879      -170.7168      -7898.631      -2289.377
       3807.758       3316.739       3855.236       1604.506      -5258.729
      -6288.635       486.3792       1215.294      -2281.334      -692.7412
       2497.381       4227.431       3107.800       1373.374       2500.677
       1004.682      -1196.634       534.3179       324.5952      -1415.340
      -2037.058      -1140.780       964.6104      -675.8005      -128.6704
       2945.578       1549.521       1272.595       1782.661       2267.971
       2712.169       494.7754      -299.7393      -3187.828      -6432.994
       331.3379       4695.228       144.7427      -1792.612      -4684.681
      -4437.489       2017.352       3605.921       2390.365       2213.586
       1164.135      -988.8325      -2593.644       958.1514       4539.990
       2053.348       475.0615      -763.7983      -1852.299      -3837.359
      -9887.410      -7234.604       1322.641       4211.570       7944.607
       12079.64       5807.862      -3922.776      -2410.822      -816.5117
      -6662.595      -5002.918       2265.950       501.5164      -1044.655
       3171.679       1173.985      -613.0537      -1644.240      -6837.255
      -6261.560      -1920.000      -1272.320       1679.285       10245.68
       12448.97       2885.582      -3167.584      -878.4243      -1604.358
      -4731.806      -4148.450      -751.7571       825.6948       6.441162
       626.7266      -1520.292      -1848.260       528.1494      -2791.326
      -2248.770      -691.5129      -344.0000       3720.361       2483.588
      -410.4104      -159.0400       780.5156       2767.557       3444.472
       3421.281       3129.072       459.0248      -1132.989       361.9519
      -827.4153      -2283.050       1407.213       106.0510      -2777.187
       2770.498       6707.276       5109.955       2603.401       517.1846
      -2208.373      -5445.993      -4653.138      -21.51440       1564.739
      -7.306641       1508.491       4476.594       5299.250       1288.605
      -4744.472      -1658.766       4340.656       3788.602       4395.110
       5136.365      -871.9180      -4912.281      -2697.854      -2248.710
      -2346.539       59.88281       3343.037       5845.068       4170.901
       412.1348      -2528.808      -4305.750      -3836.615      -3383.950
      -2691.896       1457.238       6173.047       4159.432      -681.1973
       1118.650       5434.659       4848.461       2004.525       1475.156
       656.2959      -799.9521      -1944.934      -3151.908      -920.3169
       99.04199      -2674.457      -2420.157      -2276.862      -4501.160
      -4345.132      -3943.830      -1764.250       4060.397       5866.652
       4009.816       4436.040       3437.139      -2100.987      -3380.946
      -1703.528      -4552.005      -5721.443      -840.0068       3483.066
      -496.5850      -3843.605      -76.01562       1090.369      -1184.181
      -199.9717       2766.603       2637.873       1868.574       2140.841
      -179.9155      -2399.649      -2127.552      -167.7205       2229.040
      -1649.123      -6424.399      -2733.353      -431.7749      -1605.052
       1142.544       3941.957       3732.592      -330.6768      -4041.120
      -2605.792      -764.8098       74.30273       2637.271       3941.320
       3173.713       4358.076       4163.849       774.6411      -2121.658
      -2810.471      -3515.380      -4915.303      -5069.042      -4840.934
