     0.02500000      -36552.96       36664.45      -12345.00      -12345.00
      -30.00499       214.6950      -15.48000      -12345.00      -12345.00
       0.000000       11.43000      -12345.00      -12345.00      -12345.00
      -12345.00      -12345.00      -12345.00      -12345.00      -12345.00
      -12345.00      -12345.00      -12345.00      -12345.00      -12345.00
      -12345.00      -12345.00      -12345.00      -12345.00      -12345.00
      -12345.00      -31.75110      -68.43510       640.0000       0.000000
      -31.59500      -68.73200       0.000000       105100.0       0.000000
      -12345.00      -12345.00      -12345.00      -12345.00      -12345.00
      -12345.00      -12345.00      -12345.00      -12345.00      -12345.00
       33.04966       121.6594       301.5043      0.2971617      -12345.00
      -12345.00      0.1421766       90.00000       90.00000      -12345.00
      -12345.00      -12345.00      -12345.00      -12345.00      -12345.00
      -12345.00      -12345.00      -12345.00      -12345.00      -12345.00
      2008        13        10        50        42
       880         6    -12345    -12345      9789
    -12345    -12345    -12345    -12345    -12345
         1         7        13    -12345    -12345
    -12345    -12345    -12345    -12345    -12345
    -12345    -12345    -12345    -12345    -12345
    -12345    -12345    -12345    -12345    -12345
         1         1         1         1         1
BOZA    -12345          
        -12345  -12345  
-12345  -12345  -12345  
-12345  -12345  -12345  
-12345  -12345  -12345  
-12345  -12345  -12345  
-12345  -12345  BHE     
ZL      -12345  -12345  
[...]
      -111.2109      -41.68291       87.82848       31.65416      -104.1084
      -14.86075       81.25763       31.21777      -65.81754       25.79016
       59.36883       9.074715      -1.701462       89.51799       43.02367
      -31.62814       53.74414       172.0938       27.83345      -33.09470
       98.61899       184.8545       60.96252       15.93665       103.7631
       183.2364       78.03937       80.06561       168.4178       140.0962
       59.46600       179.8304       227.9513       112.0164       43.44373
       213.3849       254.0179       127.2145       77.79547       239.5063
       241.8510       110.1414       125.9746       256.6817       185.9257
       113.2406       155.1534       231.4130       146.5079       136.9330
       189.7548       182.8182       118.4599       164.2104       197.3530
       155.7783       86.23062       166.4911       173.8832       119.2299
       90.46997       146.9520       110.6307       89.46243       98.71262
       113.4266       71.62901       58.46603       70.08699       96.98691
       38.17291       41.62126       36.75907       43.91283       1.946720
       17.00843       20.79444       1.296829      -48.94218      -17.51924
       1.030502      -26.89601      -89.79938      -53.11688      -48.82883
      -68.91641      -107.3004      -62.26160      -106.4370      -152.7310
      -124.8873      -71.05463      -159.6409      -208.6463      -160.9065
      -94.36975      -182.1204      -229.5115      -199.3911      -158.6556
      -227.8254      -219.1516      -204.1533      -248.0803      -293.5326
      -203.4830      -212.6815      -293.4327      -331.7549      -223.3203
      -225.4163      -314.8851      -341.7043      -230.4986      -263.4736
      -342.3162      -318.2751      -233.1852      -299.9171      -333.3615
      -305.3691      -239.9905      -307.2696      -305.9215      -260.7893
      -259.8818      -299.6499      -236.3832      -222.1504      -250.6998
      -290.0146      -203.9017      -192.7518      -234.5222      -243.3078
      -159.3431      -196.6049      -207.4673      -161.2449      -118.5779
      -169.1262      -172.6102      -117.1474      -83.10971      -168.1021
      -109.4904      -64.74939      -81.85181      -138.8087      -90.14285
      -28.13333      -45.27594      -115.9432      -68.47289      -21.72314
      -20.31500      -68.73798      -45.63832      -35.30502      -14.06764
      -42.32178      -20.40623      -22.01706      -30.13760      -28.38132
       5.429344      -19.27334      -27.48012      -25.77041       11.38055
      -20.75023      -21.43991      -18.53957      -1.539185      -20.62501
      -10.20547      -31.38441      -10.83074      -24.97488      -15.19142
      -21.52410      -31.16115      -59.09884       5.800903      -13.48029
      -38.22849      -39.29236      -21.93071      -28.93509      -36.60689
      -47.25832       12.38074      -54.89978      -76.91740      -29.18146
       7.380157      -60.84119      -63.35374      -19.19461      -12.80490
      -76.71774      -34.41976    -0.02212524      -43.78697      -91.30823
      -18.58812      -10.79703      -58.58728      -94.22039      -15.76354
      -22.61182      -69.09015      -68.67566      -14.02884      -54.48869
      -95.11886      -39.87009      -6.461853      -115.8419      -98.64610
      -43.64664      -33.57553      -114.5457      -120.9553      -44.60486
      -54.14569      -154.7375      -94.77852      -50.61530      -110.3941
      -153.3895      -83.76263      -73.95856      -111.6963      -147.1864
      -71.49072      -98.91208      -140.0027      -79.13583      -59.62009
      -132.8459      -131.8029      -74.46848      -23.81464      -125.3580
      -105.1728      -29.17422      -64.79410      -92.09669      -14.95382
      -23.50168      -54.41908      -56.92044       29.96883       19.84401
      -57.09090      -12.93950       104.5929       32.02879      -25.76309
       36.61276       120.3852       64.10292       49.93686       94.27734
       96.23853       52.85760       130.1999       160.0762       87.44928
       68.80048       164.9849       174.1270       113.1488       121.5860
       197.8631       140.3070       136.3552       184.5867       209.5035
       123.1188       134.7987       253.5717       211.8898       85.31030
       167.2412       276.1724       215.5977       94.40808       198.7435
       274.6696       196.9036       131.3333       245.9385       253.8735
       164.3856       173.5753       264.7853       235.2246       156.1875
       202.2863       302.5952       186.5555       135.1749       248.6428
       325.2672       182.8881       127.7391       248.2341       316.7517
       189.8704       161.2034       261.2444       279.7985       163.9568
       206.0045       304.5714       252.2559       170.7354       230.7327
       281.8367       259.6456       215.3793       269.2510       246.2448
       214.9807       279.8232       317.3673       238.7659       214.1277
       288.0491       336.8850       275.2104       258.3412       297.0797
       315.5401       283.0717       328.5046       339.2280       285.2170
       276.4321       383.3020       389.1898       284.0918       294.7961
       405.8480       381.4965       307.9391       322.5430       412.7197
       375.5256       322.3698       377.0889       417.4532       307.3835
       204.4943      -263.3018      -1409.661      -1452.541       1043.730
       1163.809       4322.469       12819.62       11454.28       5520.916
      -3584.254      -10254.21      -10763.76      -20277.81      -18584.10
      -6424.688       2745.484       10784.30       9183.572       6791.863
       12275.16       8698.631      -5159.368       204.7900       1275.410
      -9156.398      -431.9609      -843.0244      -4528.713       2430.306
       1579.612       2177.979       3721.401       1039.018      -404.4307
      -3395.526      -4527.244       1974.312       5871.146       6899.885
       4580.113      -2932.654      -7556.168      -6840.232       1521.420
       8930.164       5340.005       2182.232       2709.619      -653.8066
      -3017.192      -4001.240       2096.652       4043.223      -5848.761
      -6459.475      -1895.693       1673.200       5576.623       3878.008
       305.1800       598.7598      -752.1270      -5942.572      -7241.100
      -4902.428      -810.0801       3058.533       2862.477       1233.697
       1912.691      -2102.302      -4289.311       1723.323       2824.054
      -621.2163      -2558.913      -22.13672       1934.274       1381.022
       3382.711       1410.776      -2608.094      -1902.886      -1994.139
      -3077.096      -1077.406      -339.9207      -1419.622      -973.6123
       2093.147       3567.378       794.9199      -1055.506      -2535.503
      -2695.368      -1606.509      -3121.294      -1826.915       1633.702
       1329.481      -318.1089       464.5684       2230.271       1634.756
      -1854.063      -1638.146      -456.4375      -2107.364      -935.2667
      -540.8980      -701.0597       774.9655       545.2119      -455.4739
       87.70862       890.6565      -732.7878      -1396.779      -768.7563
      -2608.538      -2226.432       500.1279      -1324.499      -1633.904
       1988.881       1456.361       157.2755       147.8779      -882.5378
      -593.7622      -532.1218      -149.4951      -55.18652      -2543.924
      -2553.093      -281.3516       307.2920       2068.268       677.8955
      -2715.550      -948.8848      -2107.896      -4663.509      -3526.933
      -1764.644       2149.433       4122.185       1619.745       182.6213
       1122.184       979.0928      -1470.892      -2668.250      -454.6068
       366.1987      -824.9551      -858.3015      -371.9038       1418.759
       1835.002      -483.7212      -988.2913       196.8906       1028.476
      -368.1406      -2099.616      -1060.826      -1638.020      -1347.168
       2617.471       1962.850       963.6470       2179.534      -737.3779
      -2218.283      -1006.160      -1385.946      -748.8296       785.6357
       753.3716       571.6697       23.75806       670.6155       1490.655
       473.8379       2032.449       2809.921       128.6875      -1756.052
      -1624.750      -2290.818      -2593.363      -472.5033       159.4963
       200.0725       810.9805       314.1823       34.70984       542.4888
       302.4578       352.5649       774.0767      -1109.176      -1093.999
       1426.557       3324.877       2670.233       308.5420       2088.593
       2175.659      -1268.798      -1312.000      -1471.920      -1074.131
       2503.575       1549.818      -2436.208      -1256.117       473.8369
      -1147.275      -887.7932       968.8359       1873.425       1955.987
       1212.000       2754.541       2807.948      -238.4502      -717.1028
      -670.1934      -954.3743      -32.83545       486.0225       925.0186
       3140.005       2688.825      -1359.623      -494.7578      -224.3682
      -2551.979      -25.03906       1768.854       768.0264       162.7129
       733.5906       1933.153      -221.4597      -1437.540       574.4976
      -227.8240       994.6267       2326.009      -1549.721      -3496.676
      -476.2079       714.6396      -515.6318       1465.311       1465.812
      -530.9463      -941.9541      -1441.076      -693.3527      -46.32373
       758.5977       1071.186       428.8479       1318.073      -589.5698
       359.6753       2709.030      -1860.559      -573.5054       3085.460
      -586.8696      -1989.597      -535.5078      -1128.174      -2113.373
      -1813.661      -219.9189       2219.643       3052.127       899.6609
      -657.2168      -635.1914      -2072.153      -2038.762       1261.847
       2307.599       1053.910       1144.371       19.00269      -938.5881
       420.8418      -555.7305      -2186.353      -1293.693      -835.2131
      -817.2662       384.8499       1175.215       77.85944      -411.5850
       978.4253       1900.803       1016.498      -501.2173       1006.952
       1527.075      -795.6943       312.4773       1485.739       51.56250
      -1148.361      -1670.247      -982.5100       1079.898       733.0151
       733.9236       1185.548      -880.0212       185.6289       919.0795
       444.4161       238.7693      -1035.389       392.2678       1657.740
       475.1689       325.9844       1596.113       1701.858       157.6914
      -2678.489      -2695.326       1236.049       1051.727      -255.6714
       1655.738       1085.184      -1153.453      -2069.233      -1003.356
       892.8945       1831.532       428.7524      -57.51074       1075.917
       844.9932       1931.363       1347.485      -336.0747       4.377930
      -1129.917      -1020.864       705.7715      -881.3577      -1639.063
       1554.254       1363.085      -1823.639      -597.3539       579.0692
      -115.2887       655.3738     -0.3657227       414.2661       2010.196
      -506.7383      -4005.318      -2710.997       1047.851       3062.542
       2330.542      -880.2943      -848.9628       558.8224      -666.4164
       572.5120       199.2593       83.89014       2286.514      -861.8867
      -3618.954      -1401.366      -796.7170      -1641.413      -684.9961
      -228.7382       33.00244       773.9126       1326.811       1636.917
      -371.6235      -1561.968      -923.7031      -1565.340      -1311.313
      -837.1818      -751.3889      -154.8599      -586.8887      -969.4374
      -153.2239      -383.7102      -1363.233      -199.4369       1108.846
      -773.2646      -2613.998      -1264.891      -2430.737      -3095.325
      -3.766174      -419.4946       537.9336       2781.306       1032.719
       557.2701       110.1577      -1604.726      -1009.414      -897.4908
      -1357.610       1323.040       1287.574      -2665.334      -2332.535
      -347.6670      -1591.501      -1044.009       537.9799       285.1899
      -499.7915      -1776.147      -1338.062       888.8184       2753.217
       2856.513       1861.196       297.4414      -2105.078      -3401.451
      -3229.883      -2657.439      -1314.361       972.9658       1703.258
       1297.097       2579.336       1310.278      -1801.496      -1890.290
      -1304.077      -1499.231      -335.7637       3456.825       4534.686
       2338.672       1580.153       2290.540      -516.3809      -6485.047
      -3824.532       2666.266       5671.598       15022.02       24715.52
       22926.98       21097.37       23583.95       20964.34       7098.750
      -19781.73      -36552.96      -34052.20      -25033.61      -12397.80
      -4460.737       2049.351       6538.734      -6353.980      -23851.82
      -13672.38       18818.03       36049.04       36664.45       33084.35
       14269.04      -16678.48      -35794.46      -33448.82      -23940.97
      -13889.69       79.01172       17141.55       24353.69       15888.90
       7418.228       1832.477      -3001.415      -625.1006       945.4648
      -640.2861       831.5508      -5764.750      -16970.01      -13389.00
       3332.677       8495.592      -906.1602      -4901.086      -6584.551
      -7777.864      -1344.473       7630.952       6400.636      -2581.129
      -662.1455       3504.553      -1610.197      -4158.078      -7410.678
      -12347.74      -6945.238       1837.711       2452.810       2340.622
       2173.298       683.3340       5048.678       4922.213       4112.086
       11156.82       7270.268      -8325.645      -13224.24      -8086.408
      -6371.905      -2882.569       2551.871       5618.291       6356.566
       3882.700       2513.264       696.0078      -3013.117      -2801.617
      -1808.012      -3528.742      -1050.199       3459.477       2462.826
      -2665.247      -5571.153       1046.406       5766.408       2867.146
       5703.943       5145.562      -3290.169      -5623.769      -1642.488
       1353.095       1290.616      -1487.677      -2422.592       1415.881
       4218.074       3204.948       61.00006      -435.5664       913.1941
      -264.4600      -1962.867      -2795.792      -2550.359      -3098.430
      -2405.495      -986.3311      -4454.712      -3148.898       2548.289
       2380.059       491.0938      -1560.150      -1785.945       3740.119
       8639.327       5781.526      -4530.729      -7096.316       1573.614
       1934.998      -479.4500       1827.726      -415.5342      -2597.266
      -1391.087      -75.90039      -2417.970      -3601.637       880.3574
       1037.235      -2752.186      -834.4668       6084.637       8351.076
       1139.378      -3287.867       4031.725       7404.784       801.6704
      -2087.051      -561.3281      -1528.841      -1409.621      -1267.853
      -2342.378       1643.915       3488.496       46.15234      -2098.031
      -1994.464      -1363.060      -541.0220       921.4248       2572.854
       3468.673       1501.207      -428.7026       2130.012       1313.516
      -2328.188       535.3721       1806.098      -1562.652      -2759.189
      -2665.474      -2618.463      -1496.343      -245.0698       2528.964
       2193.925      -3059.427      -822.0337       2698.887      -63.74756
       1095.596       4227.238       2610.979       1908.304       3211.104
       3421.521       2295.346      -2603.681      -4722.246      -3644.453
      -3922.456      -3721.816      -5039.393      -4457.739       934.8750
       5520.180       2428.916      -326.5010       2606.818       3869.058
       584.0151      -1084.732       3339.393       2045.421      -3966.407
      -4093.493      -1625.801      -511.2947      -1399.560       999.6504
       4744.883       2203.781      -1441.610      -2170.160       240.4355
       5529.858       6651.468       2285.332       1818.969       3453.945
      -1862.176      -4756.235      -2022.629      -2878.216      -4397.687
      -2768.267       270.2974      -102.3383      -1693.135       1916.495
       2138.825      -1467.716       1164.879       5946.730       4893.718
      -720.3267      -2330.739       337.6129       166.4807       519.1807
       107.5986      -4697.487      -4455.147      -1393.968      -2356.798
      -645.2217       3736.524       3241.164      -186.8623      -609.5405
      -1012.477      -3722.371      -5953.129      -5327.316      -2289.995
       1280.975       3657.752       2180.681      -9.780029       232.1597
       1440.686       2126.645      -2415.171      -5302.895      -390.3398
       3188.367       3848.328       2583.837       341.8809       1572.633
       1851.280       120.3867      -1806.555      -3540.555       1315.972
       5679.865       2378.166      -255.9272      -2399.706      -2377.662
       409.9141      -674.3452      -2714.221      -1111.667       1198.772
       1811.270       1282.107       316.7991       491.6274      -9.128143
      -165.8196       311.9668      -2724.132      -3414.105       2393.709
       6427.397       2220.615      -2579.267      -2612.270      -4159.501
      -5801.940      -3412.290      -206.1992       3220.505       4420.461
       61.40869      -3181.880      -984.8862       1492.721      -50.39185
      -984.7041       1766.419       2679.660       1037.070      -735.0847
      -453.8081       1772.411       1585.845      -343.3457      -2032.935
      -4209.279      -3363.534      -1019.669      -238.3633       2714.272
       3481.399      -1030.277      -3794.904      -2459.220       443.0762
       2014.956       2101.244       420.4795      -1708.208      -1958.677
      -378.5156       2589.236       1917.507      -1158.367      -1132.468
      -1007.310      -1243.005      -677.5364       125.3096       3305.042
       3867.942       576.1396       2624.513       4213.249      -1213.599
      -3986.168      -443.8432       1494.491      -2938.119      -5598.099
      -631.5098       3558.323       4238.685       2436.062       18.28320
      -404.5654      -3920.186      -5184.245      -1263.493      -1206.019
      -1699.416       607.0547       2550.619       2635.719       518.4844
       991.3857       3753.251       2474.030       899.7461       1473.093
       457.5913      -780.7417      -854.0283      -1426.435      -1776.043
