     0.02500000      -28120.42       26760.78      -12345.00      -12345.00
      -30.00999       217.1400      -18.46000      -12345.00      -12345.00
       0.000000       13.86000      -12345.00      -12345.00      -12345.00
      -12345.00      -12345.00      -12345.00      -12345.00      -12345.00
      -12345.00      -12345.00      -12345.00      -12345.00      -12345.00
      -12345.00      -12345.00      -12345.00      -12345.00      -12345.00
      -12345.00      -31.28310      -69.41950       1383.000       0.000000
      -31.59500      -68.73200       0.000000       105100.0       0.000000
      -12345.00      -12345.00      -12345.00      -12345.00      -12345.00
      -12345.00      -12345.00      -12345.00      -12345.00      -12345.00
       73.94196       297.7061       118.0629      0.6648316      -12345.00
      -12345.00    -0.04654277       0.000000       0.000000      -12345.00
      -12345.00      -12345.00      -12345.00      -12345.00      -12345.00
      -12345.00      -12345.00      -12345.00      -12345.00      -12345.00
      2008        13        10        50        45
       860         6    -12345    -12345      9887
    -12345    -12345    -12345    -12345    -12345
         1         7        13    -12345    -12345
    -12345    -12345    -12345    -12345    -12345
    -12345    -12345    -12345    -12345    -12345
    -12345    -12345    -12345    -12345    -12345
         1         1         1         1         1
CALI    -12345          
        -12345  -12345  
-12345  -12345  -12345  
-12345  -12345  -12345  
-12345  -12345  -12345  
-12345  -12345  -12345  
-12345  -12345  BHZ     
ZL      -12345  -12345  
[...]
      -205.9138      -195.4409      -200.9592      -190.4261      -190.6696
      -178.7858      -175.5822      -167.4147      -167.5773      -159.7246
      -163.9874      -156.2032      -156.0835      -146.9825      -150.2422
      -142.2952      -138.9674      -128.2576      -131.4443      -121.6296
      -120.4080      -111.1214      -115.1459      -109.9147      -111.1158
      -104.8334      -107.9030      -98.50531      -102.7523      -96.59976
      -103.2354      -94.43756      -100.8898      -88.42099      -89.93518
      -83.90649      -97.47296      -88.97522      -91.68286      -86.94794
      -92.86005      -83.76349      -93.66693      -90.93881      -94.25015
      -85.38147      -92.32828      -80.91345      -84.64511      -81.37433
      -93.02686      -90.60825      -92.54642      -84.20883      -93.12326
      -82.50208      -83.22807      -75.29335      -83.09460      -72.78381
      -76.81543      -66.89554      -71.25885      -62.89857      -68.68777
      -59.39996      -59.50938      -49.83774      -54.31435      -42.01012
      -39.36325      -27.58933      -26.53100      -14.38527      -16.22862
      -3.921002      -1.977730       12.92478       19.24976       31.27490
       33.53873       48.37534       51.42767       62.62830       68.86099
       79.96887       82.57190       98.92325       104.3624       118.6842
       122.0139       136.0899       146.8873       161.0065       161.7512
       174.6343       179.4187       192.3825       195.4034       215.1395
       221.2375       228.3553       229.8127       247.3269       253.3723
       264.4625       265.3339       281.9544       283.6205       293.2849
       294.4224       303.1910       299.7032       305.6082       305.6338
       315.1615       311.2315       316.0648       316.0544       321.9940
       314.2480       317.4390       307.4259       309.3680       307.2821
       305.6529       286.0739       278.9655       268.8941       266.8063
       251.2933       250.4612       234.0944       225.9220       213.3998
       211.0118       199.3082       199.2362       186.2305       179.4049
       163.3705       156.6227       139.9294       135.3860       123.2761
       115.6207       105.2822       100.8638       85.28191       78.82162
       66.17001       61.49460       53.96851       47.71671       37.34079
       42.21909       31.73428       27.86209       14.51402       7.347080
      -4.259766      -10.51491      -23.06949      -23.78077      -28.75761
      -34.07953      -39.30977      -37.02126      -45.73431      -47.73128
      -53.92303      -55.18820      -64.84641      -70.01288      -74.84663
      -76.38660      -86.75449      -87.56195      -96.77124      -101.6407
      -108.8163      -113.6814      -120.3334      -120.5093      -126.4676
      -126.7310      -132.9365      -132.8639      -140.1693      -144.9806
      -147.7004      -143.2600      -152.6932      -157.3275      -162.1277
      -164.4000      -172.1908      -170.5676      -176.1440      -176.6340
      -182.0253      -183.4266      -188.0078      -185.2101      -182.8500
      -206.9441      -302.3672      -942.9814      -2883.092      -5188.140
      -5498.394      -3794.634      -2195.256      -1322.971       2124.674
       8530.574       8841.834       2631.629      -804.2271      -1757.707
      -2716.345      -258.2754       1801.995      -2899.799      -6324.628
      -1477.842       4564.211       6416.865       4364.556      -43.56470
      -1071.600       1347.446       19.37500      -3467.718      -3432.684
      -1266.023      -1092.341      -2600.198      -1871.149       21.75879
       991.3232       1764.599       1648.647       1751.985       383.4801
      -913.5441      -167.9316      -1423.554      -2772.385      -1538.170
       1624.216       2055.317      -280.6040      -182.7915       1241.605
       3450.283       3430.499      -907.2988      -2894.467      -695.7305
       984.6511      -9.393066      -1860.803      -2356.128      -744.2961
       2.740906      -469.6001       1014.117       3384.705       3342.587
      -2073.118      -5865.031      -2148.900       1559.442       989.6992
       1318.073       1859.272      -688.5840      -1740.414      -2147.818
      -3475.457      -157.1738       2516.989       241.4155      -295.6577
       1317.315       2318.783       2245.216       869.5615      -755.5952
      -1106.769      -1493.997      -2615.853      -1183.945       1237.456
       1506.480       808.4034      -642.5576       764.2954       2858.588
      -141.5459      -2660.016      -1850.170      -442.3864      -302.8511
      -873.6948      -1959.086      -1143.677       1680.369       304.3157
      -1626.472       506.0547       1059.907       28.59229       1397.239
       3662.991       2876.231      -443.1890      -2133.030      -2359.587
      -1880.835      -865.5423      -401.4766       996.8213       2403.660
       1391.524       99.07751      -578.2822      -343.0242       1174.052
       1012.576       36.04053       422.7809       372.0898      -696.3828
      -2051.624      -2093.519      -454.2314       1419.788       2753.403
       1608.881       587.4285       1312.076       712.5685       257.4877
       547.4404      -731.5039      -1921.306      -1498.524      -1535.682
      -399.8311       2900.559       2902.499       1186.233       532.3443
      -16.84326       106.6868       563.2427       891.4712      -690.8975
      -2500.358      -2111.547      -872.6162       1248.016       2558.490
       2546.686       2462.900       1612.714       428.5565      -385.4326
      -851.6963      -2026.263      -2188.163      -348.1412      -209.4252
      -733.2324       222.5825       1197.624       726.9409       186.2520
       435.2381       13.99816      -45.81042       142.1410      -8.100830
       634.5136      -209.0919      -598.7124       622.1725       355.2962
      -52.92053      -335.3412      -421.4817       527.3589       726.4348
       1049.102       1780.882       1026.877       71.62646      -630.1660
      -869.3318      -422.5070       232.6715       505.9906      -553.4648
      -566.4404      -1397.866      -2035.212       415.3116       650.7449
       464.3164       1381.710       74.53345      -202.7717       78.00330
      -474.6812      -661.8204       45.44922       1753.991       2077.812
      -76.28687      -1259.390      -957.4636      -1114.856      -262.6974
       95.06104      -324.3574      -959.6392      -1252.496       608.0830
       1830.983       1161.755       673.1938       337.3136      -531.3728
      -205.8120      -91.05737      -1013.464      -714.5242       962.1831
       1813.552       131.7114      -1566.848      -1583.612      -1212.892
      -704.1096       216.1748       2220.071       1295.081      -1446.511
      -615.3452       454.0032       1342.824       1198.159      -882.4297
      -949.2473      -307.8607      -729.7626      -221.7502       1464.309
       141.4727      -1646.045      -1310.580      -1722.312      -2070.078
      -1501.639       801.1240       2437.254       2587.565       2099.256
       621.8682       769.9102      -2.384277      -1759.523      -1509.597
      -775.2168      -543.1629      -274.9937       569.6631       989.8818
      -220.2966       21.46973       1185.457       459.8607       418.3292
       467.0281      -421.0743      -468.1674      -160.5469      -794.3904
      -1620.364      -440.1602       657.4932       774.1113       2494.048
       2909.850       322.4724      -899.4521      -1547.047      -1317.630
       1340.402       914.0625      -1465.888      -915.1694      -214.5676
      -296.4806      -89.09328       40.80823      -246.9182      -672.2411
      -667.3895      -451.8113       368.2928       649.0012      -1146.268
      -869.0454       1170.637       325.5214      -400.0271       771.8496
       1402.244       521.5288      -156.8406       1539.522       839.2764
      -1345.134      -908.2998      -934.4343      -842.0679       87.40643
       83.06616       312.0425       844.8022       849.9866       799.6066
       819.7723       11.84290      -562.3013      -214.8611      -680.1125
      -892.0642       627.8550       90.24731      -1254.652      -238.0907
      -10.86279      -1424.495      -1490.521       977.1621       1301.236
      -670.4564      -539.2054       74.73877       788.8832       845.1668
       31.44672       109.3527       75.91333      -939.3440       644.8833
       2339.681       278.9332      -332.1067      -583.8252      -2085.520
      -1568.730      -13.19598       370.2729      -1660.192      -1639.038
       998.6487       1464.570       7.681793      -212.0040       170.5386
       239.6438       844.3027      -311.0454      -2086.878      -765.8164
       2059.225       1688.040      -1430.476      -2138.469      -164.7980
       856.3909      -335.8045      -167.0659       1220.470       633.8230
      -497.1296      -813.4609      -864.9062      -1318.832      -1580.563
      -1021.460      -911.8135      -304.9282       1166.863       1317.924
       863.9419       1066.470      -480.8196      -1781.223      -354.5432
       1215.982       216.5052      -693.6997       521.3408       1130.576
       1342.629      -244.1860      -2253.222      -1256.233      -1019.251
      -1162.473      -909.3660      -759.3986       486.4983       647.5303
       683.1377       2251.187       1477.580      -1375.952      -1698.066
      -302.9458      -396.4020      -825.2876       28.64600       1081.099
       865.7578       639.6539       282.9685      -915.1860      -981.6802
      -1089.972      -1245.989       1213.144       984.9589      -739.4854
       831.4160       2667.812       2733.264      -536.8584      -3181.831
      -1649.679      -918.1321      -1126.155      -400.5597       224.7986
       909.1848       756.1836       1191.888       2910.600       1119.559
      -1075.823      -331.0494      -13.30884       742.0273       1729.657
       1331.180       1774.612       726.0215      -1742.782      -2693.252
      -3657.129      -2497.297      -1044.859      -1960.662      -655.1025
       1147.607       2148.193       3113.120       949.0601      -1100.164
      -561.7531      -534.5933      -244.6882      -695.7375      -976.9023
       1025.995       2694.875       2557.571       1230.628       160.0270
       176.4125      -223.4619      -904.2097      -986.1619      -1176.838
      -820.5381       1002.275       2959.384       2487.551       271.1704
       447.6995       1410.723       681.4043      -1626.545      -3517.682
      -1881.000      -758.7175      -1364.592      -1.209900      -82.91028
      -654.9131       2039.780       3360.657       308.7266      -2147.199
      -1463.141      -304.0449      -917.9172      -796.3091       2294.144
       3394.046       2200.108       1874.531       381.5828      -283.2944
      -621.3945      -1881.450      -3052.627      -3887.170      -3859.958
      -3505.697      -1391.471       2042.381       3874.440       3643.891
       1891.323       1226.854       1650.753       874.3489       684.6195
       372.0604      -1179.912       679.4160       3410.044       1531.166
      -384.5073      -687.9229      -2787.830      -2606.050      -1017.922
      -936.4551       411.3057       2426.839       3342.092       2909.881
       1019.427      -90.90039      -493.5547      -2075.922      -4521.730
      -7815.900      -7499.359      -2417.646       760.5435       1471.538
       1678.854       2087.022       1659.200      -1193.842      -5673.891
      -10034.37      -13151.97      -15800.41      -19123.69      -18364.65
      -12238.96      -6416.544       1400.734       13116.43       22086.58
       24550.52       21881.70       17254.74       10018.54       2081.188
      -131.7832      -1438.266      -6424.644      -5543.599       850.0938
       8845.316       16976.84       20451.69       22033.93       18141.30
       6930.887      -6093.188      -20069.23      -27087.91      -24492.14
      -17414.62      -8722.972       888.0918       9010.082       12965.54
       14360.02       7843.336      -2158.094      -4232.145      -5300.681
      -6723.253      -2039.252      -357.6875      -8458.311      -7501.599
       2959.647       4454.342       2591.125       5651.477       11626.82
       9663.060      -1865.695      -11720.95      -15328.85      -8551.607
      -139.8887       4883.227       15028.61       21076.25       14668.24
       5381.604      -4626.914      -19596.70      -25164.08      -11712.06
      -6737.164      -14088.77      -6965.129       6798.244       9662.516
       11736.71       20117.71       26760.78       22968.36       7933.992
      -6480.133      -18365.14      -28120.42      -24241.92      -9902.696
       2134.676       9720.473       12965.57       8885.882       6245.375
       3225.736      -3450.285      -4570.533      -5149.047      -6543.984
      -4514.479      -2541.415      -3001.158      -3049.149      -326.6733
      -2297.698      -2525.898       6505.500       12283.28       9052.795
       3707.214       3141.522      -1537.602      -13088.06      -12661.66
       323.3047       11030.05       16812.73       16572.75       9988.014
       2689.973      -5419.668      -11915.43      -13949.46      -14173.77
      -10388.60      -4153.677      -2814.836       511.1406       7877.418
       10626.52       9671.865       8929.275       7383.296       1302.920
      -5675.033      -7106.199      -4885.246      -4601.104      -4655.723
      -3069.730      -3085.182      -3990.088      -5796.558      -5092.217
      -1693.837       725.5273       2800.081       4182.518       5952.898
       7030.208       5476.450       4007.847       570.9248      -4920.609
      -5801.223      -4855.045      -5318.717      -3542.992       244.7803
       3752.878       4158.832       4129.116       3673.375      -299.3499
      -1471.741       120.4282      -1258.354      -4254.525      -7147.908
      -7935.603      -4790.500       2092.322       6645.859       5679.906
       4842.248       6049.116       5105.375       949.5420      -3603.313
      -4837.621      -3314.234      -4012.990      -5758.826      -5573.102
      -6891.199      -8101.363      -4468.654       443.6133       3266.932
       5849.414       6847.439       6733.541       7939.398       8901.385
       7909.680       4684.892       2459.597       1086.633      -2198.510
      -4251.443      -4535.870      -3839.461      -3568.096      -4718.446
      -3685.806      -2611.570      -2343.816       746.0078       2775.596
       2889.827       3787.777       4621.602       4067.614       1218.164
      -1929.497      -3161.319      -2310.749       647.0312       2674.386
       2763.296       2490.449       2095.745       1247.046      -2025.689
      -6037.349      -6005.554      -4058.250      -4313.389      -4537.312
      -1212.001       3054.717       3111.310       321.5840       685.6548
       1418.567       183.2692       386.4756       494.2665      -248.1760
      -823.1035      -1235.598      -1904.522      -1667.204      -992.7422
      -994.3347      -94.47070       714.4592       1222.619       533.9023
      -2276.689      -3990.583      -2062.078      -215.1377       663.7354
       4161.750       7246.213       7784.449       6883.719       3207.776
      -1096.990      -3673.959      -5900.973      -6318.496      -4672.361
      -4020.664      -2294.686       1222.676       2367.071       1633.015
       1982.409       3299.016       4165.743       3184.364       1844.542
       1208.642       767.1731       643.1304       954.2144       1257.417
      -336.3625      -1529.187      -724.6581      -310.1858      -492.0518
      -1883.801      -2776.189      -2459.937      -4206.015      -5522.003
      -4452.825      -3318.967      -635.6943       2287.480       4408.624
       5460.363       3853.390       3061.567       3104.879       2163.429
       989.4584      -239.4058      -1210.940      -2332.312      -3844.260
      -5123.003      -3704.788      -886.3636       82.14093       382.6574
       114.8404      -30.50769       311.0739       309.9573       257.1361
      -669.5549      -535.0010       1438.645       1997.735       1726.482
       3550.219       4547.208       3478.275       2437.771       2048.081
       1018.040      -864.0288      -1439.327      -3222.137      -4135.326
      -3277.580      -3357.381      -1165.467       973.1250       1747.995
       3556.323       4226.740       2093.378       551.4097       1214.318
       1700.677       1711.011       1454.698       2247.420       3570.141
       3681.294       3678.513       2044.425      -674.5640      -350.5386
       699.0840      -1466.802      -2973.375      -1770.579      -739.3268
      -190.1421       320.9114       735.6279       1793.272       2132.302
       230.5830      -1300.630      -1161.887      -1768.586      -2479.579
      -1588.174      -834.1875      -2135.972      -2814.957      -1567.944
      -1494.131      -1237.935      -172.2644      -52.03125       823.6982
       1512.650       1373.869       1589.116       1696.570       1938.902
       1777.849       1440.176       395.7639      -1350.315      -1354.000
      -259.0598      -145.6082      -1001.960      -1302.951      -1489.874
      -1487.096      -912.5193      -535.9045      -52.35321       221.9431
       87.43335      -350.9453      -1017.161      -1360.603      -1280.996
      -1372.316      -656.2568       1409.595       2496.160       1929.019
       838.2822      -534.8032      -1269.203      -531.9011       561.5488
       2237.736       3334.421       3472.592       4016.116       2751.462
       975.8525       232.3013      -1295.363      -2279.939      -2108.384
      -1846.992      -1658.283      -1402.857      -290.9097       1448.693
       2535.144       2723.253       1657.339       584.7852      -112.7314
      -1375.977      -1586.392      -1439.117      -2541.178      -3866.583
      -4052.177      -2297.354      -547.4004      -768.8889      -1043.648
       169.5984       1260.884       961.9629       853.9033       1148.333
       282.5959       440.5420       1346.403       378.2618      -505.4475
