     0.02500000      -37913.89       42032.81      -12345.00      -12345.00
      -30.00999       217.1400      -18.46000      -12345.00      -12345.00
       0.000000       13.86000      -12345.00      -12345.00      -12345.00
      -12345.00      -12345.00      -12345.00      -12345.00      -12345.00
      -12345.00      -12345.00      -12345.00      -12345.00      -12345.00
      -12345.00      -12345.00      -12345.00      -12345.00      -12345.00
      -12345.00      -31.28310      -69.41950       1383.000       0.000000
      -31.59500      -68.73200       0.000000       105100.0       0.000000
      -12345.00      -12345.00      -12345.00      -12345.00      -12345.00
      -12345.00      -12345.00      -12345.00      -12345.00      -12345.00
       73.94196       297.7061       118.0629      0.6648316      -12345.00
      -12345.00      0.1439005       90.00000       90.00000      -12345.00
      -12345.00      -12345.00      -12345.00      -12345.00      -12345.00
      -12345.00      -12345.00      -12345.00      -12345.00      -12345.00
      2008        13        10        50        45
       860         6    -12345    -12345      9887
    -12345    -12345    -12345    -12345    -12345
         1         7        13    -12345    -12345
    -12345    -12345    -12345    -12345    -12345
    -12345    -12345    -12345    -12345    -12345
    -12345    -12345    -12345    -12345    -12345
         1         1         1         1         1
CALI    -12345          
        -12345  -12345  
-12345  -12345  -12345  
-12345  -12345  -12345  
-12345  -12345  -12345  
-12345  -12345  -12345  
-12345  -12345  BHE     
ZL      -12345  -12345  
[...]
      -375.2578      -377.3547      -390.0486      -389.3624      -403.8308
      -407.2551      -417.5726      -414.1799      -425.1600      -425.6981
      -433.2925      -425.6055      -427.6382      -421.6625      -427.5629
      -417.1221      -420.5923      -409.0757      -408.6848      -398.5677
      -398.5093      -391.7291      -393.3483      -376.4633      -376.5762
      -364.8384      -361.5670      -345.3621      -339.1915      -321.7276
      -323.3312      -307.8806      -307.3763      -287.9115      -278.5435
      -254.3732      -250.2458      -233.3546      -227.1007      -205.6298
      -205.2176      -186.3232      -181.5385      -165.8090      -162.5239
      -139.3495      -143.0813      -127.7271      -126.1723      -107.9245
      -101.7654      -85.67209      -79.97610      -58.91414      -57.87405
      -48.25874      -45.21344      -28.39400      -25.37318      -12.53791
      -9.124538       4.774361       2.249504       11.76921       17.39720
       26.54031       25.09570       39.75217       43.53302       52.83029
       54.51016       65.79993       69.79578       80.61096       82.05350
       92.26984       94.12396       104.5465       110.8842       118.3810
       121.2457       131.7820       132.6953       138.1379       140.0267
       145.5742       145.5293       152.4969       148.6761       151.8599
       151.5182       154.4487       150.2358       155.9982       158.5977
       169.8733       171.7148       176.3218       170.6113       171.9420
       167.3425       168.5931       158.7729       161.2789       159.2225
       164.6214       158.1428       159.3149       150.4908       150.0873
       139.6184       142.6488       137.6705       137.8103       126.0028
       128.7506       122.3064       123.0685       114.9634       117.3713
       107.8095       109.0202       106.4805       105.6328       96.15479
       98.82178       99.66602       99.96021       99.76483       104.9121
       98.79791       95.17111       92.60373       92.57797       89.95163
       91.62943       94.57227       97.90491       95.62970       93.10358
       96.82068       99.67383       101.1243       100.8062       101.1267
       101.8551       102.7191       98.40356       93.73782       91.45358
       90.17944       93.95819       95.46115       95.41116       100.2437
       105.5173       109.5258       107.9874       108.8907       111.1375
       110.7940       108.1984       110.5733       107.3376       103.5809
       101.0226       101.0976       95.10880       92.80084       91.32822
       92.39175       94.03226       94.06464       93.23303       96.57327
       93.26355       92.10696       88.90765       86.68250       79.80867
       77.47549       70.29865       74.87152       74.98357       72.01917
       68.71326       73.38425       66.54112       63.45139       60.89708
       61.61060       55.86588       58.25414       52.67795       48.35672
       44.56648       46.50873       45.01441       42.47292       35.65002
       32.87002       21.70959       21.26213       20.80804       23.73433
       19.97112       24.89100       18.97662       16.52726       12.43957
       9.671387      -1.629126      -2.941032      -14.39746      -17.14651
      -29.46221      -24.02261      -29.54532      -33.08688      -40.91928
      -39.99762      -51.18967      -53.81223      -65.13324      -66.73230
      -83.12958      -87.16141      -102.1071      -107.0854      -122.9025
      -125.7945      -141.9998      -145.4025      -154.0751      -157.1503
      -168.2307      -171.8704      -187.4579      -190.3286      -201.9460
      -203.7798      -212.9319      -208.9016      -219.9662      -221.8873
      -236.6970      -239.5731      -252.8588      -254.8662      -265.4783
      -267.5167      -281.6609      -279.3333      -289.3545      -286.8776
      -294.1548      -295.3870      -299.3655      -299.3128      -311.9396
      -313.1712      -324.3956      -322.4519      -329.3105      -328.5452
      -340.2098      -332.7526      -337.3789      -346.7714      -360.1766
      -336.8689      -294.5172       46.39941       1163.821       2619.852
       2688.252       1352.288       641.0503       553.1846      -1889.334
      -5960.835      -5153.917      -420.2520       5.934814      -263.9199
       2494.117       288.9536      -3513.790       793.0498       4624.115
       77.11914      -4522.470      -4838.661      -2922.888       298.7139
       1181.653       262.3096       1794.566       3061.331       790.8773
      -495.2636      -74.67480       182.3293      -49.19727      -1861.407
      -1635.656      -567.3674      -1297.820      -557.9727       2047.898
       3421.229       2035.016       1488.771       537.1602      -1666.606
      -2285.978      -3686.271      -3300.395      -757.2791      -938.1831
      -1196.845      -527.7720       1330.507       3646.407       2447.979
      -86.92944      -783.2921      -352.6827      -210.2305      -1241.631
      -1395.691       24.48901      -368.1284      -1768.248      -305.5098
       2385.545       4570.017       4291.631      -326.4111      -2586.444
      -1363.058      -2942.256      -1025.984       3207.812       1154.046
       483.5991       2154.386       569.2649       741.4993       979.3718
      -260.8477      -716.6318      -2664.462      -3284.866       116.1014
       725.5560      -1240.201       1125.601       3221.844       1135.472
      -298.4932       803.5945       1966.461       54.63330      -2207.227
      -991.0513       654.1084       1430.922       2272.837       1857.251
       742.6406       1013.266       1836.049       189.7007      -1850.724
      -1965.932      -1175.714      -200.4515       453.3459       347.5333
      -132.1709       333.6572       1862.917       1936.895       678.8794
      -31.76660      -112.7632      -941.8174      -2197.623      -1113.946
       1186.677       939.4526       1629.394       2242.074      -437.9609
       186.5571       2285.968       160.7782      -597.2923       497.2307
      -326.3113      -801.0776      -549.0195      -1295.029      -1740.411
      -428.2549       1700.542       1993.745       665.7521      -352.1315
       121.9827       1178.805       934.5977      -68.65833      -247.7460
      -325.8779      -1136.508      -1481.172      -372.7495       951.8538
       1546.453       633.3412      -311.9629      -264.6007      -248.1063
       206.0747       1024.894       1276.576       432.2944      -807.6152
      -1084.752      -350.1616       1135.815       1028.148      -165.5972
       550.4160       1164.248      -90.94849      -679.5039      -991.5471
      -1317.704      -2.020142       631.3314      -265.8398       451.5527
       1783.940       1521.851       988.9591       259.9185      -976.6870
      -1052.539      -440.8352      -404.3818      -1407.515      -1362.076
      -179.4116       177.1036       629.1584       694.4823      -130.6064
      -132.6136       99.22974       312.9230       505.8564       496.2852
       266.5193      -218.1928       100.9430       238.5898      -347.3778
       197.9556       990.2504       921.0879      -621.3188      -1697.255
      -301.6343       437.4583       65.06470       575.6824       595.1829
       183.3423      -178.4465      -294.4451      -768.0242      -1096.620
      -591.9709      -238.4429       433.8177       679.6642      -415.6665
      -603.5485       218.6505       106.9142       439.4446       1110.984
      -69.49170      -1517.076      -1926.336      -478.3047       922.4094
       441.6519       492.2109       1264.597       1081.996       634.5708
      -584.7913      -1419.473       127.0831       769.2109      -382.8630
      -626.9268      -1278.448      -2140.757      -1134.676       755.6548
       634.2057      -157.3987      -612.7842      -1525.629      -437.7413
       290.3986      -3.311279       1151.808       525.3169      -1066.927
      -744.7856      -139.8098      -185.9087       643.4277       1833.049
       1607.784      -372.9146      -1255.194      -878.4863      -1248.708
      -532.0078       390.8441      -199.2878       9.380219       83.23761
      -346.0847       312.5579       403.9268      -608.5889      -748.5083
      -28.00671      -176.7091      -771.1716      -236.2296       83.84991
       23.36169      -467.5933      -1042.606      -623.7422      -197.3849
      -50.14224      -13.73506      -123.6364       316.9387      -787.6787
      -1610.913       799.4136       2164.392       1539.800       1157.057
      -50.61389      -600.6675      -263.4922      -883.2761      -1046.067
       219.2599      -285.3074      -1431.019       10.34964       330.1714
      -512.5903       775.7080       1361.259       584.3152       139.3114
      -379.8457      -1068.181      -480.2672       168.1824      -676.9583
      -1505.148      -548.0094       821.7637      -293.5878      -782.3542
       798.9283      -116.1948      -1309.195      -814.7969      -1048.431
      -1501.466      -507.2866       1175.985       1342.171       1072.825
       2253.573       2775.105       1443.787      -614.4175      -834.5073
      -1057.028      -2384.346      -1092.177       271.4921      -733.0017
       288.9160       1826.832       838.3042      -213.3264      -664.2966
      -945.0632      -231.7159       221.0377      -184.5365      -34.81284
       258.9160      -209.7617       401.4114       1029.774      -512.1245
      -1193.412       475.9505       264.7800      -503.7795       934.0541
       888.4180      -827.5003      -499.0310       1018.810       1086.370
      -300.5667      -816.2458      -624.1118      -356.2657       302.5687
       338.8129      -466.9253       451.1118       1774.254       540.6711
      -1147.035      -780.0532       869.1830       640.6479      -281.5215
      -355.3022      -1777.156      -1797.529      -156.3055       33.34558
       234.3149       1280.714       1645.704       1884.576       1437.653
       258.2593       208.1560       597.7612      -61.32416      -36.60040
       429.4589      -605.1344      -753.5861       56.28198      -449.3406
      -525.3364      -669.6060      -1037.006      -440.1598       406.0448
      -74.00073      -2.308594       1556.081       1103.742       44.73218
       111.8923       509.5952       1190.213       410.2635      -112.5034
       11.13525      -660.7556      -597.0459      -394.3378      -885.8538
      -135.3170       697.0516      -112.5996      -155.0942       1578.249
       980.2859      -1114.291      -459.3585       913.8258       474.0493
       41.76486       126.6968      -519.6985      -462.7924       280.8013
      -151.1489       521.4163      -50.27563      -174.7755       1262.330
      -480.6587      -305.8438       450.5085      -1446.211      -378.8423
       502.8792      -682.1743      -320.0361       375.5032       313.4748
       328.8112       172.7944       4.877747      -300.2698      -140.3470
       145.7273      -76.93164       1080.244       2139.351       468.4868
       273.7812       1320.460       971.6339       943.1492      -76.66602
      -1444.420      -802.0737      -1093.399      -1099.215       714.8967
       1017.353       249.1687      -242.4172      -355.2935       292.6734
       339.1504      -765.9456      -1449.519      -493.1531       938.8875
       1286.297       317.2679       484.7727       1007.511       149.6511
      -628.4017      -468.8757      -335.6932      -519.1211       716.3906
       987.2629      -1207.354      -1053.664       1085.466       2521.960
       2169.725       60.37207       65.91260       1961.598       1149.752
      -647.3721      -1430.427      -1793.011      -1075.366      -1166.344
      -1246.903       959.7332       611.1196       444.7500       2556.921
       2159.051       1380.463       380.5190      -544.7904       336.0493
      -531.9219      -2089.783      -819.7131       1071.258       634.1118
      -84.25024       446.2813       539.6475      -657.0460      -384.7441
       1266.201       699.2734       733.0669       2364.207       1317.225
       1008.246       2542.191       373.8276      -2329.380      -1240.786
       294.8218       1346.944       1903.200       1601.583       182.2369
       72.21191       408.9839      -2152.697      -1955.396       883.2745
      -226.7135      -711.3281       856.6015       361.4423      -653.0098
       720.7329       2004.255       181.8787      -72.73047       2672.867
       4120.290       3860.523       1865.399      -1950.775      -6445.066
      -11491.44      -18375.94      -25950.38      -31468.70      -32027.08
      -28710.57      -23798.75      -12305.23       6070.195       21327.66
       29534.52       36122.22       42032.81       41112.41       31496.34
       13998.88      -4792.098      -17531.10      -26241.62      -31649.16
      -26723.79      -6968.988       10695.97       9404.082       5550.220
       7520.588       1180.584      -9208.455      -11409.79      -8061.506
      -6161.088      -3572.086       9168.469       25038.16       32050.02
       28604.12       14275.76       3729.186      -2990.109      -19780.69
      -29163.30      -19237.96       2030.988       12063.87       7671.758
       10322.03       5363.785      -7194.350      -5366.609      -5945.746
      -17959.35      -17263.50      -2890.875       1300.937      -2167.420
       5761.148       20224.56       28739.50       30339.91       18436.30
       2375.473      -6365.742      -24069.45      -37913.89      -29427.75
      -20753.84      -13940.39      -3654.139       5265.582       15408.21
       23322.89       33538.03       39062.66       31625.18       16868.48
      -8967.445      -31508.81      -36087.48      -26037.10      -21549.16
      -24950.03      -8236.223       10981.08       14196.16       14823.20
       9129.467       1679.369       6321.387       15542.91       16654.71
       14388.92       10217.71      -3415.953      -19490.42      -20285.92
      -11138.37      -7740.156      -4740.779      -3558.566      -7151.305
      -7528.801      -6250.509      -3110.708       2080.949       6767.613
       8177.264       5011.885       5845.168       12054.22       11560.37
       2588.750      -7025.566      -10259.43      -9826.922      -12093.55
      -10029.68      -1329.230       2693.623       492.2031       5114.873
       12216.18       5819.213      -801.5850       2893.042       2780.676
      -1500.399      -2311.865      -1349.231       2886.316       7885.263
       5347.611      -1775.985      -4898.035      -5157.865      -8940.414
      -12219.94      -6634.863      -437.7886       1602.670       4271.139
       3400.420       1527.329       2007.195       657.8875       1321.541
       1357.287       2047.229       8741.002       11007.28       8085.158
       6491.107       3982.516       212.3638      -1699.031      -1845.229
      -2681.545      -5335.953      -8461.688      -6159.881      -5251.332
      -9092.903      -4673.562       1019.086       1631.016       6404.631
       8461.223       4468.930       2150.825       604.1636      -1973.988
      -1456.840       1577.583       4816.745       3926.611      -1519.079
      -1837.235       441.8022      -602.9727      -3039.572      -5856.375
      -5949.268      -4859.865      -3202.847      -428.1714       1163.323
       1967.708       2322.844       966.1510      -516.6406       1796.972
       2360.279      -3395.642      -5075.393      -1743.480      -3134.752
      -7574.328      -7502.573      -3790.856      -1628.351       257.3809
       4257.016       4778.998       2466.821       4807.051       5066.647
       73.61743      -704.5757      -230.7761      -1058.200       686.4512
       2663.113       4470.838       5472.571       4076.062       2873.457
       2841.483       2545.718      -2018.640      -5161.603      -2405.513
      -1623.788      -4100.681      -4874.383      -2670.690      -1543.281
      -1492.696       2009.260       2511.408      -1486.896      -1867.224
      -1321.573      -2680.363      -3019.911      -3523.104      -3964.765
      -2944.644      -296.6436       2908.637       4986.221       7016.643
       8075.387       9120.037       11383.29       6811.114      -705.8372
      -956.4988       616.0156      -2415.619      -6011.484      -5551.104
      -3443.286      -2552.312      -2592.468      -4197.659      -4687.689
      -1545.519       201.0713      -560.5283       605.8223       3545.102
       5649.931       4418.932       1821.037       373.6815       52.21228
      -155.7204      -74.34021       72.27734       1319.637       6102.193
       8455.215       5514.157       3698.555       2516.499      -1744.524
      -3876.243      -2083.438      -3011.871      -4373.611      -2667.191
       603.6582       1960.623       519.8429       812.4535       417.4707
      -2053.342      -1014.112      -1202.684      -4257.759      -3344.658
      -967.9302       86.57031       1156.149       2439.887       3703.812
       4623.980       4810.418       2074.659       323.1079       1153.263
       1387.587      -902.8770      -5103.464      -4180.316      -1066.001
      -2459.086      -2624.137      -6.188477       1245.143       1606.073
       2654.962       2432.971       1608.203       1870.282       1427.335
      -830.9136      -2618.416      -2199.034      -1535.963      -726.1943
       1400.910       4284.008       4964.601       1136.660      -907.1077
       88.67017      -381.8633      -2025.824      -3791.269      -3163.539
      -1242.715      -1767.163      -910.2466       1430.156      -180.8506
      -1593.347       1198.248       1443.630      -811.8369       1206.271
       3298.710      -435.6934      -3218.516      -2216.024      -1033.540
       137.8838       2692.195       5216.085       3792.268       3128.602
       5566.449       4192.834       1060.660      -475.7461      -2881.527
      -5337.016      -5975.750      -5510.512      -4015.676      -479.0039
       2301.219       1799.984       1525.191       2280.242       1169.742
      -125.2314      -751.6094      -3242.713      -4990.973      -5110.312
      -5484.562      -3862.108      -969.5480      -585.1040       1123.740
