     0.02500000      -23981.03       30899.84      -12345.00      -12345.00
      -30.00999       217.1400      -18.46000      -12345.00      -12345.00
       0.000000       13.86000      -12345.00      -12345.00      -12345.00
      -12345.00      -12345.00      -12345.00      -12345.00      -12345.00
      -12345.00      -12345.00      -12345.00      -12345.00      -12345.00
      -12345.00      -12345.00      -12345.00      -12345.00      -12345.00
      -12345.00      -31.28310      -69.41950       1383.000       0.000000
      -31.59500      -68.73200       0.000000       105100.0       0.000000
      -12345.00      -12345.00      -12345.00      -12345.00      -12345.00
      -12345.00      -12345.00      -12345.00      -12345.00      -12345.00
       73.94196       297.7061       118.0629      0.6648316      -12345.00
      -12345.00     -0.3354764       0.000000       90.00000      -12345.00
      -12345.00      -12345.00      -12345.00      -12345.00      -12345.00
      -12345.00      -12345.00      -12345.00      -12345.00      -12345.00
      2008        13        10        50        45
       860         6    -12345    -12345      9887
    -12345    -12345    -12345    -12345    -12345
         1         7        13    -12345    -12345
    -12345    -12345    -12345    -12345    -12345
    -12345    -12345    -12345    -12345    -12345
    -12345    -12345    -12345    -12345    -12345
         1         1         1         1         1
CALI    -12345          
        -12345  -12345  
-12345  -12345  -12345  
-12345  -12345  -12345  
-12345  -12345  -12345  
-12345  -12345  -12345  
-12345  -12345  BHN     
ZL      -12345  -12345  
[...]
       260.9839       264.2551       250.8273       261.1703       246.7950
       256.5583       237.1790       238.1110       219.6370       222.8823
       204.8052       215.1329       194.5552       195.4332       181.4934
       189.5874       173.9933       186.5729       170.2568       177.8817
       159.3794       164.2097       145.1274       151.3815       130.8810
       133.2510       115.5178       119.9761       102.5638       105.4818
       86.12576       86.28607       62.05249       61.45530       40.77276
       40.30063       19.12054       18.12681     -0.4322252       2.346699
      -17.52782      -9.090904      -26.93190      -28.67134      -54.06487
      -54.66846      -78.00432      -76.00964      -96.45685      -92.72473
      -115.3257      -114.6852      -129.9252      -122.6126      -143.1043
      -140.3953      -157.6705      -154.0366      -173.4165      -167.8972
      -189.8124      -185.0040      -198.0165      -191.0754      -207.8877
      -204.6733      -225.3649      -216.8184      -234.6804      -227.9199
      -239.2306      -227.2986      -247.4391      -239.6934      -252.0685
      -243.2795      -260.8859      -248.3656      -261.7651      -247.5319
      -255.1431      -242.4645      -255.8569      -243.0580      -256.7920
      -241.7540      -251.1068      -238.8821      -251.4328      -237.9318
      -247.5549      -229.6503      -242.9258      -232.0789      -241.4294
      -224.4361      -233.4731      -218.7339      -231.4349      -213.7661
      -224.1188      -211.0792      -218.6621      -205.2720      -214.5391
      -200.3041      -210.1636      -189.6671      -194.8631      -182.4839
      -189.2735      -174.2780      -182.7559      -168.7117      -179.6187
      -162.9542      -162.4269      -143.5278      -145.5832      -127.3083
      -129.4399      -112.8252      -119.3846      -102.1523      -102.4631
      -81.01309      -83.65121      -70.50642      -74.71399      -53.81128
      -52.23359      -32.04012      -27.02441      -4.315418      -7.013332
       9.692604       10.89876       32.75458       29.84291       44.66818
       39.82056       54.91652       49.67111       63.13959       58.49121
       76.28726       77.28967       92.08731       86.51541       103.4805
       101.6940       115.3701       110.4118       128.4739       126.9384
       142.6902       135.0694       146.6914       144.4259       159.7659
       151.1478       162.2245       156.0213       166.8320       156.8469
       164.8841       150.6097       159.8164       146.6023       148.9692
       135.3723       140.6957       132.4071       142.1101       131.1540
       136.5262       119.2254       125.2065       113.7335       120.0852
       106.9071       110.6025       97.46216       97.58066       82.85822
       97.02347       86.03596       88.59973       69.45683       72.82671
       54.14375       55.45818       38.38068       44.26813       26.34715
       28.19081       12.16412       12.83246      -9.023546      -3.694073
      -15.52487      -8.878944      -20.46269      -13.01074      -26.21718
      -20.90073      -38.07957      -33.44827      -42.48326      -38.49649
      -57.34726      -56.78796      -123.0651      -203.1774      -115.9731
       153.9396      -69.39087      -836.6729      -1166.216      -338.8717
      -196.7334      -1647.991      -1388.683       555.5271       450.7385
      -49.80554       543.6208      -678.5696      -1397.608       2073.832
       3608.303      -258.5588      -2103.199       258.2310       1083.381
       151.5104       106.8478      -33.47192      -1099.776      -947.3022
       650.9281       355.9950      -601.7728       261.3335      -245.4744
      -1370.630      -179.9574       872.6295      -221.7366      -902.3965
      -684.8198      -1002.612      -533.6630       594.5833       773.8492
       493.7411       163.0967       1453.743       1511.124      -1147.970
      -1224.174      -171.5626      -912.8635       435.9067       1688.531
      -291.1390      -703.5676       1070.368       1572.509       910.6136
       269.4727       294.7213       290.7913      -558.5093      -1239.029
      -348.1923       232.2860       67.69421       591.6368      -422.7151
      -692.7358       2158.437       3064.004       366.7231      -1625.737
      -157.6024       1.834473      -1850.431      -1075.673       311.6019
       468.6716       581.7939       862.3721       1861.781       1236.855
      -426.8065       88.54102       808.5950       95.69714       55.21289
       639.0630      -499.3230      -1967.151       293.0601       1992.294
       66.14404      -531.0482      -32.49463      -538.1956      -787.0537
      -447.4155       167.8105       399.5527       716.2100       1238.248
       521.3624      -208.8491       456.0966       40.56311      -625.8582
       11.36035      -760.6775      -1317.087       190.6698       627.3782
      -141.5480       22.71875       1126.781       1429.192       425.5076
      -823.5017      -875.0496      -854.9381      -706.4252       60.52847
       188.3377      -121.9984       185.9663       256.3255      -69.66565
       114.3215       637.3878       846.8794      -13.50391      -1124.427
      -706.3013       139.1374       124.9073       154.7866       294.7984
      -156.8765      -92.99060       550.5819       371.4748       121.0510
       609.9628      -21.12012      -1125.347      -1174.788      -1289.322
      -1032.040       607.8224       477.0388      -409.0444       525.4602
       643.4193      -19.09253      -477.8320      -1274.371      -914.9186
       426.6784       373.8159      -480.2599       115.7870      -10.07812
      -927.2581       193.6238       1288.568       94.67065      -1232.802
      -502.4771      -459.1294      -1907.805      -790.3354       656.7500
      -308.7355      -961.0145       109.5173       975.0959       873.7740
       430.6625       160.7463      -46.01001      -479.3560      -773.0549
      -397.8855      -370.6294      -884.5134      -928.5468      -650.7919
       56.16599       311.7773      -321.9856       281.5476       915.7788
       25.16577      -728.7488      -324.8658      -60.87456      -176.7213
       156.6736       526.0884       475.0238       632.8447      -155.7227
      -1032.115      -124.9174      -360.3915      -1080.484       682.5482
       738.6973      -1014.650      -188.1250       480.7719      -653.5452
      -277.9019       1276.035       1296.496       37.66699      -447.7024
       324.9282       647.5120      -446.3901      -575.8533      -99.97937
      -198.6518      -388.9634      -115.1273       640.1729       699.8339
      -132.4882      -356.2340      -135.7806      -87.77539       675.3757
       567.1938       103.2903       1147.017       1171.095       671.6337
      -28.77222      -1208.623      -920.0548      -8.056641       675.8494
       824.5715       78.97083      -668.2289      -592.5256       760.6323
       1965.273       1965.027       426.1042      -724.7437      -627.9583
      -1249.603      -422.5192       930.2949      -617.9736      -766.2600
       155.6266      -523.8724      -394.7758       604.6167       977.5236
       370.4655       3.210632       343.0092      -41.58948      -641.1075
       97.68066       1058.017       368.0803      -321.8376       80.83716
       567.2083       475.0208       32.28207      -66.09003      -102.2350
      -709.4404      -304.9318       761.8274      -8.099121      -1093.777
      -21.56897       655.6287       10.35022      -165.1113      -432.0071
      -638.7731      -640.7225       205.9021       1034.764      0.6511230
      -477.2515      -1255.586      -1243.773       1295.594       1245.393
      -938.6459      -408.4756       63.29956      -720.8269       455.8423
       1130.661      -606.5170      -950.7865       91.60522       20.60413
       47.11182       661.8831       164.8008      -56.48718       315.1185
       55.76941      -266.8896      -150.0060       189.2495       185.6030
       62.78247       777.9856       1372.326      -69.26123      -783.6905
       179.2976      -754.3633      -1823.006      -1319.726      -485.5572
      -121.6699      -501.8491      -353.2576       353.1002       193.7026
       1006.940       1287.097      -225.5745       34.70618       145.7822
      -967.3719      -348.0282       219.3501      -764.0854      -1090.585
       31.79028       758.8555       813.9387       801.5089       629.6422
      -128.6124      -660.2574      -587.8491      -680.3867      -698.0957
      -517.0089      -95.27441       650.7115       688.5381      -522.1245
      -832.8826      -146.8682      -883.2053      -1128.219      -208.8297
       343.9800      -648.1035      -1375.496       666.9639       1735.341
       1212.564       1681.275       1134.966      -434.0184      -399.4470
       13.48535      -1325.894      -1638.082      -121.2420       128.6855
      -727.1835      -895.9059      -88.87054       610.2260      -354.7614
      -436.0112       673.5914       554.8919       74.43906       42.55945
      -255.4952      -521.3844       56.01672       158.3571      -746.9871
      -193.3637       662.7344      -686.8021      -845.2405       462.2022
      -112.9868      -211.3006       541.5483      -527.4541      -1747.668
      -86.05859       1948.403       1136.243      -105.6372      -216.6589
       147.3328       1272.271       1537.042       959.5938      -166.3560
      -1341.406      -827.5959      -290.1241      -399.2227       841.3644
       1114.811      -500.9462       144.8057       876.2394      -733.3320
      -310.9844       856.2924       178.8958       80.34058       780.1953
       114.7642      -1083.729      -514.5200       764.6180       632.7930
       409.5379       205.3781      -422.6636       413.1979       726.8818
      -237.7108       67.73193       771.1278       823.8130       403.0872
       567.0698       1387.847       1015.053      -487.1216      -116.7198
       704.2380      -718.5181      -855.3408       206.6636      -348.9965
      -332.2927       488.2043       503.9797       487.8767       1217.100
       465.3835      -729.0592       109.7891       461.2744      -588.1654
      -487.2666      -164.4109      -649.7734       285.6819       991.7568
       308.1070       400.2266       91.99756      -982.0376      -1512.971
      -1496.962      -2059.159      -2368.854      -1067.683       251.6676
       569.6806       268.5276      -54.27637       357.1826       2052.471
       2604.390       273.0321      -422.9486      -319.7889      -712.5953
       37.08154       838.1597       1514.516       1119.599       68.75977
      -1038.952      -2225.064      -2510.716      -2612.901      -2636.380
      -1438.326       611.1955       144.7266      -191.2910       1593.048
       1350.184       916.1146       391.9775      -1445.734      -1089.889
      -505.6458      -1118.478      -487.1758      -264.4991      -665.3102
      -80.94122       384.0219       56.20142      -840.4434      -813.9039
       87.35651      -32.09802      -657.6653      -630.9871      -361.3628
       657.4370       2040.581       383.0903      -1878.060      -1026.922
      -938.8904      -1133.462       60.97070       22.03247      -1264.272
      -1425.191       188.9905       606.8412      -769.9684      -108.4911
       833.7943      -4.814209       371.6628       1112.535      -474.6484
      -2500.519      -1810.706      -900.4934      -1688.539      -632.4475
       1142.125      -139.2949      -1815.258      -1418.342      -2473.403
      -3060.693       341.6797       3287.445       4734.242       9087.086
       14314.19       16556.89       18525.11       22947.20       20130.69
       7653.011       4054.863       8303.414       5178.146       325.3496
       2052.422       6579.138       5624.966       176.7246      -6209.789
      -14065.57      -18499.52      -20122.11      -21422.68      -15823.27
      -12053.29      -21574.24      -23835.31      -3907.785       15591.15
       16763.99       13551.21       11368.99       2409.820      -7559.395
      -11104.01      -8546.369      -1092.443       4821.622       147.8223
       5033.145       18356.80       5421.453      -20279.56      -17925.66
       8752.305       17034.47       9160.477       4850.727      -11052.72
      -23766.76      -16035.87      -8214.811      -8490.376      -2949.602
       9295.086       15296.23       13337.46       9785.329       2440.725
      -1275.543       2464.551      -4208.561      -11996.93      -3182.549
       3123.698       900.2734       6514.550       6939.738      -5320.012
      -11659.03      -11384.15      -12542.27      -13537.71      -7018.952
       1993.688       9176.789       19855.77       29047.03       30899.84
       16416.59      -6021.551      -12765.07      -13202.46      -13263.40
      -4515.409       1920.746       499.4785      -4988.224      -6755.119
      -615.6543       7111.712       5705.528      -4066.461      -413.8672
       9437.953       4628.760       1385.900       6208.205      -3588.156
      -21902.92      -23981.03      -11780.33       1484.738       9945.504
       8905.467       2170.951      -93.22461      -1085.127      -543.2656
       8356.789       12174.42       9378.629       13828.10       9181.024
      -3250.965      -1198.963       1699.914      -1522.789      -4759.922
      -10790.16      -10599.47      -3684.828      -195.9476       69.07031
      -2143.921      -3476.828      -155.2539       2966.918       2716.281
       1571.672       705.4646       99.18164      -2285.193      -3938.869
      -3067.910      -2270.928       2336.770       7914.455       7226.633
       4295.235       3514.001       1432.898      -2863.081      -5494.520
      -5198.391      -5013.320      -2452.414       6433.547       10178.81
       6865.766       7415.813       4983.402      -3868.578      -7820.477
      -7623.611      -8353.982      -8609.060      -5854.968      -938.3361
       362.2090       481.2754       2319.622       2458.770       3451.960
       2180.650      -3759.136      -5216.917      -2370.606      -1870.963
      -1251.899       1891.832       3807.326       2216.791      -400.5205
      -1873.556      -588.6416       4459.564       7725.420       5749.816
       5791.959       7347.879       2079.760      -5160.367      -8601.223
      -9427.721      -7169.268      -5396.883      -4864.259      -3106.687
       838.3242       5802.809       6610.619       4083.371       735.4023
      -1769.024      -2105.519      -846.2637       3711.566       6413.914
       5256.904       4055.684       1879.269      -1200.497      -1613.544
       323.5269      -271.3887      -2144.527      -1994.721       284.3679
       1424.314      -772.2280      -1931.255      -374.1602       1847.383
       2588.445      -271.5215      -3624.788      -1279.270       2354.855
       1224.090      -677.8017      -285.1299       1503.261       2864.361
       1603.811      -2368.481      -2699.004      -141.7988      -2269.878
      -4018.705      -5008.261      -5665.322      -2591.197      -1638.993
      -1605.185       488.8386       111.9922      -2543.457      -3016.668
      -168.6172       3838.521       6947.934       6356.509       3839.538
       4823.477       5776.659       843.7686      -4251.697      -4820.626
      -5245.620      -5615.645      -3589.224      -1417.488       289.8701
       2124.865       2752.480       2401.955       2488.408       2417.589
       446.0898      -1609.966      -1987.648      -2560.695      -3431.127
      -5386.246      -6922.567      -4236.700       446.1816       3810.693
       6353.490       7834.320       6818.992       4306.636       2488.295
      -101.7842      -3910.746      -5941.285      -6673.600      -6978.500
      -6375.329      -5178.867      -3302.904      -1770.822      -15.16699
       455.9530      -888.5775       39.54419       972.5198      -607.1084
      -1113.968      -1074.394      -1104.756       376.7871       1754.508
       2395.074       1724.906       2518.352       5446.012       6463.146
       5393.797       3116.262       2082.923       692.0498      -1682.573
      -2032.542      -1332.079       158.4644       907.8174       661.3499
       1282.463      -152.2354      -3708.028      -4045.269      -1303.250
      -737.6045      -3273.156      -6060.354      -6708.028      -4689.609
      -1021.111       2134.026       2403.361      -985.1323      -2645.511
       1216.820       2159.361      -2229.122      -1168.351       3859.737
       4919.217       5170.698       4480.345       1583.970       2013.445
       4708.266       4524.178       1486.771      -185.8223       810.2067
       906.8176      -1091.445      -1444.984      -706.0107      -2970.319
      -4989.333      -2644.770       1197.315       2263.141       915.7378
       23.52344       763.1533       1325.190       964.5027       1203.964
       70.72266      -1973.451      -2470.166      -2802.255      -2149.753
      -511.8335       339.5957       1454.925       2358.679       2911.729
       2502.378       1244.355       350.0933      -1254.359      -1927.672
      -248.8071       1399.100       2134.893       2652.701       3215.305
       2884.732       3077.929       4419.244       3393.978       1996.192
       801.4119      -466.7219       614.6313      -1088.338      -3809.403
      -3282.191      -3994.325      -4610.169      -1833.459       217.4050
      -265.2802      -514.2675       393.6948       1061.796       397.7051
       324.3271       2096.650       3668.122       3946.683       2878.460
       2051.771       3335.947       3538.633       344.1365      -1256.173
      -239.3101      -821.5312      -2345.644      -2334.418      -2043.584
      -2563.693      -2508.616      -1186.707      -201.6592       358.5635
       1318.178       1197.683       956.2168       1963.795       663.4752
      -1103.605       1915.559       4007.921       1782.820       1251.855
       1350.114       127.5928       45.11536      -188.6926      -146.6556
       638.4208       58.02136      -131.7473      -63.30322      -982.0430
      -2211.928      -3475.589      -3498.330      -2267.898      -738.5447
