     0.02500000      -25937.06       21791.45      -12345.00      -12345.00
      -30.00002       218.9250      -20.20000      -12345.00      -12345.00
       0.000000       15.30000      -12345.00      -12345.00      -12345.00
      -12345.00      -12345.00      -12345.00      -12345.00      -12345.00
      -12345.00      -12345.00      -12345.00      -12345.00      -12345.00
      -12345.00      -12345.00      -12345.00      -12345.00      -12345.00
      -12345.00      -31.20700      -69.62850       2369.000       0.000000
      -31.59500      -68.73200       0.000000       105100.0       0.000000
      -12345.00      -12345.00      -12345.00      -12345.00      -12345.00
      -12345.00      -12345.00      -12345.00      -12345.00      -12345.00
       95.49765       296.5415       117.0063      0.8586429      -12345.00
      -12345.00     0.07799596       0.000000       0.000000      -12345.00
      -12345.00      -12345.00      -12345.00      -12345.00      -12345.00
      -12345.00      -12345.00      -12345.00      -12345.00      -12345.00
      2008        13        10        50        47
       600         6    -12345    -12345      9958
    -12345    -12345    -12345    -12345    -12345
         1         7        13    -12345    -12345
    -12345    -12345    -12345    -12345    -12345
    -12345    -12345    -12345    -12345    -12345
    -12345    -12345    -12345    -12345    -12345
         1         1         1         1         1
CASP    -12345          
        -12345  -12345  
-12345  -12345  -12345  
-12345  -12345  -12345  
-12345  -12345  -12345  
-12345  -12345  -12345  
-12345  -12345  BHZ     
ZL      -12345  -12345  
[...]
       161.5301       165.0067       165.1656       167.3320       164.0178
       165.2081       163.3506       161.9713       156.7499       158.2429
       153.5002       149.5544       145.1185       143.5025       136.0493
       131.8622       127.0345       124.5050       118.1364       109.4033
       99.37717       97.88501       90.26254       81.65962       72.85446
       62.37508       50.46472       41.33859       28.77426       17.80654
       4.793434      -5.162041      -18.06793      -32.31494      -45.82167
      -56.71985      -71.33643      -85.49554      -100.2618      -112.0045
      -123.2482      -134.6971      -147.5381      -161.2587      -173.8683
      -182.9543      -195.4128      -205.3066      -217.8600      -231.0542
      -243.7715      -256.3665      -267.5673      -276.5519      -290.3189
      -303.7062      -309.5426      -317.2141      -328.1405      -337.1554
      -345.9451      -357.0247      -364.5183      -371.3367      -376.5356
      -383.1951      -390.4849      -397.2098      -403.6689      -408.8381
      -412.4246      -420.2175      -424.2007      -427.3391      -430.1177
      -434.3054      -438.2783      -439.7803      -439.1957      -441.3043
      -441.0903      -443.3525      -444.0410      -445.4205      -441.5693
      -436.3787      -431.0720      -424.6858      -416.2639      -410.1736
      -402.2834      -396.2543      -387.1453      -376.1525      -364.4822
      -354.6262      -347.4571      -333.3709      -316.8326      -304.8639
      -290.4507      -275.3477      -262.6343      -248.0165      -231.7861
      -214.1689      -200.3120      -187.9636      -176.0212      -162.9219
      -148.0501      -135.9280      -122.7304      -107.8167      -93.98886
      -82.67673      -68.91556      -56.75887      -43.03182      -29.31890
      -20.20248      -11.39119     -0.1521454       9.229595       18.42742
       26.80646       39.37613       49.87189       60.31085       68.17773
       78.42471       89.05212       96.12311       99.60699       109.2410
       115.1474       122.5929       129.6109       140.5153       146.7166
       153.4549       158.5613       166.2117       172.0644       180.8566
       184.4946       191.7313       199.1330       205.6724       208.2731
       215.4845       218.3104       224.3694       228.3609       236.4908
       241.1752       246.7884       249.6893       255.6456       258.2926
       258.4195       255.5812       261.3385       261.7936       266.0793
       267.1326       269.5159       268.9563       276.7238       276.5880
       277.3409       275.7360       280.3618       282.2007       284.9553
       284.5564       287.9510       286.5439       287.5002       284.2557
       286.6336       272.4554       190.2336       54.74332       6.675148
       60.66307      -21.97693      -170.5372       67.56494       301.7805
       599.6492       996.2501       627.6116       21.38696       520.3693
       600.2871      -137.8589       51.24908      -310.9707       447.1802
       1755.472       831.4271      -71.74988      -414.1021      -457.1248
      -330.8833      -720.9211      -611.2373       1807.380       3161.053
       786.1177       528.3657       2121.776      -1131.980      -3843.029
      -109.0698       2420.701       123.6786      -753.6301       405.1814
       1390.629      -581.0813      -1829.066       388.2525       413.5898
      -514.9025      -356.1708       515.2314      -32.10461      -1058.089
       1368.967       3096.381      -140.1223      -1873.685       2157.148
       2132.199      -2159.967      -1663.577       1771.307       2157.115
      -1607.352      -1616.009       1513.309       938.0088      -2028.822
      -1308.773       2517.173       1335.158      -1374.632      -31.08325
       368.3928      -992.9822      -629.1199      -517.9729      -141.8506
       1290.344       1657.154       360.4985      -743.8938      -912.6499
      -1488.558      -1788.684      -783.3916       1855.231       1696.224
       729.9731       793.7031      -2260.286      -1717.725       1050.689
       337.5996       1062.886       1590.888      -699.5679      -788.1653
      -538.3999      -2063.355      -1359.000       141.4580       154.7581
       1356.074       959.6019      -7.329712       133.0557      -1030.216
      -738.6808      -4.475098       1592.343       760.1106      -1085.660
       678.3855      -675.3271      -2291.909       235.0558       480.8364
       23.43213       1974.883       94.64111      -1404.227      -199.3004
      -245.9043       1526.140       1509.916       344.1654      -320.6890
      -705.2017      -2104.152      -1897.898       476.8113      -711.3015
       709.1025       2088.635       785.5518       937.9265       671.5781
      -788.8721      -1713.457      -1109.547      -518.2781       49.92773
       992.3337       603.1982      -236.5382      -694.1956       281.8694
       253.3403      -303.1479      -301.3223      -738.1963       557.2610
       608.3669      -323.6497      -834.8612      -931.9219       1186.727
       1905.500       41.59277      -727.3989      -1195.278      -1217.221
      -1405.335      -1809.982       63.63477       3012.176       1797.951
      -234.8297       509.4084      -773.8127      -1217.296      -252.3367
      -1216.108      -731.6660       1058.741      -669.1082      -488.1511
       1080.783      -964.6387      -1796.055      -247.1089       1617.137
       886.8574      -1411.539      -1220.105       730.0767       611.9097
      -886.4816       475.0737       1224.171      -364.0024      -1098.807
      -1459.247      -1126.796       1382.003       756.1274      -1427.028
       1033.523       1326.574      -403.1328      -1447.656      -1220.242
      -141.4353       612.6076       223.0911      -585.3027      -278.3140
      -1555.796      -342.6539       4.643555      -1774.247      -508.4150
       332.0674       1058.892       1435.839       1.690918      -1663.629
      -1604.233       451.1285      -25.61572      -1666.641      -1401.990
       649.7253       963.5698       490.6641       689.4480      -1028.203
       18.57776       416.5049      -276.3110       234.6580      -699.7211
      -386.5078       1213.713       1257.143      -2012.194      -2346.749
       261.2773      -1300.170      -2178.397       455.9329      -161.2173
      -839.4277       1908.083       1524.243      -518.9850      -171.8623
       658.2868      -64.26562      -695.5573      -869.1659       230.3403
       696.2295       152.7231       1836.184       1205.909      -931.6666
      -959.6524      -72.69055       456.0564      -338.3652      -1423.466
      -819.2805       652.3555       657.8818       2312.477       2273.725
      -1446.595      -897.4043       211.1494      -1142.196      -1193.845
      -256.6978       1248.550       2054.770       891.2476       309.4639
       693.7589      -726.2695      -58.94238       2266.150       1584.881
       239.9970      -206.5483       152.3708      -215.4294      -1420.042
      -247.6740      -481.7532       412.3472       1886.350      -484.5117
      -50.83447       2283.417       1391.538       306.3726       1207.433
     0.06640625      -1896.131       570.7783       1867.070      -177.0300
       349.1841       1961.989      -329.3198      -2563.439      -715.5023
       102.5686      -850.2048      -821.9326       1811.048       3587.429
       1175.468       396.7563       2001.191       304.3613      -2073.968
      -930.8071       485.8170       217.5808       1171.073       1565.122
       6.823975       551.5049       1793.111       817.3726      -874.4097
      -617.0103      -1222.950      -1770.415      -335.0128       20.52142
      -403.7049      -155.9150       1260.410       1841.302       1085.533
       373.9551       914.8613       2157.360       535.8354      -2103.352
      -1116.542       354.2041       742.8075       825.4502      -1192.747
      -1030.451      -73.12378       179.3208       402.4263       489.4337
      -165.9194      -1213.168       374.0822       288.9629      -1172.891
      -1797.596      -606.6309       369.5838       586.6748      -597.1185
      -753.6328       2002.680       532.2485       67.33362       1494.290
      -1416.308      -2046.528       930.2820       482.9722      -1066.795
      -1783.385      -1405.623       1181.549       1399.869      -1129.823
       220.3071       2300.813      -126.3068      -239.2731       383.7241
      -2516.627      -1822.308       598.3022      -831.5178      -1608.683
       78.88281       2214.722       1082.475      -1745.112      -184.2913
       273.4508      -745.3669      -541.8215      -10.17517       682.7252
      -210.8143       2.449463       664.7659      -7.567383      -774.9614
      -1631.612      -1817.825      -1030.564      -1161.212      -277.4380
       3011.301       2098.792      -1671.324      -1110.605       1094.415
      -88.72607      -2612.392      -505.3960       1339.109      -761.7412
      -20.48218       1148.673      -105.3555      -2096.610      -159.6934
       3189.255       837.7485       440.5021       599.1035      -940.2764
      -2232.016      -3478.542      -2120.200      -377.3370      -156.5928
      -664.3304       56.70020       1152.576       2048.563       1030.485
      -849.4912       14.26514       1002.751      -1306.701      -1739.304
       367.6653      -110.0381       465.2212       2670.000       1180.036
      -660.8323      -459.8779      -1940.147      -872.4972       572.5396
      -1751.065      -1046.945       811.5430       952.5166       3389.190
       2922.805      -862.8699      -511.4324      -738.9585      -1267.217
       1520.732       1246.055      -862.5322      -674.1041       150.2700
       185.2888       622.5370       332.2256      -630.5023       517.1288
       105.2133      -245.4409       1343.394       741.0969       299.9741
      -815.8220      -1711.282       323.2397       735.7903       1111.279
      -10.97681      -501.3359       2524.202       1336.367      -4035.250
      -3548.071       1516.432       229.1457      -631.7705       805.1777
       333.1577       2636.600       2605.428      -1488.893      -991.0724
       330.8628      -1281.305      -1347.989      -1231.854      -1520.701
      -469.6165       641.9093       268.4307       1469.229       2880.876
       2079.436       1417.796       694.1807      -233.6633       241.3071
      -737.4604      -1390.047       443.0010      -397.6172      -2043.950
      -1341.667      -635.1365       830.2627       2227.596      -1940.455
      -3123.329       543.4341       323.2134      -280.8589      -479.4800
       902.5483       1450.618       492.2770       238.8911       543.4247
      -239.5273      -1050.916       640.8339      -42.26147       327.5322
       2423.786       825.0811      -1165.931      -1245.574      -1953.097
      -729.9414      -678.4741      -2718.462      -998.6735       152.4590
      -408.8318      -384.7289      -623.8979      -277.1367       2730.084
       4046.671       1520.183      -417.1340      -2737.006       1540.132
       4711.521      -1579.724      -2000.824      -52.65723      -72.51465
      -947.6910      -1319.960       800.6764      -385.8077      -178.1084
       1980.121       592.6636       581.6006       2856.305       3172.134
       1045.013      -1318.594      -1862.951      -438.5438       189.6147
      -2090.258      -872.3500       1000.092      -361.2477       411.9551
       1092.985       1180.413       1301.545       1208.541       1075.794
       1040.051       1301.148      -601.2249      -817.5284      -231.2419
      -1241.769       960.8174       2486.934       788.8662      -652.3237
      -476.0488      -1349.667      -3481.453      -951.2549       4215.467
       1898.845      -4682.776      -2216.632       1371.351      -1769.649
      -369.6592       4756.660       3372.876      -249.9307       1675.168
       2878.416       85.92773      -2781.370      -2615.111      -237.4658
      -2278.953      -3668.666      -1845.866      -2201.511      -1112.345
      -2945.002      -5765.737      -4105.989      -2315.050      -1779.074
      -3585.193      -4538.578      -2740.344      -1220.100       137.5479
       3994.541       324.6465      -3851.687       1432.865      -230.8452
      -15.99194       2730.328      -1401.615       2789.064       8418.283
       4255.593      -1223.970       1043.675       1312.853      -5961.124
       985.1074       8409.831      -1110.820       895.7969       15479.53
       10848.81      -3696.528       1504.812      -1384.357      -14164.41
       3427.293       13899.46       255.5156       2478.833       5524.885
      -4179.503       1259.410       2551.742      -22755.55      -25937.06
       3263.645       12492.70      -1089.187      -3004.801       9725.820
       21791.45       17262.33      -46.75488      -5987.633      -3783.991
      -7.867188       4455.799      -8888.283      -11992.00       888.0400
      -4401.909      -2407.369       278.8770      -9599.711      -6485.615
       3163.541       8150.962       787.4336      -8532.682      -2741.431
       5521.769       2072.940      -2112.480       1052.434      -6079.602
      -9011.368       7698.919       7465.812      -3262.072       2371.135
       6936.359       5389.134      -671.1162      -2729.617      -2156.395
      -12786.77      -19089.86      -12846.71      -3597.811       7852.994
       11743.03       6142.365       7906.148       6032.743      -1327.776
      -1225.336      -3685.209      -11618.18      -8643.672       3242.775
       7628.324       6895.529       7212.016       9031.697       8638.035
      -169.1992      -9463.645      -13852.43      -12794.39      -1385.486
      -1042.385      -6016.033       3150.555       5837.791       5160.330
       8865.555       12197.03       9830.432      -1390.287      -8215.164
      -7425.646      -4422.586      -2980.582       3039.695       11574.58
       13029.77       8442.984       1135.092      -2700.973      -4516.863
      -11065.05      -13283.21      -8309.279      -6983.198      -2544.646
       7711.873       9552.520       3753.972      -349.3262      -2543.906
      -5507.125      -6664.955      -3229.754      -6085.131      -9254.362
       1471.105       6947.764       4831.781       11963.94       7942.570
      -4780.438      -5504.883      -3451.779      -4142.050      -1821.803
       7028.168       12387.58       9601.938       7583.283       5235.935
       1031.835      -1557.340      -8160.320      -12278.65      -7532.908
      -4672.990      -3807.549      -1973.072      -2042.959       48.75977
       3394.002       4366.500       6189.143       4273.656      -2712.397
      -3178.573       2997.271       5173.000       6331.063       4626.507
      -2275.563      -1631.639      -510.2598      -4600.588      -4803.866
      -3126.422      -5092.121      -8409.348      -4860.679       430.0176
      -3380.656      -7592.137      -5926.892      -650.5264       3547.564
       3707.312       13642.70       21241.23       15725.34       9432.027
      -269.3916      -3787.568       828.9727      -2127.051      -6843.570
      -5481.592      -4944.438      -5815.089      -4756.080      -1878.426
       1252.179       418.3633      -3919.570      -3744.974      -1820.674
      -664.5723       3443.597       361.7061      -5487.902      -1548.045
       5343.205       8291.219       5413.525      -498.7688      -223.6721
       446.7061      -2791.792     -0.2714844       5367.059       5616.832
       5793.803       3296.960      -113.2275       1051.046      -1275.658
       1984.938       7565.243       1923.377      -1828.616      -2953.648
      -10293.27      -11774.02      -7023.664      -5437.846      -1631.856
       2789.255       1878.521       664.6426       3735.987       2606.477
      -2393.079      -4685.106      -4940.528      -2238.368      -1727.473
       1415.060       6203.822       3821.798       3929.229       7165.794
       3032.030      -3906.811      -4985.629      -4431.662      -3524.890
      -991.2197       1565.452       3417.000       6577.035       8109.597
       4195.790       1155.277       2096.537       4621.253       2533.479
      -613.6450      -440.2090       630.3198       3224.229       1570.492
      -1939.447      -2794.294       1754.182       4270.162      -2539.982
      -2959.344       14.55859       1392.582       6518.782       5821.749
      -693.6714      -1686.837      -1051.284      -2922.574      -2920.751
      -781.4451       1033.828      -848.2871      -2969.554      -2535.919
      -699.1614      -724.1699       3640.337       7476.894      -1852.988
      -6357.096      -1351.760      -1136.242       41.59277       4487.459
       1586.297      -2498.873      -3404.124      -1541.602       3657.898
       2170.557      -1104.554       1520.077      -473.3945      -6894.586
      -7146.008      -5281.504      -5283.516      -4760.581      -1147.934
       6094.336       6617.358       1032.205      -559.2629      -303.3585
      -875.7512       300.7334       2309.249       2187.079       450.4888
      -283.5723      -135.8867      -3414.177      -4700.217       919.2617
       4026.443       1471.221       2005.861       881.2559      -3208.423
       792.5391       3133.084      -46.04150      -2014.639      -1804.036
       87.17557      -100.0707      -158.9785      -994.8701      -2581.824
      -1673.009      -1090.409      -2386.745       843.6035       5944.633
       5951.602       6601.684       6794.987       4168.513       3044.137
       2961.163      -2103.576      -6693.129      -5196.262      -6347.309
      -4999.724       392.7295      -568.4598      -848.3604       3344.496
       6186.786       5246.089       1689.427       134.0371      -1296.400
      -2521.139      -2696.645      -4988.518      -5171.634       38.20093
       2284.185      -2460.442      -4331.212      -4107.250      -2749.627
      -1958.953      -6404.754      -8995.080      -8767.537      -6905.561
      -1822.625       2291.716       3071.781       7471.639       10763.00
       6941.881       505.9619      -4677.347      -3250.393      -2153.275
