     0.02500000      -46383.40       58513.34      -12345.00      -12345.00
      -30.00002       218.9250      -20.20000      -12345.00      -12345.00
       0.000000       15.30000      -12345.00      -12345.00      -12345.00
      -12345.00      -12345.00      -12345.00      -12345.00      -12345.00
      -12345.00      -12345.00      -12345.00      -12345.00      -12345.00
      -12345.00      -12345.00      -12345.00      -12345.00      -12345.00
      -12345.00      -31.20700      -69.62850       2369.000       0.000000
      -31.59500      -68.73200       0.000000       105100.0       0.000000
      -12345.00      -12345.00      -12345.00      -12345.00      -12345.00
      -12345.00      -12345.00      -12345.00      -12345.00      -12345.00
       95.49765       296.5415       117.0063      0.8586429      -12345.00
      -12345.00     -0.1351803       90.00000       90.00000      -12345.00
      -12345.00      -12345.00      -12345.00      -12345.00      -12345.00
      -12345.00      -12345.00      -12345.00      -12345.00      -12345.00
      2008        13        10        50        47
       600         6    -12345    -12345      9958
    -12345    -12345    -12345    -12345    -12345
         1         7        13    -12345    -12345
    -12345    -12345    -12345    -12345    -12345
    -12345    -12345    -12345    -12345    -12345
    -12345    -12345    -12345    -12345    -12345
         1         1         1         1         1
CASP    -12345          
        -12345  -12345  
-12345  -12345  -12345  
-12345  -12345  -12345  
-12345  -12345  -12345  
-12345  -12345  -12345  
-12345  -12345  BHE     
ZL      -12345  -12345  
[...]
       95.27618       112.2808       114.4699       133.4100       134.4044
       151.7709       151.6855       164.4603       164.5843       185.2447
       187.0134       202.9548       201.5093       220.6997       223.5099
       240.1245       238.8151       254.4606       253.3336       274.5334
       273.6028       292.2942       292.9763       310.3245       305.2335
       322.5540       319.1851       335.9919       327.8307       342.3510
       333.3403       347.0562       337.7280       351.1373       340.8835
       355.5002       344.9220       356.8809       345.9897       358.3490
       344.9578       351.5604       337.5559       347.4298       334.7371
       344.9604       328.9111       335.9292       321.6614       325.8894
       308.6800       314.7328       300.2742       303.9879       288.0766
       293.0834       273.1266       277.8558       262.1429       268.5091
       255.1141       260.3450       240.8873       245.1088       227.7936
       235.7137       217.6078       221.6031       209.8909       219.5318
       200.9540       206.4513       188.5895       193.5145       178.7959
       189.0245       171.2474       176.9384       159.7515       169.9158
       155.4921       165.9194       148.8374       154.3726       138.7946
       148.4902       135.1391       143.2623       126.6031       136.3310
       121.8429       127.2484       109.6979       115.4254       99.00653
       105.1083       91.88110       98.38419       81.36581       86.05902
       65.33398       66.41083       48.90918       55.24464       36.47685
       41.32800       22.02153       28.14546       12.42824       18.27065
      -1.361896       1.964653      -16.18479      -5.155006      -20.92062
      -17.50578      -34.96603      -28.66854      -43.80738      -33.66985
      -47.14972      -38.76418      -55.36237      -46.27255      -62.08047
      -54.56091      -71.04073      -61.47032      -79.24884      -68.55034
      -83.58566      -74.79611      -85.95612      -72.94766      -89.56500
      -80.63354      -92.86621      -82.52634      -96.29974      -86.03561
      -97.77911      -88.43823      -102.6876      -93.10489      -104.7818
      -94.52753      -105.4352      -96.83197      -110.0210      -102.4852
      -117.9337      -108.7343      -121.7601      -111.8417      -125.8020
      -116.9856      -130.3843      -119.5064      -133.8539      -124.7238
      -142.4955      -135.2583      -147.5646      -135.1401      -144.1719
      -132.4733      -144.0551      -131.7032      -140.8404      -130.4328
      -141.1752      -126.4973      -106.1194      -31.10860      -9.024384
      -18.68271       16.12943       159.3622       38.16830      -94.97510
      -125.4709      -286.3642      -321.0425       3.424072      -147.1043
      -485.4008       13.79352       206.7861      -137.4763      -271.4025
      -321.8076      -640.1144      -240.5475       569.6829      -369.0225
       96.95105       871.2665       67.40405      -559.6721      -1103.685
      -686.5789      -968.1997      -1448.898       313.6138       1620.036
       121.1314      -923.9348       772.6553       353.0586      -1233.832
       2.157959       877.3665      -489.4958      -453.5932       72.68723
      -166.8668       587.8102      -306.9571      -309.2390       1565.261
      -386.2393      -2183.962      -308.6700       1242.958      -1157.827
      -2721.688       2304.455       1621.064      -3779.311      -195.0488
       2398.034      -660.7368      -1779.397       399.0007       591.8044
      -978.1653      -8.023438       442.8972       693.4127       44.66992
      -1099.432       530.4791       547.9028      -1999.685      -661.4946
       2261.620      -35.25476      -1206.873       1107.354       316.7113
      -835.8191       1354.413       818.6531      -1585.182      -556.7284
       851.0779      -157.7168      -695.9691      -69.32614      -76.35370
      -69.61816      -619.3256      -686.8358       399.4724       226.8546
       168.0581       341.8687       1697.345       916.8247      -1661.156
       176.4874      -284.1145      -823.7078       1424.162       827.0364
      -92.43610      -177.6644      -218.0811      -711.9855      -196.6121
       512.0784       927.4460       1416.342       123.5571      -1105.893
       411.8679       473.8691      -1657.161       598.1233       1536.057
      -1693.647       65.68982       793.4448      -1944.250      -740.0344
       1345.963      -132.4821      -495.4175       1920.314       956.5043
      -447.6479       849.1931       189.7832      -1475.621      -1608.739
      -726.4553      -194.6396       512.3501       1315.039       1682.081
       980.2511      -9.105774       467.4961      -674.1392      -1514.732
      -647.3098       513.0518       155.8643      -711.7757      -120.6400
      -597.9289       358.0805       209.5216      -532.2400       323.4100
      -153.1786      -84.35474       267.0467       370.6794      -560.2808
      -690.0428       944.6564       64.96924      -1482.985      -370.8552
      -326.6851      -1456.468       577.9304       1366.703       44.49268
       1172.314       1054.130      -1499.592      -1031.587       242.9614
      -792.5305      -838.8184       654.4307       552.1113      -566.3123
       102.9062       1622.821       736.6315       53.09180      -354.9563
      -1538.277      -946.5364      -577.8838      -779.1465       383.1465
       1169.154       185.0719       711.1096       365.7473      -1391.652
      -393.3981       320.1475      -881.5552      -379.2859       1556.315
       80.30798      -608.9553       482.9763      -230.3147       113.9814
       89.92358      -756.2064      -278.9919       268.8457       1421.305
       1612.899       433.6634      -65.31274      -838.2753       53.67548
       755.5415      -553.6541       474.8420       1894.275      -90.09082
      -1673.976      -688.8470       741.4868      -633.4542      -958.5808
       1183.106      -568.8555      -1766.822       852.5076       1353.413
      -370.0415       557.7304       637.5822      -619.8539       250.6387
       518.6948       575.3760       2397.215       259.7127      -1071.223
       1506.593      -262.5093      -543.4415      -16.86609       243.9847
       504.9573      -1156.163       601.2156       1204.651      -2051.037
      -617.2302       1816.560      -1524.919      -963.9230       547.7842
       963.8640       568.4049      -795.1953       1873.480       1182.901
      -416.1016       658.6744      -90.49951      -1753.474      -242.2307
       1723.147      -560.5892      -1169.744       972.0654       1726.543
       1651.239      -1093.367      -955.5339       1671.433       192.8744
      -949.0342       1681.892       2655.619      -2068.892      -1568.043
       1144.635      -343.0570      -465.7048       615.6452       353.8181
      -1395.154       237.9805       1197.235      -13.06348       782.3572
       1017.016       423.4771       633.3155       131.6768      -1116.942
      -1151.506       70.08624       630.6958      -262.9526       1646.297
       1786.214      -932.8694      -471.6240       1094.451       459.4337
      -1111.689       586.5691       694.1782      -1805.725      -904.0662
       1571.849       418.5640      -1134.124      -139.4142      -239.2922
      -803.1929      -272.5215      -485.4897      -463.7353      -25.55829
      -281.1376       528.1188      -733.7502      -254.1362       2227.135
      -291.5068      -1322.367       584.5686       710.1940       427.5542
       621.0088       255.8017       181.5347      -470.4167      -1565.225
      -841.3188      -450.9668      -687.7761      -1054.395       405.5574
       1386.838      -477.7102       344.1813       808.7285      -795.6062
      -1464.082       72.11780       529.6932      -307.9375       387.0784
      -707.3456      -167.9170      -214.5342      -1910.497       1432.713
       2565.907      -104.5985      -347.9642      -98.17114      -433.0281
      -982.3755      -1013.129      -259.6147      -617.9949      -788.0532
       500.9553      -380.1223      -506.2823      -305.4904      -947.6353
       2285.365       1610.544      -565.0654       647.7239      -614.4905
      -587.3375      -25.74390      -657.4504       89.10156      -1346.315
      -947.5994       1160.967       188.4080      -994.3465      -127.3203
       1400.086      -811.2867      -1289.474       1514.771      -20.75415
      -2047.679       534.2661       1210.276      -2089.916      -970.5430
       2305.091      -608.4310      -521.0474       1718.340      -2757.197
      -1048.717       2596.745      -1183.422      -1252.018       1495.982
       496.7339      -1157.677       790.4592       947.4780      -3026.246
       388.7537       2494.057      -2626.332      -1178.847       2689.720
       73.09924      -591.5447       1954.352      -4.984375      -1685.199
      -1020.349       743.0638       404.0399      -117.8478      -616.7424
      -455.3955       3790.938       1153.994      -3241.907      -1495.595
       301.9666       848.1604      -799.1467       395.8643       1288.397
      -512.2224       1175.748      -245.4312      -1185.797       273.5291
      -610.5258      -416.0117       236.4810       384.0341       858.1979
      -178.7006      -555.8840       1576.371       1091.784       1008.781
       93.93359      -791.0823       101.5249      -900.8445      -753.3744
       125.4777       756.3068       147.3860       574.7769       1607.541
      -54.30212      -866.0441      -151.7996       1427.648      -327.8206
      -1929.090       328.6353      -2176.039      -1270.933       2059.759
       251.2099      -826.1631       1063.783       2662.019      -139.9595
       196.4766       1684.650       64.52698       27.14917      -1375.176
      -1348.301       557.0159      -1390.461      -464.8770       2765.878
       1805.860       726.7659      -214.1743      -1879.198      -1484.449
      -240.4487       952.7966       544.4907       1017.395       3295.340
       434.2373      -2037.026      -557.6611      -1470.206      -512.8716
       854.5190      -1537.219       315.5505       1689.746      -71.69281
       42.08655       510.9271       621.0127      -490.4182      -1236.633
      -1148.295      -306.9473       872.6959      -619.2303       109.0239
       1502.076      -2072.334       115.9512       1699.992      -1245.584
       1295.917       2044.515      -1476.968      -1026.502       1206.139
      -192.4551       1620.862       3079.156       1275.244      -706.0634
      -1546.927       1763.908      -764.9292      -3462.554      -980.2979
      -3487.831      -2208.315       2591.978       1142.294       195.4778
       989.1857       419.2058      -159.1875      -1949.801      -2327.024
      -437.4812       956.9834       2570.529       3408.005       2103.066
      -1491.021      -2124.442      -986.0062       361.7381       203.4373
      -1149.371       493.5381       32.02612      -1182.701       2096.524
       3297.489      -2273.200      -2787.084       67.75684      -2208.203
      -3578.378       720.9214       2272.032      -2048.462      -507.3970
       2490.522       1222.594       299.4585      -1528.806      -1119.762
      -365.0432      -335.6332      -369.3057      -459.0771       2557.286
       3237.589       1352.500      -1887.532      -2881.190      -1300.253
      -29.03857      -1693.974      -2272.076       3467.132       2335.417
      -330.6367       3993.412       1306.449      -3645.643       1063.985
      -254.2959      -2863.156       2112.475       1369.804       321.1558
       1399.642       2897.007      -269.6138      -1671.542       2548.005
      -1126.602      -2079.734       199.2836      -1023.033       413.5106
       348.8867      -571.3086       1899.852       5324.881       3268.978
      -2188.284      -2098.203      -4820.088      -7519.178      -5318.889
      -7809.613      -10713.16      -6775.305      -927.5454      -898.7235
       39.89209       242.5234      -8405.438      -18764.33      -23492.96
      -16722.99      -15904.13      -16773.27       11777.46       28501.57
       22725.95       47151.64       45798.49      -3523.841      -5218.286
       5704.250      -12346.46      -12159.09      -3520.189       1578.880
      -3001.779       5908.461       20779.18      -9094.587      -7234.654
       18199.37      -5838.562      -5904.672       15560.83       1719.203
      -19120.27       408.5898       24329.45       6157.249      -5354.961
      -4104.832      -12262.34      -12753.93      -14604.83      -29216.16
      -46383.40      -17584.41       16016.25      -945.1953       19896.84
       58513.34       42477.84       17959.45       9957.402      -14386.64
      -36811.14      -4873.182      -61.76758      -16092.89       17956.49
       10074.40      -14767.76      -2209.852       9247.842       3422.593
      -1841.111       3779.148      -8081.621      -13207.38      -15209.87
      -15545.71       9235.227       16898.93       22230.10       18928.66
      -4197.961      -15530.82      -12752.97      -3767.792      -5488.917
      -12.09033       3326.021      -6448.803      -2454.102       14921.39
       18650.17      -176.6465      -12581.36       4990.960       5398.793
      -21455.03      -12349.88       11547.02       12837.77       15411.33
       12617.95       11915.21       11717.51      -2003.125      -3548.391
      -16016.55      -25138.97      -8542.137      -1083.781      -1934.585
      -2619.594       11014.07       20949.82       10717.59       6073.939
       8126.703       7828.293      -5256.990      -10693.35      -7703.648
      -15662.58      -18930.08      -14034.52      -2037.212       3336.544
      -2806.352       6984.917       10050.40      -10442.88      -10562.89
      -3000.390      -4032.011       1677.909      -1585.935       72.42969
       9636.985       4020.844       6704.996       19825.81       10261.65
      -2042.521       2136.650       3225.518       4596.145      -1878.879
      -16338.42      -7551.027       3589.714      -3057.650      -8790.980
      -7251.258      -13533.31      -12961.68       1946.852      -1225.508
       3876.844       13187.36       9388.969       8247.701       873.2363
      -3230.235      -4941.356       153.8281       1321.141      -11270.07
      -6054.848       5664.186       7226.492       7510.316       11508.17
       7187.985      -6876.960      -6195.822      -47.31445      -2454.393
      -10546.10      -7998.199      -2340.317      -8632.824       1179.105
       17575.35       14462.95       8830.473       9706.090       7754.373
      -810.8262      -3577.063      -3765.615      -7885.906      -1452.449
       4774.898       7099.898       8596.730       2020.814      -1886.738
      -217.9885       77.20898      -2270.426      -4452.670      -2599.000
      -7302.867      -10067.39      -12689.40      -11045.63       2747.608
       988.0967      -1861.698       2413.410       2228.995      -477.3643
      -1330.994      -1356.037      -6897.609       2565.172       9620.574
       3098.107       7767.273       12609.74       12411.46       5791.623
       6583.633       5388.164      -2519.484       231.5514       914.4375
      -3826.613      -14229.51      -12513.61      -8509.525      -8469.529
       3471.775       7484.167       2516.287       2073.986       1872.199
      -2312.143      -4625.153      -3853.043       270.6543       3511.397
       636.7769       2577.239       2389.788      -3532.457       240.9895
       2718.161      -1917.059      -4384.141      -5611.446      -3703.027
      -1806.816      -6591.674      -2440.789       6686.229       809.7766
      -1886.656       4959.277       7623.188       6357.146       3017.012
       839.8555       2675.190       657.0576      -5173.069      -600.4937
       3916.112      -3733.623      -4809.922       3825.957       6799.553
      -3023.856      -8608.220       2213.605       5167.689      -7005.736
      -10466.32      -3351.855      -4273.058      -1974.775       1222.483
      -566.5156       8575.955       4343.089      -5179.264      -550.7812
       4930.919       41.46631      -1477.067       5839.281      -2762.956
      -1978.057       1483.108      -7057.587      -2217.001       2695.485
       2278.958       2319.930      -3761.328      -7793.252      -2705.581
      -1503.108      -1465.285       8173.236       4482.485      -7303.970
      -1288.269       4461.726       721.0913      -2274.950      -99.70703
       9050.643       11753.81       2909.593      -1492.459      -4475.533
      -7834.875      -3108.135       668.1399      -146.1152       871.1885
       156.4106       1491.340       4494.799       902.5808       858.6221
       828.9895       531.0171       2212.928      -139.1135      -1178.089
       103.5156       5984.706       5659.494      -1797.999      -588.7871
      -2676.969      -2925.340       3803.945       1065.715      -4742.514
      -2978.607       1402.979      -4940.062      -6379.636      -45.24121
      -367.7471       183.7090       5437.099       1881.738      -8672.518
      -2830.338      -290.8984      -4891.219      -1248.903      -1626.147
      -1608.880       3034.750       6587.778       3315.033      -2857.106
      -2084.496      -881.8184      -6595.628      -7660.152       344.1855
       7445.320       9255.979       6508.758       2595.489       231.7588
       1238.377      -909.8926      -5386.130      -3986.052      -726.4492
      -504.8604       554.4844       3942.061       3972.277       7094.687
       6360.775      -216.0127       1902.947       3256.397       201.2400
       215.6930      -503.1655       1787.057       3866.628      -3403.688
      -3512.006      -4998.516      -13423.51      -6972.010       3602.877
       985.4631      -3083.238       4018.691       5034.473       395.4883
       1906.450       706.2747      -105.3926      -1275.758      -8008.973
      -8935.648      -6552.411      -6640.957      -2577.377       4544.762
       8399.219       5532.191       4044.059       1626.590      -743.0269
       341.3682      -1726.164      -4114.312      -359.0439       5128.848
