     0.02500000      -31910.40       32129.84      -12345.00      -12345.00
      -30.00002       218.9250      -20.20000      -12345.00      -12345.00
       0.000000       15.30000      -12345.00      -12345.00      -12345.00
      -12345.00      -12345.00      -12345.00      -12345.00      -12345.00
      -12345.00      -12345.00      -12345.00      -12345.00      -12345.00
      -12345.00      -12345.00      -12345.00      -12345.00      -12345.00
      -12345.00      -31.20700      -69.62850       2369.000       0.000000
      -31.59500      -68.73200       0.000000       105100.0       0.000000
      -12345.00      -12345.00      -12345.00      -12345.00      -12345.00
      -12345.00      -12345.00      -12345.00      -12345.00      -12345.00
       95.49765       296.5415       117.0063      0.8586429      -12345.00
      -12345.00    -0.02544221       0.000000       90.00000      -12345.00
      -12345.00      -12345.00      -12345.00      -12345.00      -12345.00
      -12345.00      -12345.00      -12345.00      -12345.00      -12345.00
      2008        13        10        50        47
       600         6    -12345    -12345      9958
    -12345    -12345    -12345    -12345    -12345
         1         7        13    -12345    -12345
    -12345    -12345    -12345    -12345    -12345
    -12345    -12345    -12345    -12345    -12345
    -12345    -12345    -12345    -12345    -12345
         1         1         1         1         1
CASP    -12345          
        -12345  -12345  
-12345  -12345  -12345  
-12345  -12345  -12345  
-12345  -12345  -12345  
-12345  -12345  -12345  
-12345  -12345  BHN     
ZL      -12345  -12345  
[...]
      -26.69830      -38.11078      -33.66103      -40.62273      -40.60489
      -53.11571      -51.78703      -58.94717      -55.65723      -65.95813
      -66.82123      -77.21371      -76.20297      -83.68396      -79.78928
      -85.10934      -80.88171      -86.47350      -77.52200      -81.48792
      -77.66916      -79.44958      -70.32684      -73.80286      -66.97607
      -65.87723      -60.32971      -63.85609      -55.34029      -55.07201
      -48.83061      -47.14316      -38.14304      -37.61119      -30.66309
      -29.17066      -17.88495      -15.39861      -6.775192      -6.044715
       3.039982       5.244137       15.70091       18.13866       28.30091
       31.17755       42.99945       44.81055       55.09779       59.39169
       68.51355       68.76877       77.48424       73.67072       82.64606
       85.69171       94.57468       95.44080       102.1581       103.6578
       112.8512       109.9948       117.7775       119.3451       124.3019
       122.0726       131.1509       128.5531       131.4329       126.6019
       133.7264       132.2383       140.6327       138.4141       145.2886
       142.8904       145.9290       144.6878       150.0901       146.1257
       154.3182       154.1155       159.7310       158.1684       163.1013
       158.9770       164.6736       163.5841       165.5220       163.3339
       167.1532       168.5978       176.6703       171.0689       168.8204
       165.9229       169.7303       166.7302       168.3706       164.7678
       167.4039       162.0391       162.1492       157.8873       160.2339
       154.6673       151.1590       143.5939       143.5228       136.8561
       137.5273       129.2269       125.5496       113.4215       109.8857
       100.7880       94.16891       85.02551       82.77531       71.07498
       64.27573       54.23570       50.62328       39.70248       31.97841
       19.27642       11.94501      0.4632874      -5.249718      -16.80806
      -23.10828      -34.84456      -37.87534      -50.89943      -52.69843
      -63.35461      -66.07892      -74.77087      -78.09790      -89.99426
      -91.16046      -99.28186      -97.72391      -106.4736      -107.3011
      -116.2167      -117.2089      -125.7487      -123.4117      -129.8830
      -132.0514      -140.5967      -140.8525      -146.5295      -142.7170
      -149.8367      -151.7731      -154.5188      -151.0923      -154.6482
      -152.0380      -154.6992      -152.8820      -160.4143      -160.4570
      -164.1005      -162.6918      -163.7122      -155.4890      -155.5481
      -152.9415      -156.2270      -155.6494      -156.0755      -148.8302
      -150.0844      -150.3041      -165.5415      -185.8826      -193.8669
      -185.7732      -211.5754      -223.5912      -219.2775      -220.9751
      -103.5179      -38.23053      -197.7442      -178.7061      -2.478149
      -154.1885      -213.8809      -106.7223      -531.5678      -315.1795
       164.5760      -253.7036      -303.8482      -5.492371      -51.40277
      -295.3345      -418.5172      -252.5804      -220.8009       188.7469
       209.9815      -164.5543      -128.0444      -274.2609       392.4152
       576.0275      -501.2961      -280.7389       36.35400      -825.4619
      -506.1218       1180.361       572.1814      -1189.043      -179.8643
       445.3308      -287.2973       305.9695      -41.08240      -663.8428
       363.6464       189.5133      -113.3032      -409.3181      -1382.131
       194.6987       1890.970       369.2432      -920.6778       231.2588
       422.5251      -1094.697      -1460.438       1583.819       2303.154
      -524.1597      -295.8596       1228.012      -59.28467      -2074.641
      -1108.897       899.8877       1519.698       195.9055      -293.2688
       1391.126      -20.82642      -1673.831       477.9310       822.2540
      -819.8259       245.6748       1601.455       628.4352      -517.7031
       466.7297       246.4564      -940.8214       702.8315       1216.952
       189.7402      -47.21298      -455.8188       500.4230       253.2250
      -193.0852       901.2404       563.7285       22.53564      -1348.929
      -185.8562       944.7139      -977.6877      -232.5151       1817.711
       627.1017      -765.1240       1442.430       526.8391      -1223.499
       342.3463      -397.4375      -837.5918       311.9155       283.1231
       394.7932       55.11865       85.27246       1948.866       1565.388
      -738.4373      -92.15967      -834.8794      -1366.873      -679.8499
       361.3474       1208.456       563.6992       1206.600      -10.29407
      -394.7717      -363.2938      -826.0364      -225.2346      -267.7683
      -76.83740       456.3416       1178.743      -344.2129      -807.5135
       89.49817      -798.9565      -119.0747      -196.0184      -866.0159
       329.0232       1053.823       408.6970       906.0846       624.4424
      -2051.682      -997.7307       329.6515       125.1537       337.7212
       249.7600       955.0850       376.8582      -1154.407      -189.6659
       607.1112      -178.6449      -76.76807      -436.4417      -808.2918
      -68.48486       863.2222       1655.321       1265.210      -333.2551
      -639.3074      -973.7056      -1568.034      -1661.053      -298.7842
       320.8766      -790.5110       1376.554       476.0200      -1421.098
       111.3933       35.06274      -1433.714      -1116.001       714.6831
       918.9348       587.8948       816.3276       6.467407      -903.8767
      -63.72394       434.3345      -747.6875      -1297.743       419.6222
       563.2544      -1534.558      -74.77301       895.8740      -852.0499
      -893.9751       688.3909       1349.984      -50.48096      -1078.257
       45.78467       1216.716       196.1404      -903.1481      -224.7983
      -1455.864      -1394.631       144.3524      -316.0154       638.0307
      -145.6494      -481.8524       829.5149      -429.4902      -560.5383
       1108.372       1082.859      -235.2256      -1191.914      -1548.242
       206.9196       636.3082      -858.1235       503.4940       764.3857
      -987.0338      -654.6421       463.3931       1292.776       341.7874
      -854.7836      -661.5598       268.2858       621.1133      -1617.785
      -969.6150       1087.905      -102.1934       384.9365       1241.479
       478.9056      -256.8813       315.5685       135.9814      -1374.417
      -1119.387      -278.1782      -133.5056      -1184.111      -624.1011
       2423.401      -29.28711      -899.5747       2353.430       1015.082
      -1176.203      -1235.434       500.0952       1159.920      -329.6690
      -318.3514       561.9950      -634.3635      -167.8903       800.0821
       146.8820      -429.5799      -462.5698       888.9315       405.4968
      -189.4456      -323.7648      -882.8975      -209.6201      -1.777100
       167.4004       1048.269       308.3654      -299.3857       736.3734
       792.4932      -331.8870       1145.746       464.9252      -1129.053
       725.1599      -451.7031      -1521.162       97.06726      -60.60999
      -475.1099       295.0054       1134.488       518.8340      -298.0504
      -165.7356      -654.0377      -138.5151       1809.161       905.2529
      -2476.266      -583.2817       2595.528      -215.9399      -1876.066
       1029.330       1361.953      -1249.548      -214.2859       1201.741
       593.9211       948.5168       1110.912      -385.4319      -1487.123
      -350.3915       774.2054      -66.35913      -867.7078       699.2373
       1794.919       644.0754       532.9807       975.5366       403.2009
       445.5188      -890.1019      -982.6682       1143.278      -879.3105
      -1555.864       638.8652       1301.891       614.3901      -190.9299
      -333.7397       3.465088       755.7960       204.7783      -1028.351
       564.7917       1393.291      -271.8829      -838.4464      -313.3052
       777.6467       554.1006       403.5811      -310.8269      -259.5349
       1638.227       108.2763      -816.0583       900.6334       471.7533
      -177.6704      -823.1952      -543.5974       652.9047      -473.0798
       146.9111       1018.994       351.9219      -338.2739      -683.7947
      -1031.822      -710.6781       724.3977       313.3116      -390.0640
       1194.086       823.3053      -1157.331       292.7178       283.2451
      -1178.610       279.9988       1060.921       204.6088      -348.5146
      -90.63437      -40.12317       258.2549       775.4170      -832.0088
      -2383.072       1165.801       1090.409      -3178.959      -738.7109
       1438.585       655.0557       849.1856       582.9814      -753.4771
      -1669.126      -529.6664       113.1548      -1145.094      -1293.166
       1295.570       1388.862      -124.4932      -174.1113      -752.4751
      -687.0256      -194.2470      -13.12317      -104.2976      -782.2842
       48.98462       622.7172      -1059.896      -216.8564       1147.503
      -966.6096      -880.6621       334.6317      -384.6205      -402.4857
       316.5827       584.3820      -722.5764      -738.5601       688.5588
       800.3276      -1540.783      -2521.385       1396.424       1612.133
      -915.9075       864.5668       1040.204      -1519.590      -1202.781
      -624.1331      -247.8140      -609.6409      -1437.511      -216.0327
       461.0380       368.0116      -94.72339       281.8718       979.8340
      -1085.523      -947.3079       1188.260      -98.15918      -1100.848
      -344.5621      -192.1074       884.4194       1191.027      -142.8199
       831.4189       100.1147      -3094.442      -504.7385       547.1941
      -2026.680       518.6902       1175.672      -431.7444       506.6021
       493.3994      -1400.906      -1560.410       617.8069       447.8515
      -536.8311       654.8682       1502.003      -177.0938      -634.9094
      -867.0784      -1455.273      -350.7036      -442.7173       771.5039
       1072.530      -779.3420      -1063.783      -306.9601      -109.0854
      -696.1167       1135.971       1692.153       516.9374       1366.845
      -855.8232      -3739.847      -1645.303      -653.8895      -795.0186
       1732.205       1791.084       677.3600       559.6334      -458.5630
       110.4985       711.7559      -836.1248      -940.1755       521.2302
       324.7009       1339.813       686.6396      -2718.522      -1118.473
       1679.511       300.0490      -792.7605      -214.6524      -242.4101
      -99.63049       379.0979       443.8282       219.6990      -83.37158
       1256.831       1327.363       865.7404       1731.398      -1799.037
      -3307.743      -173.0635      -1731.121      -2656.875       822.6321
      -417.0510      -1872.188       1358.734       2363.549       74.47388
      -212.7334       1763.614       2021.779       769.4556       26.97241
       1624.399       518.0322      -1583.333      -410.5486       469.7026
       791.8540       1288.862      -117.9751      -2313.146      -32.36572
       977.1611       1125.613       2122.639      -364.9009      -1156.745
       52.87988       650.3599       598.4683       920.2148       2679.417
       311.1582      -1443.051       1270.560      -221.0507      -383.1572
      -433.5547      -1424.690       1100.438       61.09717      -631.7158
       1335.043       985.6010      -934.8201       508.5736       861.9839
      -1918.250      -130.9568       336.6362      -1033.521       64.59180
       980.8770       2201.385      -149.7700      -2118.897      -171.8911
      -404.2837       1694.421       2751.644      -2017.746      -762.6553
       1717.895       223.9948      -29.88574      -1621.440      -1273.188
       157.6299       518.9591      -345.9764      -1148.712       541.9669
       480.1019      -857.5470       99.12134       657.2512      -1475.680
      -1625.952      -557.9731       541.7393       3447.684       5667.736
       4591.531       3063.134       2499.932       2292.971       3797.145
       8233.684       11525.39       9672.775       6839.054       4554.824
       2981.211      -6569.285      -17459.40      -3639.602       12294.53
       4807.021       6018.487       7816.196      -1857.836       3223.178
       1992.289      -13291.82      -20186.45      -16245.49      -12143.35
      -7005.629       9568.793       13626.66      -4769.289       3110.066
       18459.37      -1650.342      -5002.172      -7567.953      -26456.12
      -20385.94      -1310.172       11168.93       1240.455       1369.022
       2690.312      -16016.88      -16032.38      -25207.88      -21998.70
       21295.79       22302.00       6172.738       15546.61       20547.21
       3630.047       4404.680       32129.84       7131.402      -16803.22
      -8721.438      -17683.15      -22842.46      -5669.117       10796.15
       8901.934       7831.664       5025.727      -19213.52      -31910.40
      -4161.273       12647.91       10566.50       18349.39       11619.09
       10824.61       6026.820      -29195.05      -11927.08       20914.35
      -12065.66      -10337.69       16271.34      -8180.979      -1012.516
       20794.54      -1741.112      -4145.819       10146.60      -6599.535
      -22016.77       2686.395       17516.57      -2004.855      -10821.55
       6791.061       9647.434      -17847.05      -11599.75       4486.023
       1174.787       1057.705      -2221.965      -6402.865      -9695.500
      -10121.08      -4460.172       8936.512       15082.09       10419.45
       5580.485       1743.827      -1008.477      -7730.638      -4221.967
       7148.248      -1694.593      -5224.573       8081.564       4029.416
       3079.078       10549.00      -1955.227      -6474.090      -6748.143
      -8134.398       112.6265      -46.75098       2002.523       4713.831
       3342.634      -637.5405      -2140.323      -257.4238       5789.752
       12845.92       5637.227      -322.9590      -5798.110      -7201.983
       2473.828      -2651.971      -10336.56       2213.457       8466.018
       74.01953       1684.484       5287.363      -3800.279      -6724.370
      -3886.123      -644.9387       240.4014       2563.699       9977.980
       10406.27       3861.218      -3749.604      -6923.387      -15951.28
      -4127.062       13109.14       10921.11       17012.51       20995.44
       12938.38      -5604.414      -9337.859      -8228.945      -18881.54
      -13959.60      -11818.32      -8452.833       3661.404       4292.175
       447.9175      -864.3501       1658.847      -750.0913      -719.0449
       6413.573       1298.921      -5878.966      -1783.748      -4847.041
      -8072.480       3952.875       6013.078      -4518.129      -5896.309
      -4052.020      -5293.828      -5351.421      -53.91016       3854.129
       10747.54       16714.91       8825.672       7513.035       9882.969
       3947.223      -1328.140      -63.32617      -5146.359      -12738.51
      -12211.77      -7305.061      -3963.356      -5189.118       1254.503
       1518.139      -6965.469      -7181.150       40.47461       1670.668
       2940.078       12770.71       8558.828      -3069.964      -5994.865
      -931.6384       2116.184      -2370.925      -4257.430      -3358.137
       3416.262       863.0791       53.43750       11675.46       10188.40
       5404.660       6055.578       6111.113      -1808.367      -10399.05
      -8501.162      -4214.099      -5290.354      -2159.076       1123.314
      -6381.019      -3195.508      -4304.906      -14440.28      -6064.587
       4064.926       4798.195       5217.430       7378.711       9540.123
       7464.881       9060.538       7112.375      -1724.199      -76.70020
       748.1094      -5391.494      -8258.013      -3944.354      -397.8516
      -6513.084      -3192.306       2770.991       1907.907       5258.311
      -759.5562      -3807.914       3122.955       3452.631      -5922.855
      -8727.425      -1245.180      -1387.885      -6763.484      -6849.193
      -4620.761      -1875.188       7680.541       10226.92       5691.846
       6556.935       4964.733       2836.729       5943.088       6495.945
       1489.471      -3094.632      -4525.585      -3113.945      -1268.571
       2344.360       1013.542      -2719.136      -448.2891       2394.799
       6335.854       4369.003       2441.226       5451.461      -503.3584
      -5116.238      -4721.150      -6032.297      -7225.431      -5831.983
      -3118.594      -1510.631       4069.291      -1713.977      -11028.79
      -4074.360       971.4863       3521.621       2795.141       3454.906
       12458.83       6815.633      -1814.466      -1089.564       3355.951
       11784.90       6203.189      -3852.787      -5207.639      -6015.872
      -5576.533      -273.5039       6521.805       5055.756       4250.778
      -53.06055      -7460.053      -6194.777      -7726.852      -8280.607
      -4411.485       1634.277       3972.067      -549.7717      -1468.024
       206.9336      -2338.880      -5144.193      -1390.168       1207.262
       3212.922       8754.569       3829.181      -3989.828      -4700.062
      -4424.412       128.8488       1062.485      -148.3887       5069.527
       10160.26       5073.143       329.0820       7166.471       6360.910
       3713.971       6404.737       2301.278      -2454.599      -2995.000
      -3096.139      -6138.934      -6615.319      -2298.161      -3475.896
      -1601.635       5885.180       5262.419       555.7230      -238.6651
       150.2822      -639.7588      -2780.218      -2499.723      -257.3564
      -1165.985      -430.3257      -293.3945      -5664.227      -11596.80
      -11202.35      -185.0762       7266.008       3509.111       1032.734
       5574.775       8938.326       103.7402      -4336.462       2638.328
       2616.399      -1222.473      -1278.926       1977.141       1734.680
      -3222.206       1302.904       2844.264      -2459.195      -6980.463
      -6600.253       1443.890       1621.269      -224.8746      -190.6008
      -1317.114      -62.52344       2898.036       3790.742       177.4828
      -700.1143       1639.275       7330.766       9472.893       4946.731
