     0.02500000      -78965.17       99066.31      -12345.00      -12345.00
      -30.01005       214.7649      -15.96000      -12345.00      -12345.00
       0.000000       11.98000      -12345.00      -12345.00      -12345.00
      -12345.00      -12345.00      -12345.00      -12345.00      -12345.00
      -12345.00      -12345.00      -12345.00      -12345.00      -12345.00
      -12345.00      -12345.00      -12345.00      -12345.00      -12345.00
      -12345.00      -31.90580      -68.77510       1333.000       0.000000
      -31.59500      -68.73200       0.000000       105100.0       0.000000
      -12345.00      -12345.00      -12345.00      -12345.00      -12345.00
      -12345.00      -12345.00      -12345.00      -12345.00      -12345.00
       34.70353       186.7463       6.768893      0.3120326      -12345.00
      -12345.00     0.03019060       90.00000       90.00000      -12345.00
      -12345.00      -12345.00      -12345.00      -12345.00      -12345.00
      -12345.00      -12345.00      -12345.00      -12345.00      -12345.00
      2008        13        10        50        43
       360         6    -12345    -12345      9792
    -12345    -12345    -12345    -12345    -12345
         1         7        13    -12345    -12345
    -12345    -12345    -12345    -12345    -12345
    -12345    -12345    -12345    -12345    -12345
    -12345    -12345    -12345    -12345    -12345
         1         1         1         1         1
CHIL    -12345          
        -12345  -12345  
-12345  -12345  -12345  
-12345  -12345  -12345  
-12345  -12345  -12345  
-12345  -12345  -12345  
-12345  -12345  BHE     
ZL      -12345  -12345  
[...]
      -31.31283      -18.07918      -25.97492      -34.54002      -29.79863
      -26.66907      -72.64337      -89.70444      -77.28754      -90.15039
      -162.1129      -132.7759      -116.1862      -101.3536      -50.47165
      -46.67523      -56.29779      -52.83083      -69.42928      -49.21722
      -42.38828      -62.29514      -69.54833      -21.74216      -38.90689
      -45.63553      -44.61896      -84.83200      -107.0704      -44.25028
      -16.86902      -34.62584      -50.63730      -51.47479      -87.70636
      -93.62173      -59.45605      -60.89917      -64.00529      -22.40045
      -86.17950      -130.3509      -60.08419       2.412476      -82.50613
      -114.5811      -60.55106      -43.96512      -51.14267      -53.50909
      -127.9958      -130.5318      -75.35327      -30.90291      -54.03986
      -77.34711      -49.83891      -53.80052      -86.55542      -77.57343
      -133.2180      -135.9106      -145.9363      -195.9201      -126.8825
      -45.61905      -86.14529      -125.1200      -126.7612      -115.8527
      -167.5025      -175.6729      -185.0226      -216.0820      -204.2083
      -210.7656      -204.0031      -190.1187      -240.0573      -211.8525
      -182.7053      -183.8831      -211.7399      -267.2198      -251.9158
      -205.7439      -224.7340      -223.4257      -208.1736      -195.9200
      -201.8374      -196.5978      -186.3710      -175.0569      -216.4514
      -258.1565      -251.9210      -188.2233      -163.4888      -158.5905
      -159.5261      -126.5835      -155.3187      -219.2579      -235.0436
      -192.9255      -149.5734      -83.73627      -93.10754      -133.6466
      -134.7026      -69.13406      -7.758177       7.081051       6.301880
       41.54472       8.224731      -51.85110      -43.39740       43.57306
       78.29706       74.52112       64.26340       110.2531       138.4488
       152.7613       113.8116       55.08398       70.68008       139.5561
       161.9454       192.5666       175.5917       93.49637       62.81033
       99.41882       107.2580       117.4991       96.99220       89.13533
       50.12543       91.51624       157.3117       146.1820       133.2260
       114.4951       99.93301       114.6033       79.68851       20.38222
      -6.574982       55.46511       25.25976      -22.28600      -1.510208
      -20.05688      -80.99567      -88.06070      -114.9360      -89.95749
      -79.58997      -90.96265      -112.4707      -174.6845      -173.1573
      -147.6981      -179.9725      -181.4387      -219.7868      -191.9308
      -160.0443      -191.2268      -208.8988      -180.5719      -157.1977
      -135.9816      -133.1440      -140.7404      -166.8276      -181.2192
      -210.2951      -178.1315      -183.8049      -247.8169      -271.2051
      -268.6578      -266.4490      -258.9179      -266.5829      -224.4282
      -222.1722      -254.6726      -268.0610      -233.4351      -202.7047
      -244.7009      -282.9431      -200.7689      -158.2969      -247.5369
      -289.5874      -190.1172      -180.1682      -208.5527      -219.9144
      -219.8079      -215.1317      -193.2284      -200.1246      -185.7431
      -164.1854      -159.7965      -138.6105      -74.18756      -111.1083
      -144.3405      -122.4708      -57.44879      -66.86716      -55.16494
      -9.429794       48.66950       44.06873       17.08136       50.39780
       85.83057       78.40762       102.4548       125.5118       191.6327
       152.3102       112.6794       160.6646       205.5104       188.8980
       190.9651       215.9063       292.3680       312.5847       324.1746
       358.0408       360.9951       353.2161       414.9802       376.3215
       340.1029       392.9501       447.8689       421.6865       371.3020
       355.2903       381.0801       406.8699       444.7407       421.6544
       398.4381       408.6429       421.4362       399.7833       400.4185
       400.5111       429.9104       441.6973       432.2046       335.0784
       295.9761       334.3784       336.9650       318.0336       361.1294
       395.2617       417.6362       397.8738       439.1667       412.7612
       358.5767       362.6086       401.3453       403.6949       402.6716
       403.6963       407.2980       351.7039       334.6647       303.1838
       332.5378       350.2263       376.0807       381.3587       310.1439
       255.6066       303.1578       294.5015       227.8317       215.5449
       239.1962       192.6766       271.4586       303.6816       221.1830
       177.8186       186.6704       157.1443       176.9572       165.7909
       108.1031       86.70465       107.0162       80.62553       87.38403
       59.52466       77.11133       101.9830       73.36093       67.59848
       98.97592       84.90874       42.39421      -15.16107       32.45067
       56.10833       15.61103      -41.10347      -30.17723      -9.234520
       18.76567       44.75846       34.58228       7.182503       38.15878
       14.28292     -0.6734085       5.681931       49.36366       15.29784
       12.90762       64.98187       31.46307       7.840775       83.06424
       70.16459       11.91891       46.18558       76.50712       18.80322
       52.03911       37.62079       136.4917       597.6963       1406.029
       2808.207       5669.469       7727.170       6800.381       4709.736
       783.0254      -4517.125      -10475.03      -13471.19      -8334.469
       1051.110       3829.578       1635.359       3403.294       1515.775
      -2381.689      -2972.943      -2241.781       792.4414       2814.219
       2589.425       1218.140       382.3389      -2005.178      -5254.500
      -5671.895      -6568.457      -4766.923      -2316.380      -729.4150
       1779.464       1388.124       2108.404       7276.299       9596.312
       4864.071       29.33960      -1016.199       1960.979       5039.685
       4168.213       2038.791      -2105.088      -7687.734      -7751.982
      -2022.078       2817.688       4647.094       4815.968       4575.712
       1266.889      -3566.434      -4861.276      -3661.769      -3842.214
       539.8755       4199.202      -1901.816      -5886.400      -4985.238
      -6641.586      -9171.717      -3316.589       5655.127       7038.200
       4230.858       3208.836       4014.094       3477.381       2335.930
      -942.2588      -2772.456      -1559.450      -3106.863      -4160.814
      -977.7102       1304.208      -1444.371      -5169.710      -4150.292
      -860.4688       555.0254       2168.883       4220.608       2981.002
       1533.735       2638.157       303.9871      -2167.927       415.6040
       621.8652      -3758.119      -7290.570      -8033.410      -6030.353
      -1016.848       2715.344       5278.398       8167.934       7119.602
       3675.424       2437.420       1957.104       1376.962       279.7344
      -3511.525      -7036.459      -6805.061      -3526.723      -1335.700
      -148.5220       2280.365       2117.611      -2036.026      -4493.956
      -1548.542       909.6943       1233.293       3190.339       3282.408
       998.1152       893.4817       40.95215      -3538.979      -4355.298
      -3265.431      -3400.657      -2755.944      -2135.247      -1329.418
       1820.477       3886.604       2940.911       2097.665       1426.377
      -112.3560      -1208.099      -1103.379      -1377.484      -1720.643
      -2199.768      -3970.508      -4781.433      -1877.559       1884.424
       2217.837       1532.701       3141.991       4814.286       2521.781
      -199.3184      -1418.003      -4214.932      -4359.200      -1231.844
       686.3777       543.5460      -38.74316       810.9404       3954.158
       6192.142       4179.719       561.5586      -1401.512      -1495.748
      -1997.958      -2947.786      -1601.945      -749.2061      -2844.527
      -2825.190       1144.297       3481.963       2595.223       1053.426
       561.4736       1481.759       993.9513      -430.4607      -27.78320
       806.4326      -398.8203      -2367.396      -2473.006      -2901.902
      -3764.694      -1718.437       1103.915       2215.804       3042.762
       2538.260       27.88550      -1074.040      -689.8315      -647.6837
       106.8561       726.5439       226.6021      -318.7295       483.5996
       2853.157       4501.381       3867.825       2194.879       1708.924
       609.5713      -3043.508      -5459.891      -5009.672      -2905.474
      -575.9937       1607.375       2937.281       2819.055       3144.098
       3164.194       2898.019       3203.365       3208.701       1806.644
      -804.8823      -2410.501      -783.9238       2017.390       2225.176
       1091.804      -594.3682      -2367.353      -3289.042      -3508.727
      -2480.220      -1930.728      -1978.528      -696.0693       761.7534
       1058.570       805.1846      -1057.387      -2737.430      -333.9688
       2014.655       913.0562       830.9902       1909.501       2162.052
       1763.495      -60.20703      -1744.518      -1595.891      -1217.560
      -823.3005      -181.7993       966.1372       2126.826       2070.517
       1607.104       519.6851       299.0781       832.3726       1161.220
       1285.334       411.7566      -404.7285      -2914.443      -4756.018
      -3197.567      -1074.106       467.8828       954.8428       1842.820
       3334.745       3724.446       2942.193       2359.728       990.2642
      -1838.953      -2746.350      -1951.882      -542.3434       253.9640
       251.4521       817.3182       543.5590      -156.9639       1273.935
       2281.607       737.3208       784.7817       1789.018       586.8354
      -1011.110      -893.1025       1182.848       2047.265       787.6416
       958.7209       1273.107      -422.5977      -1372.723      -1909.643
      -1978.092       67.92529       1990.068       2736.527       3223.445
       3769.412       5287.028       4123.241       205.0620      -602.7715
       211.6074      -1409.615      -2317.569      -716.5601      -758.9609
      -2998.471      -4462.021      -3627.439      -912.6692      -4.310242
      -285.2900       1108.307       2133.636       1671.802       1107.589
       672.8330       1577.207       4143.523       4431.833       3096.854
       4356.730       4851.453       758.7949      -3216.188      -3482.776
      -2238.400      -833.7009       205.8159       1013.612       2205.881
       3694.117       2812.279      -242.3901      -2424.754      -3281.744
      -4199.139      -5059.092      -5121.429      -4179.282      -2743.932
      -1513.068      -580.1688       116.4629       1168.339       2059.428
       2804.003       1616.601      -1130.017       1278.262       5701.898
       5137.530       2428.051       623.1279      -1095.691      -2631.103
      -2481.878      -339.9648       1730.658       2329.759       166.6709
      -2879.261      -4761.168      -5500.572      -5263.903      -3739.958
      -1736.358      -1162.340      -1770.097      -2420.188      -2509.881
      -2116.989      -1372.883      -126.2505       1372.715       2428.436
       2334.270       2918.995       3116.066       516.7563      -261.5891
       1262.493       465.8376       1110.281       1344.410      -1779.766
      -2968.620      -2018.106      -2482.250      -2587.640      -802.3484
      -59.38037       547.3169       2049.190       1555.299      -690.2822
      -2343.164      -1816.259      -1373.203      -2226.540      -1865.751
      -329.8164       1255.642       2827.546       1881.220      -1269.333
      -2823.705      -449.1194       1147.266      -1777.163      -3167.464
      -1269.723       32.62604       227.4570      -517.0020      -1367.033
      -726.9370       1402.745       1068.254      -218.6274       846.1220
       274.7637      -1551.825      -1162.313      -641.0020      -1232.352
      -2312.218      -3651.462      -3939.228      -3340.523      -2481.698
      -435.8418       1457.475       2688.003       2539.469       1563.750
       1876.528       2879.203       2726.847       913.0466      -1341.443
      -663.4282       867.8966      -119.1944      -422.3318       501.3163
       181.4432      -48.30078      -1047.920      -4362.186      -4887.761
       8.257812       2683.399       1407.653       1648.294       2727.213
       3020.793       2285.822      -92.10303      -846.0972      -748.9536
      -2309.099      -2885.918      -1782.537      -2236.612      -2351.666
      -1114.842      -2624.066      -6370.453      -9398.445      -14426.12
      -24051.20      -34355.97      -38462.36      -33772.65      -26405.28
      -23696.50      -20050.94      -2031.875       34200.19       75489.31
       99066.31       97066.09       87011.97       77415.30       59881.91
       31461.65      -6247.141      -44233.16      -70478.25      -78965.17
      -66149.58      -46777.20      -37037.28      -30037.13      -23260.77
      -16223.62       383.8125       19604.33       27694.47       30452.64
       42401.38       49673.95       33477.78       8216.906      -11750.82
      -23178.56      -14788.11       6605.904       9825.523      -12540.77
      -31996.85      -27645.58      -8433.277       9350.387       14469.90
       5718.447       91.33984       4809.777       11851.17       11330.48
       91.83203      -9384.883      -15468.41      -25282.01      -27391.08
      -21328.02      -25219.22      -38066.91      -34607.36      -9566.656
       8696.031       10321.15       10834.24       17948.58       24483.75
       21441.18       17027.27       18117.12       20081.69       17823.58
       14790.60       22423.45       28121.98       17591.45       5421.562
      -2207.332      -10611.56      -13732.97      -6107.801       1690.037
       2506.952       1903.216       2538.793       788.3164      -5754.484
      -13865.06      -16448.91      -13225.06      -10749.00      -6332.121
       7422.359       16697.34       7123.090      -5261.087      -4889.043
       620.9922      -2152.438      -13505.31      -21858.63      -22374.82
      -17972.84      -7666.324       7519.938       13635.07       4090.527
      -4946.984       982.8203       11874.39       10112.12       2025.006
       2780.447       6446.340       6448.984       10584.14       16048.62
       9657.954      -1953.419      -3236.359       4784.567       7553.135
       1259.431      -1653.551       740.9116       1705.626       1880.211
       619.6953      -5719.219      -12696.98      -13541.54      -13647.14
      -12354.36      -2900.359       7615.160       12755.29       14121.74
       10082.55      -9.691406      -8095.637      -10214.90      -6839.303
       1975.379       9645.578       13192.08       12345.97       5503.586
      -2718.703      -7443.598      -13238.11      -18895.73      -16530.09
      -8666.494       142.8555       9677.305       13877.32       9699.105
       6189.686       7180.797       5690.628       1048.528      -1528.680
      -4918.143      -8180.404      -7439.482      -8045.252      -9494.660
      -7567.665      -1589.424       3951.979       6799.863       12284.81
       17698.91       17577.20       14810.16       11529.02       4211.825
      -3896.395      -6162.580      -4471.199      -792.0322      -1870.738
      -8905.625      -7818.138       1354.301       4268.057       2102.352
       1938.851       1041.435      -569.3496       2468.996       8005.893
       6520.372      -579.1631      -4618.834      -5418.707      -5312.091
      -3561.441      -2711.156      -6741.506      -9964.919      -6332.197
      -3083.209      -5295.267      -5505.176      -779.3013       2123.229
      -1848.848      -8539.266      -11122.19      -10366.64      -10213.89
      -10447.15      -8403.726      -3462.386       1320.006       3573.266
       4941.561       5198.652       4820.434       7378.621       10792.46
       10360.90       5374.628       1947.696       3985.006       6885.207
       5738.913       1776.963       49.65405      -532.2129      -2047.951
      -2844.905      -2169.238      -1403.091      -1652.078       1443.244
       7468.461       10424.14       13044.21       15789.78       13221.20
       9574.297       6987.272       2405.012       52.05078      -2456.020
      -13786.63      -23743.70      -21298.61      -15212.36      -12600.43
      -12197.23      -11083.53      -7461.907      -3040.511      -1180.780
      -775.4629       1693.740       2462.472       837.8887       3686.195
       10563.98       11434.34       4937.541      -388.4746      -4410.609
      -8283.615      -8551.316      -7552.041      -7891.211      -6945.334
      -4609.791      -1834.848       3696.668       7893.211       5325.702
       3208.316       5837.328       5714.948       1627.430      -716.1426
       358.6924       3334.566       3991.628       2262.184       3413.357
       6390.746       9390.293       9929.641       5070.565       436.6641
       1272.950       2755.883      -1759.967      -7122.875      -5478.663
      -2483.682      -4963.645      -8834.885      -8351.990      -5070.268
      -4427.586      -4235.766       440.6172       7653.453       11708.35
       9557.097       4736.013       860.0913       693.0967       3042.196
       587.5957      -7937.113      -14020.02      -13295.45      -10586.70
      -8692.619      -7202.549      -4903.613      -748.3877       3851.162
       7868.789       9347.883       6015.324       2603.672       4398.309
       9362.004       12560.78       10647.77       7851.373       7624.572
       4500.383      -3977.127      -9387.391      -8591.096      -9701.750
      -10741.80      -6292.680      -3051.528      -3909.264      -2589.488
       805.8083       1102.730      -14.47412       679.3330       1822.915
       3873.119       6739.102       7314.969       6835.832       7166.172
       7231.020       6061.237       2622.891      -3235.879      -10308.13
      -15530.78      -14102.39      -6823.937      -1876.080      -966.5586
       2408.750       7444.260       9632.523       9932.057       7841.045
       3275.238       978.5215       1536.396       1019.959       802.2959
       2039.814       2163.860       2516.464       2111.788      -243.8730
