     0.02500000      -37246.36       61333.04      -12345.00      -12345.00
      -30.01005       214.7649      -15.96000      -12345.00      -12345.00
       0.000000       11.98000      -12345.00      -12345.00      -12345.00
      -12345.00      -12345.00      -12345.00      -12345.00      -12345.00
      -12345.00      -12345.00      -12345.00      -12345.00      -12345.00
      -12345.00      -12345.00      -12345.00      -12345.00      -12345.00
      -12345.00      -31.90580      -68.77510       1333.000       0.000000
      -31.59500      -68.73200       0.000000       105100.0       0.000000
      -12345.00      -12345.00      -12345.00      -12345.00      -12345.00
      -12345.00      -12345.00      -12345.00      -12345.00      -12345.00
       34.70353       186.7463       6.768893      0.3120326      -12345.00
      -12345.00    -0.03841561       0.000000       0.000000      -12345.00
      -12345.00      -12345.00      -12345.00      -12345.00      -12345.00
      -12345.00      -12345.00      -12345.00      -12345.00      -12345.00
      2008        13        10        50        43
       360         6    -12345    -12345      9792
    -12345    -12345    -12345    -12345    -12345
         1         7        13    -12345    -12345
    -12345    -12345    -12345    -12345    -12345
    -12345    -12345    -12345    -12345    -12345
    -12345    -12345    -12345    -12345    -12345
         1         1         1         1         1
CHIL    -12345          
        -12345  -12345  
-12345  -12345  -12345  
-12345  -12345  -12345  
-12345  -12345  -12345  
-12345  -12345  -12345  
-12345  -12345  BHZ     
ZL      -12345  -12345  
[...]
       125.1965       133.7056       134.3826       141.4853       140.9305
       151.6866       151.7989       156.2750       159.7033       170.3377
       169.2947       173.7734       172.8174       178.1830       177.9598
       185.9868       185.7766       194.5684       197.0235       201.6158
       200.5302       205.6345       199.6467       201.5118       196.2561
       198.5912       189.7207       192.7426       182.3890       178.7289
       169.7214       171.9323       159.4257       156.3606       145.8271
       143.9515       129.5631       129.5840       119.6588       113.9782
       105.1335       103.2468       88.11050       84.05786       72.09579
       64.58835       49.80929       43.23578       29.10867       22.47677
       11.41794       3.739128      -15.01187      -17.42567      -33.49637
      -42.73920      -57.69148      -61.13455      -78.39325      -79.67603
      -95.51666      -100.0032      -110.3291      -109.0725      -126.5383
      -129.8572      -145.1473      -141.6593      -152.5396      -150.9033
      -159.4651      -151.4070      -163.0734      -159.4538      -168.2584
      -157.2370      -168.3848      -157.3570      -160.6731      -152.9539
      -162.6782      -154.2299      -164.7925      -152.8151      -157.7837
      -147.6234      -154.2929      -143.1295      -150.7090      -146.0030
      -153.3069      -138.9221      -145.0772      -132.9833      -138.7109
      -125.8105      -130.5852      -123.0158      -125.4286      -112.3710
      -117.2247      -106.1341      -104.8302      -90.78467      -94.19246
      -80.30096      -77.20976      -62.78770      -65.46353      -52.10722
      -53.55650      -34.52115      -33.81956      -17.45871      -18.18634
       1.246876       4.846977       21.94810       17.57499       31.99065
       32.05536       45.59877       38.43533       58.13794       66.88652
       82.70416       79.35739       100.8979       99.59375       114.5592
       113.6207       131.6035       121.0052       132.4583       135.1591
       149.3823       146.7187       166.4376       163.1457       179.5351
       176.5438       184.8873       180.5969       194.2119       186.1367
       189.7524       183.2900       192.5162       182.5544       190.2133
       182.1559       183.5579       177.5676       181.3135       169.7336
       176.5849       169.8797       168.5719       159.7480       167.7842
       156.9867       158.3022       149.4302       154.4707       143.1146
       147.7541       136.8060       141.0137       131.5517       134.0545
       123.5424       133.7670       126.4096       128.8876       120.5346
       131.3509       122.1552       126.8618       118.3872       121.1659
       113.2832       122.1751       106.8471       107.8039       99.82104
       104.8879       94.09937       97.88419       85.15332       91.67354
       79.92502       81.91060       66.97856       73.33018       62.94574
       62.35657       44.69456       50.35220       34.67381       38.18923
       21.23729       19.20152      -3.996592      -3.348778      -19.43832
      -18.21581      -49.00270      -55.59972      -68.85017      -72.20862
      -96.29153      -93.93970      -121.7965      -132.0492      -149.3979
      -151.6041      -177.5026      -175.5591      -198.5480      -202.0867
      -225.6243      -227.1633      -253.4409      -254.3318      -280.3895
      -280.5736      -296.9937      -292.1428      -316.1303      -321.2194
      -335.9158      -332.0474      -355.5911      -356.6191      -383.0970
      -374.0632      -388.1985      -383.3491      -397.1309      -384.5394
      -391.5897      -369.8030      -382.1746      -374.3594      -376.2936
      -355.8921      -370.0184      -352.1364      -358.2098      -346.0732
      -360.0158      -338.9482      -340.1453      -320.0504      -328.6259
      -309.6016      -317.4088      -299.4508      -304.7239      -287.5995
      -296.5250      -272.9962      -280.9298      -273.6000      -282.6465
      -259.0090      -271.1072      -251.9136      -256.7616      -247.2015
      -261.7782      -235.1785      -245.6332      -229.0028      -234.9233
      -221.3096      -229.9811      -209.0345      -216.6824      -193.9692
      -194.7368      -173.5001      -181.6465      -159.8476      -159.4221
      -139.6698      -147.4890      -124.3221      -127.1743      -100.4465
      -100.4274      -80.56541      -84.06372      -59.52829      -54.21935
      -25.92564      -34.02903      -13.38234      -7.675560       20.83997
       21.53453       46.88702       41.33203       63.13858       65.56287
       89.51547       90.55734       115.9668       114.0022       136.9930
       132.3652       151.3043       148.6539       168.9534       159.5854
       178.0522       179.7814       197.2772       192.4899       206.4526
       199.2384       212.8672       206.0780       214.9908       207.4564
       222.1948       209.4261       220.6444       207.0753       213.3570
       198.5332       206.8205       193.4299       200.2533       184.8933
       193.2795       179.9396       188.8188       171.0013       177.3420
       160.2263       165.3331       145.8214       150.0129       131.7433
       134.2513       114.8652       128.4318       108.2853       113.2249
       97.62390       103.9404       87.21960       102.8733       82.10001
       89.29678       77.82626       91.46742       72.50497       88.08354
       74.85468       92.65283       77.63724       91.38660       78.91745
       91.99826       78.98474       100.6538       94.11285       111.4285
       100.7159       125.7979       121.2253       142.6262       132.9218
       149.9041       141.9915       165.4236       152.6649       171.0494
       163.0823       185.5449       179.4750       207.4641       192.3580
       208.6547       197.4192       212.2772       199.2018       218.4433
       202.2245       221.1008       202.3849       212.9002       198.7520
       207.4741       186.7145       203.4403       188.0397       201.0941
       178.5833       190.6942       168.0434       173.1970       148.0975
       155.3842       135.1447       142.2216       117.0370       125.3958
       95.91003       103.4247       79.53476       83.93097       58.48901
       55.89832       21.74914       29.95842       3.229123       5.849892
      -22.84731      -19.85725      -46.46350      -41.99573      -75.04359
      -70.99982      -98.43835      -93.06754      -119.7371      -111.2934
      -134.4787      -129.1691      -153.4099      -145.5247      -174.3699
      -168.0646      -181.5701      -161.0325      -190.6759      -177.6115
      -192.7812      -177.6866      -195.9658      -182.6170      -203.8027
      -181.0157      -197.5643      -182.5699      -196.2433      -176.7375
      -192.3524      -167.4323      -183.4438      -160.6938      -178.4860
      -156.6328      -165.2828      -142.4866      -161.0038      -136.4968
      -150.4167      -128.2053      -139.3174      -111.8924      -128.8605
      -103.3044      -117.4947      -93.31296      -110.1114      -89.47028
      -100.0354      -77.07971      -90.93962      -53.46696      -69.58852
      -54.24861      -65.96625      -40.92506      -57.71283      -31.95917
      -49.01869      -24.95483      -39.87537      -9.486942      -20.48472
       4.464582      -8.085789       16.45683      -1.245155       27.69903
       11.74519       37.97280       22.10650       47.74379       29.77528
       53.40974       38.86621       67.39839       48.84039       76.99225
       60.45557       87.83008       73.81696       98.45770       82.18069
       109.2463       86.63239       114.1577       100.1234       123.5912
       103.7799       131.0930       111.8643       135.3737       113.7437
       140.3518       122.9675       152.0626       131.6392       156.3541
       136.2327       163.5614       137.1642       157.8846       136.5953
       158.8206       131.7093       153.8526       131.2297       157.6679
       137.4880       156.7313       132.9959       155.7676       126.3059
       144.7356       121.8128       138.9203       110.9036       131.2016
       103.7412       115.4296       83.78799       96.70047       64.09433
       75.81152       42.10803       59.86530       27.58006       38.09814
       7.785473       23.03894      -11.70397       5.386795      -27.24184
      -13.52869      -49.18976      -38.07535      -70.28870      -55.39340
      -91.81033      -71.67590      -105.7586      -96.01208      -126.8351
      -109.1305      -145.0267      -126.0084      -153.1572      -140.9060
      -172.6917      -153.9338      -188.9036      -172.8209      -203.2618
      -186.1459      -219.2698      -201.6528      -230.6116      -212.1740
      -237.5427      -217.5178      -244.4959      -216.8317      -236.5985
      -212.0771      -232.3726      -208.1279      -230.6584      -204.1172
      -227.4095      -197.6891      -216.0956      -187.4010      -205.1363
      -174.5261      -191.9372      -157.6005      -173.3616      -133.9872
      -148.9651      -114.3790      -127.5350      -89.80884      -104.0634
      -61.26022      -74.24272      -40.02032      -55.70810      -18.16154
      -39.82445      0.5411968      -9.268593       32.56545       13.85240
       53.85770       36.17183       71.83057       53.43463       96.15778
       77.40063       113.0581       96.73026       137.8961       117.7619
       150.5173       129.2689       163.5964       137.9808       175.2846
       155.1339       182.0421       157.9750       190.4324       162.1993
       192.2097       164.8652       188.7532       160.3594       185.6405
       154.6397       178.5461       148.7316       171.8643       140.0187
       157.1476       126.5606       145.7873       110.9036       131.2211
       101.5594       120.8089       82.08456       101.2361       68.54733
       84.53197       48.22984       66.06366       29.30556       42.54947
       2.886267       20.37924      -15.66692       3.470238      -31.98217
      -14.36812      -51.50897      -32.69214      -66.92638      -49.99808
      -85.46564      -65.52014      -103.1738      -87.87997      -123.3486
      -102.7566      -133.4268      -112.8177      -146.0743      -119.3562
      -148.5844      -122.5424      -151.5312      -123.3894      -147.7735
      -118.7541      -141.9016      -108.0875      -137.0829      -107.9596
      -130.9285      -99.56085      -127.4411      -93.39618      -117.0629
      -89.00854      -115.4467      -83.31601      -105.4114      -72.55852
      -92.25763      -56.85039      -77.05098      -43.28830      -64.52540
      -31.04063      -53.45085      -20.19218      -44.69131      -13.68144
      -39.00188      -5.341377      -26.08861       3.856430      -20.34048
       13.46079      -7.661907       27.35613      -1.238251       33.87317
       13.45487       42.21982       13.78650       46.21906       19.16426
       48.81114       18.73702       50.50690       21.69935       49.77431
       19.12082       51.02779       22.97772       51.35291       19.15184
       50.95196       21.45015       46.20573       20.41168       51.91890
       18.51929       49.44319       21.39404       46.57227       16.53022
       49.84343       20.83070       48.56064       16.34862       48.84155
       22.57779       56.21767       24.10461       53.11267       21.00417
       51.72734       23.06326       52.97208       26.26392       56.62006
       26.59697       59.57111       33.26666       64.04443       36.74319
       72.78262       48.89308       79.54291       52.88565       83.65472
       55.73309       89.53189       62.17511       99.64536       76.67728
       109.3027       79.28613       120.0275       99.18494       130.4378
       105.8591       150.6100       123.5620       159.9667       136.9371
       172.9777       146.9873       180.0937       154.8701       194.1818
       168.8045       206.8868       181.5033       216.6259       190.3636
       225.2986       195.3587       232.6916       207.4134       238.6228
       206.4624       243.4965       210.6771       248.3211       214.5088
       241.9841       205.4475       239.9986       203.0786       233.7371
       196.7250       225.3073       185.6932       212.3326       170.7721
       200.2764       164.9453       192.2840       152.9185       184.4374
       140.8582       168.3161       133.8244       166.1766       118.9893
       141.5632       98.53168       137.3582       89.54861       99.02303
       39.90009       57.23975      -592.3682      -2795.684      -7151.109
      -14768.23      -28268.23      -37246.36      -33067.42      -27589.94
      -8110.305       24383.36       48947.22       61333.04       47709.21
       14980.17      -3359.184      -11073.81      -28479.60      -12986.84
       10272.75      -422.0020       5428.824       16579.15       3899.279
      -5901.485       1628.293       3619.087      -2983.459       4163.992
       552.6934      -9588.543      -7592.312      -7154.097      -3178.359
       5489.149       3922.180      -5484.635      -10403.48      -6986.480
       4818.090       9647.680       11193.61       8433.150      -280.0767
       2165.322      -1745.545      -7381.602       89.61304       791.9370
      -3377.660      -1193.248       837.8892       705.9395       2424.641
       5558.329      -2363.611      -5135.854      -726.2070       1834.759
       6115.451       3847.313      -1168.000      -4988.878      -725.9822
       1539.562      -3701.584      -3585.125       1651.077       4081.250
       391.8672      -7964.721      -11628.36      -3306.058      -2470.900
      -3849.887       1812.805       522.1758       1755.322       5953.279
       4816.238       4029.202       2609.889       3737.323       3614.647
      -3601.234      -5978.011      -1313.822       1107.800       1598.886
       1277.542       794.2344       4704.536       7453.671      -1116.020
      -10876.87      -9592.172      -3921.159      -2143.186      -1957.784
       154.8438       5202.968       4816.774       849.2305       2994.833
       5880.873       1921.956      -3168.173      -187.0209       953.7361
      -2013.014       625.0049       3356.708      -313.1113      -1901.641
      -355.4170      -2398.615      -776.4629       1208.303      -1629.740
      -3584.646      -2883.247      -2053.655      -2521.543      -55.06152
       4913.742       4626.635       3417.174       7453.773       5190.953
      -2328.146      -2606.418      -5444.473      -8047.053      -577.7656
       3414.709       3322.600       4589.809       2908.966       2434.778
       336.4238      -3239.524      -5110.611      -3922.702       587.0898
       3694.870       3599.040       2420.227       2594.851       1060.682
      -1667.518      -3008.260      -4122.879      -7014.881      -6218.667
      -2210.072      -1626.701       1307.799       1122.910      -731.0098
       1939.461       2533.635       1126.373       1026.784       2290.688
       1715.935       21.20215       1576.872       2009.475      -2012.159
      -3779.162      -1631.995      -177.2860      -48.20691      -634.0451
       368.7516       34.02002      -1702.275      -2205.262      -3528.995
      -2667.939       380.8267       1710.392       1110.235      -334.0648
      -4.550293      -978.5742      -3389.283      -1795.515       699.8502
       281.6689       136.3701       1135.074       523.8940      -1027.209
      -707.5620       17.04538      -6.793945       489.7080       2427.548
       2402.350       1291.518       1389.654      -1138.466      -3846.107
      -1203.001       1347.590      -1063.951      -3563.996      -3238.996
      -3861.528      -3113.224       819.8506       4026.762       3406.062
       2919.302       3038.563      -1890.185      -4469.530      -2532.900
      -4646.601      -4817.473       668.4336       4096.393       4294.776
       4658.289       5191.450       1157.702      -4425.577      -1267.111
       1607.453      -2346.692      -4882.096      -3849.978      -1702.547
      -1220.571      -669.9233       941.9741       1362.055       2433.301
       5920.750       5239.025      -81.27002      -1034.039      -2226.328
      -5117.329      -4572.639      -2991.750      -2190.485      -1550.808
       210.7310       2245.643       3566.619       2180.385      -208.5039
       1151.179       1962.695       1627.910      -507.4863      -2869.637
      -2039.948      -795.9141       1218.848       5122.604       3979.684
      -1707.800      -663.1187       1813.627      -2297.439      -4147.320
      -1051.472       123.6450      -1045.744       3226.757       4934.852
       523.8853       39.76074       1689.260       1754.892       914.7324
       3004.583       3779.864      -1075.125      -2428.452       642.7232
       135.0956      -151.3611       1512.083      -1018.600      -3209.705
      -1804.347      -1479.032      -4323.660      -3829.358      -392.3346
       465.9839       735.9028      -583.2690      -3011.026      -607.0225
       2015.833       1571.213       4674.184       7462.160       4790.469
       2750.641       1848.024      -544.0568      -475.4607       370.2472
       565.9888       732.1697      -377.7510      -940.9042      -1189.002
       675.4937       1635.736       59.69116      -1437.483      -58.42676
       3380.064       1500.202      -1864.826       916.6365       2092.524
      -3521.222      -4321.726      -96.29590      -2771.191      -2365.290
       5634.010       6838.353       4230.343       4514.788       252.3359
      -2786.226       30.38989       223.0361      -2002.573      -379.9165
       1443.065       690.1665       1342.778       1628.539      -1154.736
      -3273.179      -2349.910      -258.1089       1361.082       1482.596
       2572.653       3104.177       2233.219       632.3857      -3295.419
      -3987.414      -3596.252      -2305.088      -267.3828      -1433.631
      -1690.482       1344.174       3885.858       2381.282      -1474.735
      -188.6597       2296.282       478.0920       835.1814       769.6721
       267.2987       1066.868      -1302.610      -3648.172      -2668.692
