     0.02500000      -39059.56       53991.48      -12345.00      -12345.00
      -30.01005       214.7649      -15.96000      -12345.00      -12345.00
       0.000000       11.98000      -12345.00      -12345.00      -12345.00
      -12345.00      -12345.00      -12345.00      -12345.00      -12345.00
      -12345.00      -12345.00      -12345.00      -12345.00      -12345.00
      -12345.00      -12345.00      -12345.00      -12345.00      -12345.00
      -12345.00      -31.90580      -68.77510       1333.000       0.000000
      -31.59500      -68.73200       0.000000       105100.0       0.000000
      -12345.00      -12345.00      -12345.00      -12345.00      -12345.00
      -12345.00      -12345.00      -12345.00      -12345.00      -12345.00
       34.70353       186.7463       6.768893      0.3120326      -12345.00
      -12345.00      0.1075624       0.000000       90.00000      -12345.00
      -12345.00      -12345.00      -12345.00      -12345.00      -12345.00
      -12345.00      -12345.00      -12345.00      -12345.00      -12345.00
      2008        13        10        50        43
       360         6    -12345    -12345      9792
    -12345    -12345    -12345    -12345    -12345
         1         7        13    -12345    -12345
    -12345    -12345    -12345    -12345    -12345
    -12345    -12345    -12345    -12345    -12345
    -12345    -12345    -12345    -12345    -12345
         1         1         1         1         1
CHIL    -12345          
        -12345  -12345  
-12345  -12345  -12345  
-12345  -12345  -12345  
-12345  -12345  -12345  
-12345  -12345  -12345  
-12345  -12345  BHN     
ZL      -12345  -12345  
[...]
       184.4351       158.6345       191.2842       168.5515       202.2740
       171.6880       199.8060       174.5963       206.7754       177.3645
       207.2114       178.4807       207.1712       173.2646       200.5887
       167.4025       193.5515       160.0920       186.2856       153.2154
       178.1302       142.4907       168.2245       133.4631       157.0046
       121.7961       149.2893       115.2220       142.4010       111.6956
       138.3753       104.3198       135.3056       102.5223       127.4022
       90.32141       117.7903       80.19421       111.7821       85.19333
       116.2788       86.50275       121.1645       91.20554       128.0156
       99.23492       128.3815       97.33270       128.4196       96.72446
       129.0301       96.16916       124.2713       92.63644       126.4145
       97.18961       124.9456       90.66626       117.5346       83.83200
       111.5154       80.95914       111.5768       73.73059       97.79413
       62.04048       89.75748       56.65388       84.36908       48.78322
       76.96771       40.52155       67.80772       34.05592       64.86826
       30.87834       62.34851       25.92384       53.25948       21.17497
       49.11685       13.07153       41.92347       8.799965       34.33016
      -2.544334       24.01165      -12.20493       12.97512      -20.66845
       8.812721      -26.50533      -1.975517      -36.14879      -5.737091
      -40.59485      -11.49531      -43.92580      -15.06688      -48.65057
      -21.20030      -58.57907      -32.37460      -72.63048      -44.62395
      -80.38402      -54.44339      -91.73315      -61.33551      -105.3511
      -77.44159      -114.0353      -81.26889      -118.7634      -88.31815
      -122.2819      -89.43970      -126.2305      -95.05377      -130.7919
      -98.00739      -130.8242      -93.54910      -122.1273      -88.75146
      -116.9945      -78.82526      -104.0218      -71.02533      -100.2089
      -62.26801      -90.24298      -53.50233      -80.91043      -47.17229
      -71.95874      -37.58762      -62.79581      -27.73793      -57.67821
      -21.15440      -44.52914      -9.665169      -39.74269      -6.034492
      -32.40548       1.372974      -31.06349      0.2880135      -25.29045
       8.403305      -25.68550       6.367802      -26.22998       3.223774
      -25.89729       10.21217      -20.67380       11.00396      -20.64046
       11.29156      -20.79832       11.93816      -19.21674       13.47228
      -14.23573       22.82605      -7.119068       30.14961       1.728622
       38.74730       11.55612       47.22690       18.91374       59.42281
       30.75232       66.77362       37.81628       77.46667       48.67198
       87.53613       60.28830       100.8025       73.21341       110.9109
       82.47693       122.7301       92.94241       132.4263       105.4572
       144.5586       119.2640       155.0763       128.5641       167.4368
       132.6483       171.5671       145.9946       177.0304       143.9559
       178.0067       144.1879       176.1868       145.1219       176.4253
       147.3062       181.4738       147.8919       179.5323       149.1829
       176.3115       140.4169       173.0616       139.8233       168.9998
       141.0352       170.0584       132.6947       162.5245       125.3882
       148.4532       112.9841       139.6687       101.7821       125.5367
       88.43896       113.8615       78.16943       104.6472       69.44542
       94.46169       57.08932       87.96291       54.70920       81.13861
       47.87410       75.65009       41.10088       71.36295       35.61633
       66.68051       33.85722       60.62706       22.62134       52.84909
       20.77490       50.31015       11.10130       35.75397      -1.584305
       27.08230      -9.732080       19.86237      -19.23983       2.140923
      -35.56860      -4.000359      -42.04660      -15.29935      -51.33893
      -25.73952      -66.56393      -43.93748      -87.60953      -68.83527
      -111.5379      -86.87335      -130.8340      -108.7913      -147.5934
      -126.5375      -171.0568      -149.9136      -189.9836      -167.7319
      -205.8323      -186.3513      -228.4962      -206.8788      -247.2407
      -227.9984      -272.3570      -257.4045      -292.8192      -273.2407
      -320.2227      -302.5542      -343.0450      -323.3126      -358.3110
      -335.3257      -374.0714      -347.8888      -382.0273      -357.2521
      -393.9940      -371.4156      -404.8256      -377.1094      -409.0664
      -382.6476      -417.9176      -390.7109      -421.6360      -392.0649
      -420.4963      -387.0176      -413.3129      -373.9749      -394.4983
      -354.8003      -378.0303      -346.1359      -371.4617      -333.7496
      -356.3539      -318.4713      -340.3103      -301.9230      -318.0205
      -286.6725      -308.1505      -268.3723      -286.7518      -249.1313
      -266.8844      -232.9166      -255.5976      -222.6973      -240.3018
      -201.2552      -218.4439      -181.3190      -190.2906      -148.8312
      -168.8979      -141.3370      -166.4514      -76.39420       27.55115
       202.5488       522.2535       824.3823       102.5400       858.5093
       2317.030       1490.931       947.6799       1161.389       1018.629
      -1192.333      -4393.623      -4113.016       1589.787       6344.901
       3113.451       2649.519       3662.106      -2487.758      -9611.070
      -10169.73      -4963.863       61.27344       7262.703       12452.24
       11288.79       9665.749       6401.313       4.488281      -9327.746
      -12252.02      -9309.348      -9365.499      -6929.014      -124.9199
       3565.651       3705.725       4991.452       4862.440       1449.929
      -3922.126      -5029.967      -1585.568       246.9922       3893.875
       5864.079       4488.904       1864.227      -2270.295      -3649.774
      -3038.785      -2454.648      -1039.320       66.62567       752.6699
      -916.3365      -451.4209       1416.959      -90.20526      -438.0483
       1850.916       4123.298       3817.295       1331.638      -1111.023
      -1716.565      -1843.366      -3939.450      -5531.253      -4364.114
       250.1289       5956.311       8795.557       7668.094       6152.646
       2998.113      -854.0254      -2266.355      -4143.385      -4817.453
      -3497.270      -1873.613       1077.109       2337.468       1101.648
      -1368.054      -2697.641      -2748.314      -3585.682      -2482.656
       106.9580       902.3848       2695.088       6221.202       6387.480
       2398.346      -2473.072      -6221.598      -6355.613      -4394.215
      -1497.758       1262.841       2174.086       1072.912      -114.1064
       1109.275       3983.512       5880.404       5745.831       5025.150
       3928.394       768.4263      -2091.693      -3324.027      -5422.971
      -7186.807      -5857.169      -3849.906      -1449.033       1621.567
       4367.740       5964.688       4666.727       782.2263      -691.2134
       2205.632       4215.914       4027.894       3210.515       20.00195
      -4821.479      -7462.396      -6000.352      -4654.162      -4062.577
      -298.1562       3804.531       4632.010       4943.016       5868.080
       6610.836       4342.309       1838.052       922.1016      -2127.242
      -4833.370      -5420.038      -5269.892      -3617.624      -295.6987
       2044.222       2287.496       1588.662       538.7915      -421.5046
      -723.3530       1070.014       2854.240       4249.403       3718.326
       132.7061      -4176.893      -7596.033      -8693.326      -7073.752
      -2678.668       1854.106       3646.072       3792.716       3572.789
       2620.042       1613.153       890.7158      -1575.562      -2941.271
      -1742.500      -793.0874      -1387.989      -2228.841      -1524.736
      -343.7925       215.8203       1331.472       2682.875       2867.690
       1631.500       660.3658       142.6279      -566.8613      -1059.114
      -753.2241      -387.1968      -80.97223       416.7874       169.4137
      -183.6842      -32.06738      -1119.995      -2247.780      -1502.221
      -362.6295      -440.1968       859.1113       4153.180       5748.989
       3503.898      -173.6611      -2130.310      -2351.726      -1837.403
      -849.4438      -1735.343      -2163.479      -691.4313      -139.3060
       142.7410       540.2144       908.9697       1569.544       2509.896
       3916.334       3843.628       2688.979       1259.714      -1686.554
      -3650.146      -3329.193      -3437.490      -4528.845      -4911.854
      -2173.290       378.2173       1040.426       2982.619       4416.009
       4214.773       4084.282       3412.261       1523.253      -990.6355
      -1633.948      -733.7950      -216.0513      -918.0879      -2721.634
      -4649.685      -4191.047      -1388.561       103.0715       467.3828
       1497.856       2702.590       3265.378       3270.195       2960.176
       1399.177       52.02893       236.3220       807.5999      -23.44971
      -1102.846      -142.7017       1512.440       2001.636       2302.580
       1459.247      -1009.086      -1319.124      -1111.010      -3918.553
      -4739.758      -2616.748      -1368.236      -903.9668       523.7542
       804.4888      -344.7002       1085.326       3082.825       775.0205
      -2015.183      -924.7669      -5.618164      -959.4486      -731.0442
       1073.797       1929.003       1998.709       3026.915       2034.929
      -288.6089      -1689.622      -2538.029      -2066.150      -220.5795
       432.4675       404.5210       1142.871       1275.009      -8.030273
      -1357.540      -953.5908      -208.1089      -674.1057      -1166.629
      -1271.358      -598.0737       1333.283       3115.301       4225.318
       4054.595       2154.662       845.5608      -78.14697      -914.1709
      -1368.043      -963.5166       854.5591       1993.771       726.6503
      -562.0023       223.4614      -599.7373      -3409.364      -3199.044
      -1672.498      -1516.632      -765.9683       385.9878      -775.0825
      -2015.754      -1393.325      -811.2449      -320.3950       562.1279
       1944.470       3378.173       2928.605       1194.703      -441.5498
      -1579.791      -2389.618      -2945.017      -3203.431      -2424.708
      -101.1318       1478.521       1372.348       999.3813       521.3193
      -620.3184      -383.4106       1854.939       2442.542       1368.066
      -38.00586      -1381.986      -2614.377      -2863.233      -1872.111
      -1636.443      -1187.129       656.2861       2482.206       3340.943
       1906.368       497.5718       922.0628       282.4392      -760.7900
      -1310.686      -1071.930       227.9380       1133.964       1745.249
       1828.716       1706.137       2339.912       1411.045      -955.1484
      -1357.100      -516.0730      -90.30206      -230.0369      -468.0605
      -2325.899      -4365.230      -3477.663      -2675.512      -1779.042
       301.9282       1081.587       1114.490       1527.437       2110.914
       2366.992       703.3669      -813.5482      -235.6818       257.9988
       7.627686      -1171.979      -1763.184      -313.5503       1305.468
       2552.859       2429.524       532.8625      -359.0981      -1016.364
      -2779.926      -3200.715      -2428.462      -1038.143       231.6176
       166.5137      -208.6652      -282.2485       98.51807       1399.368
       2958.158       2524.373       451.8452      -679.6807      -1038.990
      -1750.577      -1922.692      -1475.117      -2212.501      -1548.973
       1273.828       2847.557       2582.411       1370.644       532.6254
      -348.8320      -1142.858      -619.7212      -329.7247       66.31982
       1705.314       1524.059      -880.7031      -1552.867      -872.1577
      -1385.567      -2268.998      -1354.177       738.2490       2400.766
       3629.385       4909.423       4898.179       3228.038       2266.790
       1920.942       1230.580       1112.748       902.7920      -106.0830
      -1073.268      -2065.655      -4469.477      -5797.027      -4921.315
      -3598.695      -1739.030       149.2695       2451.501       4295.615
       3601.413       2278.234       2059.562       1083.650      -2416.684
      -4230.387      -2878.218      -2359.475      -3227.488      -5314.980
      -11121.94      -20661.84      -29156.59      -33162.37      -35986.13
      -39059.56      -35689.36      -20615.12       1345.180       17137.09
       20569.50       19591.11       20126.59       21765.54       18386.69
       5619.016      -5299.938      -8796.297      -8212.547       3250.062
       27696.53       50523.94       53991.48       40224.22       23505.46
       12571.41       6933.881      -1503.742      -13237.63      -19601.77
      -18794.95      -20731.36      -30114.60      -33651.23      -24107.18
      -10365.11       4067.148       22426.34       33372.43       25494.03
       8295.132      -5455.820      -6969.886       2957.449       7126.003
       1616.559      -1538.872      -639.9431      -102.4961      -2724.463
       804.7266       15051.89       18186.08       7801.491       1075.514
       1723.285       6300.398       11613.70       13392.77       9904.984
       7409.856       2189.555      -11768.15      -26839.14      -36756.88
      -36113.18      -24836.41      -10706.31       440.6289       7853.523
       12436.30       14936.10       17109.49       14300.04       2002.877
      -10265.57      -14223.89      -7232.338       6047.758       11891.38
       9073.450       5792.141       4707.980       6400.428       8368.262
       4770.713      -4513.665      -7336.135      -939.2441       4538.602
       6299.282       5550.348       1508.867      -4596.152      -9187.547
      -8608.929      -1329.375       2330.980      -7156.918      -13556.24
      -6568.229       562.5107      -494.6313      -3079.238      -1102.955
       1812.164       400.3438      -6460.172      -14161.79      -14516.32
      -6315.429      -1524.791      -4304.821      -3233.680       2866.836
       8279.568       9140.744       6996.248       7196.027       7074.416
       5846.535       5601.314       2913.769      -1043.721      -2953.672
      -2579.125      -799.2178       36.14893      -1232.434      -1399.906
       1435.291       4377.467       3151.422      -20.10962      -60.95312
       3688.762       9252.172       12741.02       14089.03       14240.48
       8684.537      -2838.516      -13491.79      -18453.98      -19913.30
      -19753.62      -18302.70      -15472.15      -9883.421      -1338.578
       6890.480       10997.63       11410.37       11440.79       10019.96
       2782.349      -4773.862      -2828.127       1427.475      -687.0596
      -3818.807      -5517.629      -6716.347      -5571.174      -3947.160
      -2164.249       472.4658       1835.312       3068.512       8355.832
       13727.36       12990.45       9016.797       6672.523       6653.941
       9852.664       15119.23       17718.62       17182.65       11996.98
       747.8594      -8673.543      -13388.20      -16636.93      -17810.27
      -14285.26      -7556.616      -922.5859       4368.943       9429.334
       11655.05       7639.750       491.8008      -6667.980      -10820.11
      -11064.80      -8994.217      -6630.305      -9901.461      -16338.25
      -17114.58      -10209.51      -1690.234       2277.922       1659.214
      -526.8770      -2333.809      -1902.792       312.1357       3336.613
       8507.590       13842.35       13577.22       6946.828      -27.58984
      -5553.492      -12429.15      -15835.94      -15909.87      -15720.26
      -10026.59       706.3984       7032.510       7938.953       10218.46
       13424.59       14916.67       14236.05       10937.91       5769.207
      -525.6191      -3072.171      -3331.812      -6696.102      -11271.67
      -13827.89      -12141.16      -7038.803      -1448.863       4341.230
       10253.64       16341.75       19613.13       17895.61       11927.66
       3718.184      -3718.484      -9215.680      -12055.37      -11837.67
      -9364.990      -3978.447       1609.833       4561.302       4796.627
       2947.401       2292.754       3330.824       2753.285       28.99023
      -2786.037      -3566.336      -4176.938      -6125.590      -8568.925
      -7457.714      -528.4473       6116.861       6917.800       4097.184
       2566.426       3148.978       4255.668       4980.618       2283.457
      -4553.148      -10098.92      -10545.34      -9074.420      -8566.033
      -8082.041      -7560.641      -8782.000      -8453.318      -3730.100
       3888.107       8896.846       8196.523       6963.104       7279.520
       6536.352       6328.211       8636.766       10991.86       9974.363
       6627.259       3488.153       1900.723       506.2812      -1944.285
      -4276.201      -4655.337      -3030.052      -915.0364       688.5342
      -631.9639      -3933.555      -3332.909      -321.4316       1101.304
       2795.736       5881.920       7228.717       4564.508       368.0107
      -294.0364       1208.399       1475.814       1755.487       1455.188
       235.8049       432.8247       876.9254       206.6826      -1376.631
      -3489.193      -6078.516      -7048.062      -4610.500      -1907.649
      -2342.791      -4844.221      -6922.322      -6383.436      -4730.783
      -4995.672      -3645.962       2284.566       7138.338       8542.105
       8454.539       7234.787       6219.160       6886.932       7320.925
       3905.002      -2481.727      -5340.469      -2406.768       3128.391
       7396.609       7228.465       2680.969      -999.5618      -73.45068
       1670.930       1063.930       1437.128       3070.432       2541.041
      -506.8750      -5338.400      -10234.94      -10964.25      -7603.484
      -4777.251      -3701.949      -2015.182       471.5847       1350.192
      -229.1113      -1368.308      -1700.240      -336.8096       3121.987
       5271.385       4834.939       2642.137       276.3320      -1458.444
      -2106.541      -2515.332      -3820.555      -3744.959      -2563.989
