     0.02500000      -34956.33       31470.20      -12345.00      -12345.00
      -29.99000       224.3600      -25.24000      -12345.00      -12345.00
       0.000000       18.81000      -12345.00      -12345.00      -12345.00
      -12345.00      -12345.00      -12345.00      -12345.00      -12345.00
      -12345.00      -12345.00      -12345.00      -12345.00      -12345.00
      -12345.00      -12345.00      -12345.00      -12345.00      -12345.00
      -12345.00      -31.06740      -67.28460       921.0000       0.000000
      -31.59500      -68.73200       0.000000       105100.0       0.000000
      -12345.00      -12345.00      -12345.00      -12345.00      -12345.00
      -12345.00      -12345.00      -12345.00      -12345.00      -12345.00
       149.6579       67.36696       246.6180       1.345607      -12345.00
      -12345.00      0.1257242       0.000000       0.000000      -12345.00
      -12345.00      -12345.00      -12345.00      -12345.00      -12345.00
      -12345.00      -12345.00      -12345.00      -12345.00      -12345.00
      2008        13        10        50        52
       640         6    -12345    -12345     10175
    -12345    -12345    -12345    -12345    -12345
         1         7        13    -12345    -12345
    -12345    -12345    -12345    -12345    -12345
    -12345    -12345    -12345    -12345    -12345
    -12345    -12345    -12345    -12345    -12345
         1         1         1         1         1
CHUC    -12345          
        -12345  -12345  
-12345  -12345  -12345  
-12345  -12345  -12345  
-12345  -12345  -12345  
-12345  -12345  -12345  
-12345  -12345  BHZ     
ZL      -12345  -12345  
[...]
      -147.8125      -213.4673      -151.4045      -90.43713      -182.9786
      -140.5172      -75.64801      -147.5065      -125.1935      -158.0183
      -157.7635      -151.4175      -207.6573      -73.52557      -79.62027
      -198.8164      -74.33887      -94.11829      -168.5688      -137.0167
      -118.7241      -185.8682      -145.4816      -67.49609      -204.4590
      -130.0137       24.01978      -198.3356      -161.6677      -66.75507
      -182.9062      -129.1135      -73.59216      -209.3318      -356.9983
      -959.0850      -2015.438      -3797.288      -6499.642      -2884.690
       4173.469      -2923.615       2291.199       23431.90       4637.738
      -18884.73       184.0098       13049.01      -2420.094      -9897.554
       2647.651       4321.477      -13940.91      -7738.301       19577.56
       7944.145      -9382.412       2374.074       694.8203      -9327.332
      -456.1250       7452.148      -2033.756      -8784.269       1066.004
       9625.350       335.1777      -12580.03       387.8223       16365.90
      -2907.700      -12118.40       9218.554       6838.234      -11179.09
      -2561.887       7213.967       283.9395      -7480.264      -1771.250
       8189.014      -4225.782      -10964.20       5916.190       7330.556
      -3244.303       3773.863       13997.88       7354.604      -8027.961
      -11299.60      -5923.211      -5148.817       2808.395       15336.71
       7981.848      -7820.223      -7669.688       580.2534      -1413.623
      -4043.375       2855.865       1642.939      -4914.652       2517.414
       8131.965      -4084.877      -4600.674       10641.19       25.76367
      -10246.89       2653.418       627.8662       3118.715       6041.862
      -3748.601       2319.470       1173.691      -6613.003       442.9141
       6888.623       1562.509      -5485.382      -406.4785       81.59277
      -3773.984       1777.250       6477.099       4426.451      -7044.405
      -9364.406       4150.280       7138.081      -3582.356      -3928.154
       9147.951       6048.947      -5937.751      -2446.568      -160.0620
       411.6733       4010.419      -129.7085      -4040.824       3008.044
       4397.722      -8603.693      -108.6562       9287.034      -6742.675
      -1128.624       7098.327      -4800.204      -4086.481       2372.839
       2330.874       235.1533      -4332.931       504.0776       5652.320
      -3298.645       1086.903       6582.452      -4546.357      -6312.398
       3417.443       8079.695       3384.498      -2474.269      -4872.211
      -1202.179       1159.546      -762.6440      -1268.737       1324.787
       1480.821      -2522.602      -2056.009       5299.280       4939.738
      -7478.742      -3122.834       7989.013       1115.059      -3759.740
      -1852.029      -4341.786       1282.885       10788.05       4355.014
      -6232.377      -6276.704       1017.294       4009.743      -4359.915
      -6449.865       7522.586       5886.402      -4524.485       1294.588
       2733.122      -4407.116      -7486.571       1820.316       4890.661
      -4102.486       1712.118       7725.468      -2167.078      -8827.741
       2165.410       5462.785      -6928.589      -2445.928       9032.506
       3197.841      -4400.596       111.2329       2696.323      -4346.405
      -2293.735       4764.534       626.8203      -4154.698      -2256.044
       2215.142      -1418.534      -1382.510       4126.188      -2994.534
      -2503.465       2189.856      -397.1301       1666.342      -2444.898
      -5255.927       5907.914       4810.543      -6357.321      -3734.084
       2524.661       744.0255      -122.2251      -266.8237      -1315.143
      -362.9875      -2387.917       1455.721       3865.046      -1831.340
      -414.5317       1636.574      -2503.054      -234.7686       244.0933
      -2367.212       808.1162       228.5122       2788.137       1420.686
      -2930.960       76.76733       102.0630      -2864.856       737.2573
       425.1387      -5374.759       3132.080       6186.837      -3496.406
      -6762.158       1880.686       4183.874      -5158.534       614.5430
       8343.781       485.9805      -7839.283      -1856.602       5528.377
      -703.7419      -2713.949       3411.207       1656.250      -5317.406
      -583.4219       6605.143      -5322.713      -6175.299       11592.92
       2720.944      -10217.73       3487.141       5728.425      -7334.083
      -3582.955       9021.293       4284.506      -7700.953      -4828.066
       6535.412       4970.409      -4771.605      -1529.511       4092.855
       525.3242      -2734.350       567.6538       1854.430      -1748.900
      -875.5215       262.5205       1052.687       984.6719      -2114.615
       2644.605       3487.508      -4983.044      -84.78394       2822.571
      -3151.516       190.9734       1464.154       814.8721       1580.790
      -149.3813      -1543.554      -213.4375       4233.704       2024.276
      -5144.246      -5369.312       6757.515       4385.262      -9546.819
       289.3359       9918.554      -169.9502      -4019.525       4658.140
       2188.465      -8068.217       220.3066       6592.217      -4495.740
      -3257.899       5491.411       2827.267      -5153.138      -3876.430
       6322.309       2047.232      -6218.541      -458.3491       3202.547
      -1693.612      -2272.271       2532.348       66.75391      -4470.214
       2417.227       6551.352      -3603.571      -7010.663       4474.795
       3647.337      -3588.170       145.1130       1374.151      -1408.133
      -1034.142       152.3701      -1031.957       758.2565      -292.7688
      -1092.490       3883.355      -148.4316      -3650.316       423.5660
      -475.8378      -315.7244       874.6655      -2463.737       444.3016
       2381.781      -6796.206      -1325.082       10364.31      -1260.000
      -6761.039       3523.803       4047.619      -4798.953      -4342.652
       4437.533       2577.360      -3935.081      -951.4431       1605.981
      -2382.986      -2096.913       68.67773       2842.955       3134.146
      -3908.649       764.0420       5282.951      -3602.713      -4256.107
       1906.120       677.8564      -2043.687      -289.7291       172.5297
       780.6169       319.4712      -3479.883       1022.768       3895.071
      -2401.523      -703.9287       1477.410      -2109.126      -980.8301
       3783.850       856.7773      -5634.104      -375.2822       3959.539
      -477.5093      -3707.958      -554.3242       5224.481       1173.620
      -5377.216       613.5723       3896.941      -2151.729      -4353.922
      -751.0879       5166.971       742.5591      -4830.301       1877.476
       4657.796      -1230.085      -6055.639       419.3052       5483.033
      -3248.421      -4609.634       3266.425       2803.163      -1124.747
      -2663.919       2927.628       5606.727      -3151.628      -6325.657
       1425.263       4700.961      -2096.790      -1724.275       2869.580
      -248.3008      -1565.485       585.8101      -1597.036       333.5801
       4479.956      -474.6094      -3447.858       2328.541       1430.615
      -4361.410       140.4224       2285.251       837.9893      -869.3472
      -3168.993       4682.724       2268.210      -7291.757       1398.616
       4607.294      -1578.130       766.0889      -1153.010      -3439.383
       2683.679       1805.691      -1594.118       1357.285      -295.4773
      -3192.831       2484.660       1985.618      -1729.981       333.2069
      -992.3318       1156.109       1279.117      -568.2910       4278.048
      -1032.521      -4643.479       544.4277      -957.2690       2021.923
       4313.321      -2348.298      -2181.797       1434.999       771.2024
      -768.3142      -722.4065       1440.183      -654.2622      -2434.347
       944.0303       3870.517       723.9954      -2806.299       1522.162
       3494.852      -933.5913      -2287.240       242.9904       774.8062
      -886.1423      -2610.986       3611.151       5698.230      -5701.256
      -2260.651       5376.567      -3587.192       1937.528       5778.354
      -7574.361      -266.8945       5694.833      -4746.149      -1060.568
       6242.052       961.2803      -4316.163       36.81836       3287.590
      -1391.597      -2283.309       2111.376       1180.268      -3802.982
      -229.3682       6985.986      -688.6924      -8620.768       1643.364
       8784.484      -2397.999      -5647.668       6064.509       2794.145
      -7050.318      -229.7217       5177.308      -641.4988      -1678.440
       1981.357      -142.0916      -1758.625       2071.999       2001.773
      -3862.442      -2525.329       2957.838       2278.056      -484.7367
      -1298.067       1229.546      -813.7696      -353.4006       1423.082
      -2670.885       1477.546       4992.402      -2176.878      -4577.537
       2371.411       2615.006      -6983.327      -5228.066       8664.529
       4654.666      -5987.767       65.96680       5227.774      -386.2505
      -2942.373      -563.9038       1828.736       964.0010      -1648.935
      -128.6301      -280.3301      -1251.748      -30.89246       506.4762
      -22.65955       328.4448      -1935.868      -1315.712       6601.509
       1638.808      -5272.656       1806.686       243.8906      -6233.979
       581.9199       6470.968       161.5293      -4198.673       1671.332
       2981.715      -3969.486      -1919.823       4533.421       1474.385
      -1902.824      -1273.093      -3242.178       1431.290       5199.035
      -4113.031      -2027.345       4888.585      -672.9238      -4554.836
      -1790.888       2683.166       1746.491      -1008.713       173.1323
       2615.202      -877.9971      -2902.031       254.3135      -1338.021
       167.1240       3141.334       183.1270      -2538.164       34.07788
       1946.894      -498.7769      -2314.734      -665.6812       458.0204
       328.3628      -943.5229      -833.9482       3034.524       3590.649
      -2840.569      -3541.650       2783.435       789.5498      -1574.306
      -1748.150       289.7207       4030.163      -1105.256      -4576.043
       530.8689       1246.636      -378.9072       2195.598       2011.204
      -2482.601      -3194.936       2686.134       1291.278      -3392.278
       625.4126       2497.850      -943.2108      -1337.579       1407.910
       929.0566      -4520.215      -3748.769       2169.742       873.0830
       1451.091       4655.138      -3592.146      -5406.579       4232.526
       4539.310       1459.393      -1387.386      -2810.148       587.1421
      -1192.564      -3942.679       959.3115       4759.746       757.4028
      -1937.222      -275.5938       2240.975       2167.372      -2753.806
      -2712.347       2483.623       59.54199      -5164.194      -1293.174
       5814.165       2430.995      -4838.150       223.3652       3371.113
      -1199.202      -128.2786      -51.43359      -2071.937      -22.19965
      -11.48242       1002.345       3360.116      -3534.099       684.9019
       1240.277      -10101.82       4834.775       8552.844      -10762.91
      -3468.656       10090.01      -246.4453      -7345.805       5851.267
       7406.628      -6371.908      -2362.923       3497.114      -2241.560
      -4762.663      -391.3779       5610.126       1064.850      -3235.559
       4529.804       2606.308      -7111.812      -4319.030       1393.990
      -1770.062      -1594.132       3217.771       945.3955       947.4015
       1001.306      -2851.848      -3312.335      -2061.019       2133.849
       5350.774      -2659.830      -4017.370       5156.467       1438.252
      -3940.042       1676.887       7137.251       515.9297      -9745.180
       96.36328       11654.67       427.9238      -12539.74      -6710.382
       2159.133      -8140.213      -13181.96      -3260.119      -4309.273
      -8548.150      -5833.750      -2803.010       395.1211       4332.367
       8156.535       11540.27       8336.178       4062.906       8231.943
       9590.189       927.2764      -7899.738       2614.254       12787.01
      -10602.20      -17586.59       7829.555       4729.270      -7262.076
      -5147.114      -4416.193       2068.883       78.08008       5120.205
       7454.101      -4416.045       5131.236       7835.721       4423.402
       7206.027      -8389.742      -9687.090       10385.52       8196.145
      -16172.45      -19473.58       10229.01       19180.27      -5355.514
      -6315.945      -3401.607      -9633.121       17994.61       26578.36
      -9437.578      -24455.79       2738.953       19644.22      -5586.717
      -20764.14       11837.72       12398.27      -34956.33      -12608.04
       31470.20       4497.398      -24532.10      -2452.238       22191.96
       7800.555      -12786.75      -8636.521       12096.55       8564.502
      -12903.04       1220.586       21401.07       4236.320      -12973.51
      -12247.72      -4005.715       16243.60       4654.139      -16019.24
       11592.33       11771.13      -15148.05       1795.400       9118.355
      -3719.393       11396.35       1207.973      -22736.70       1130.927
       6139.629      -17421.21      -5165.578       22507.63       11867.39
      -19806.20      -10250.10       10114.03       8926.860       5193.510
      -5183.150       5763.430       15597.04       199.5840      -259.8281
       6171.430      -15680.95      -19990.76       12316.09       6731.074
      -10421.91      -1231.229       3495.224       4327.970       2195.642
      -168.5508      -881.6230      -7988.403      -3384.685       4624.547
      -8841.671      -8694.439       10479.16       4748.623      -12409.01
      -8806.020       9611.965       15055.14      -4904.230      -7013.612
       11047.95      -1001.158      -11862.08       6635.914       15929.00
       4748.883      -10726.56      -14001.56       5637.275       13616.67
      -9984.564      -10702.16       10925.82       5165.778      -8159.830
      -2585.320       10520.74       9312.903      -7780.627      -9256.765
      -215.0420      -323.8193      -3470.614       395.2861       7273.579
      -16.57861      -6686.678       6808.083       3828.449      -10123.73
       662.6123       5829.021       538.0544      -276.6830      -1594.054
       1244.449       7279.122       3313.409      -4240.500      -2469.927
      -1008.788      -2806.603      -644.6191       378.6025      -5364.995
      -2351.947       7052.202       1689.720      -516.7617       5301.092
      -90.01562      -4720.542       264.3384       2993.389      -2486.967
      -2871.667      -2269.532      -3509.029       5778.312       9370.330
       1547.929      -4131.179       3548.662       4904.383      -7112.163
      -2329.821       4070.647      -683.5859      -8124.103      -7639.130
       3113.101       5208.609       1276.437       1290.132       630.8730
      -5487.262      -1138.227       7780.993       2198.411      -3745.962
       714.1313       3859.395       483.7534       1680.918       3754.655
      -4090.309      -4498.783       4109.555      -660.5566      -4525.866
      -1184.350      -4758.478      -2234.014       8026.670      -895.2988
      -10467.49       1321.914       2791.304      -4500.583       1027.412
       3720.105      -3443.430       538.4795       5267.050      -1010.097
      -87.03516       10475.98       3148.736      -12151.60       111.7759
       2456.603      -9321.326       2003.355       11820.76      -509.4927
      -5144.096       5296.680      -1958.133      -6070.000       10396.62
       3546.662      -14656.84      -4784.664       9284.486       1602.591
      -8647.217       717.4473       9259.781      -3839.493      -9528.537
       6778.571       5471.389      -6535.631       2678.954       2134.275
      -7016.692       2789.034       4542.146      -3596.313       1409.845
       2334.678      -2816.715      -2267.721      -2456.572      -3162.086
      -724.4014       933.9863       2619.678       2313.326      -2169.339
       950.0762       4006.259      -1920.051      -4442.438       2392.869
       4936.305       3229.308       5419.894      -2403.134      -3764.171
       4878.848      -151.1777      -3164.872      -2068.237      -1427.133
       2807.963      -1.262695      -3485.617       1765.117      -103.1035
      -6921.534       2247.760       3201.099      -5445.059       1175.574
       3909.113      -1910.155      -1757.283      -3601.678      -2878.170
       3093.993       4040.989      -47.79858      -2521.202       2943.493
       4198.091      -730.2708      -1047.236       576.8445       182.7378
      -654.7500      -3874.614      -2383.080       3292.329       3500.961
       568.0034      -3182.154      -48.69263       1808.167      -5181.903
      -857.6331       3466.844      -3397.405      -1044.948       3085.448
      -994.9873      -4605.291      -2328.251       3052.397      -721.9973
      -3104.607       2778.047      -471.1401      -3992.673       1947.078
       4049.779      -2679.153      -1655.703       2671.189      -2771.830
      -275.7126       2407.721      -2992.375      -2341.043       1416.600
       2625.262      -1922.271      -3966.451       1372.746       1316.705
      -1505.662       667.4727       4317.465       7133.926       2781.881
      -4530.909      -1091.337       3156.981      -1961.873      -5465.011
      -101.5063       3092.916      -5913.136      -5845.509       7269.581
       4304.646      -6923.218      -1683.754       6934.767       3729.310
      -1465.181      -801.0474       258.6721      -1199.080      -560.9209
       704.8406       1529.783       331.9009      -1287.775      -2970.672
      -3737.880       1683.622       169.6899      -3301.481       1777.285
      -226.8354      -696.2939       3695.278       922.2280      -470.8223
      -2002.932      -4500.791       2906.024       3677.690      -5467.832
       922.6797       5083.272      -4199.795      -2922.892       1430.896
      -2195.137      -1927.207       1472.607       2406.736      -439.3379
      -1699.705       377.1592      -2190.945      -3123.564       522.0994
