     0.02500000      -42104.49       64671.10      -12345.00      -12345.00
      -29.99000       224.3600      -25.24000      -12345.00      -12345.00
       0.000000       18.81000      -12345.00      -12345.00      -12345.00
      -12345.00      -12345.00      -12345.00      -12345.00      -12345.00
      -12345.00      -12345.00      -12345.00      -12345.00      -12345.00
      -12345.00      -12345.00      -12345.00      -12345.00      -12345.00
      -12345.00      -31.06740      -67.28460       921.0000       0.000000
      -31.59500      -68.73200       0.000000       105100.0       0.000000
      -12345.00      -12345.00      -12345.00      -12345.00      -12345.00
      -12345.00      -12345.00      -12345.00      -12345.00      -12345.00
       149.6579       67.36696       246.6180       1.345607      -12345.00
      -12345.00      0.5703057       90.00000       90.00000      -12345.00
      -12345.00      -12345.00      -12345.00      -12345.00      -12345.00
      -12345.00      -12345.00      -12345.00      -12345.00      -12345.00
      2008        13        10        50        52
       640         6    -12345    -12345     10175
    -12345    -12345    -12345    -12345    -12345
         1         7        13    -12345    -12345
    -12345    -12345    -12345    -12345    -12345
    -12345    -12345    -12345    -12345    -12345
    -12345    -12345    -12345    -12345    -12345
         1         1         1         1         1
CHUC    -12345          
        -12345  -12345  
-12345  -12345  -12345  
-12345  -12345  -12345  
-12345  -12345  -12345  
-12345  -12345  -12345  
-12345  -12345  BHE     
ZL      -12345  -12345  
[...]
      -60.30685      -10.29897      -10.17018      -1.825146       4.801750
      -33.14368       20.28811       33.75145      -11.58215       82.36992
       47.74693       60.24420       112.2020       65.30780       90.96155
       96.40411       67.68842       172.9400       109.0755       62.72943
       192.2829       211.6247       87.27686       161.9484       224.6356
       103.0098       133.1624       220.8784       120.7374       214.0950
       241.4440       136.0314       234.8231       215.0917       27.81323
      -184.4072      -902.6230      -1948.502      -4068.475      -3285.780
       1292.438      -598.7207       1109.053       10631.51       7088.178
      -5156.577      -6626.080       9733.056       12211.84      -11256.04
      -8730.513       11110.19      -4167.459      -13874.90       7709.568
       7949.213      -5070.331      -3070.275       5216.685       4079.050
      -8298.801      -2994.600       11026.61       1627.418      -9788.304
       4338.208       9947.447      -11417.45      -12102.72       19024.06
       13221.52      -21234.99      -3987.328       16085.97      -4816.130
      -8353.688       6528.416       5120.131      -8331.453      -8304.029
       8005.263       9997.240      -10801.78      -9923.674       11227.57
       2437.616      -6530.371       9867.529       13593.29      -4092.607
      -12826.21      -1679.584       2902.272      -840.3931       254.2275
       4046.845       1150.580      -8011.044      -1946.741       3435.000
      -5580.922       1921.583       5798.129      -8245.913       1874.319
       8149.272      -6126.189      -265.2744       6599.353      -158.6035
      -2063.028      -5687.059      -3895.297       11504.41       3938.526
      -8604.926       304.9517       118.6558      -3979.662       2071.128
       1856.663      -2208.094       4977.048       3441.076      -12394.40
      -6999.250       12458.01       3214.516      -8350.230       1599.849
       1515.022      -4847.798       1430.959       4394.094      -3424.211
       1627.702       5373.405      -1597.915      -5080.983      -2187.166
       6867.834       4446.326      -7475.071      -5515.033       5826.168
      -49.17773      -5571.036       5818.466      -2323.921      -3401.018
       8215.025      -6156.220      -2751.758       5171.654      -5802.338
       4542.133       7785.164      -9311.621      -6125.830       7122.630
       2652.218      -3521.987       891.5596       5463.263      -3891.530
      -6183.551       9787.240       4343.455      -8423.357      -506.3965
       4970.316      -3192.698      -5706.524       4138.621       4509.483
      -7028.509      -3708.039       11565.94       2212.816      -11661.88
       1290.102       7756.628      -550.0856       1830.961      -1200.685
      -8672.840       4076.187       6108.688      -2882.515       4279.283
       3781.709      -9382.039      -6015.203       10403.84       3397.562
      -10761.66       43.87109       10998.86      -358.9014      -8297.574
       2102.104       6155.547      -5599.362      -5385.379       7121.427
       926.0093      -5802.244       4594.506       3981.785      -7319.908
       106.2607       8355.916      -2231.297      -7874.795       256.8301
       8443.773       2996.241      -7594.610      -2113.141       8832.368
       678.2075      -4248.264       2236.250       487.3315      -3751.873
       365.1597       4300.102      -2563.052      -2341.416       3448.005
      -336.9456      -2099.034       954.7147      -743.0288       52.45898
       4642.411      -1042.324      -4140.863       2851.257      -44.12695
      -5962.604       2907.835       4253.578      -4571.807      -1639.651
       1325.401       648.8289       1411.501      -2616.323      -3072.903
       4173.854       4121.850      -4219.834      -1655.221       5017.311
       343.3965      -5596.736       543.6875       4789.880      -2098.746
      -3855.866       1247.818       4890.002      -1409.131      -7972.268
       1391.341       7030.413      -4940.240      -2787.412       9355.686
      -3713.961      -6389.405       5472.126       479.9287      -2618.401
      -2726.331       2059.668       5922.495      -5402.204      -4316.670
       6173.392       2609.774      -5957.731      -996.3574       4583.903
      -3203.720      -3671.130       1308.461       2257.729       2636.983
      -912.1953      -3371.822      -1786.719       1586.541       2894.675
      -2579.233      -4369.419       4554.871       3475.925      -5909.295
      -1488.390       3262.888       463.7051      -1487.941       347.0215
       3763.651      -2538.784      -2865.023       3373.376      -519.2368
      -4103.667       2246.188       4049.803      -7400.492      -4134.899
       7990.910       2340.182      -4019.669      -1478.082       620.8662
      -1014.613      -259.0681       1495.785      -2721.116      -2389.786
       4370.679       1119.514      -7064.249       2647.879       9326.147
      -5953.105      -6327.611       8678.408       2730.645      -11339.43
       307.8633       8642.031      -2984.887      -2567.928       3696.345
       1182.505      -2000.395      -1490.665       748.8687      -825.1736
      -2815.258       2511.306       4244.562      -2800.293      -4265.644
       1761.156       4828.077      -58.83496      -5601.237       1477.013
       5124.440      -5526.409      -2558.035       6212.802       283.2412
      -5366.805       2126.873       5728.823      -3644.722      -4272.759
       3861.086       1999.555      -5275.845       2046.060       6025.948
      -5000.759      -2014.624       3617.343      -2655.797      -3122.224
       5086.606       1938.373      -6117.923       1168.881       3863.639
      -1053.224      -1228.822       891.1722       35.73535      -886.1238
       3468.996      -3566.966      -4202.311       7144.304       3864.643
      -4928.663      -1611.410       6369.657       871.1982      -6176.087
      -2712.219       4115.083       5338.619      -1448.862      -2372.645
       2150.537       107.0959      -4398.882       4660.084       4706.418
      -9117.957       1293.343       9551.359      -4931.871      -8170.624
       4183.814       10028.28      -2146.381      -8145.756       5605.525
       5508.920      -8035.111      -3773.947       5362.614       1844.172
      -1532.923       1513.434       2546.162      -1585.273      -1840.756
       3731.299       3247.609      -2577.582      -3963.426       1379.689
       3165.817      -2749.268      -2414.970       3923.844       2631.788
      -2519.001      -1361.475       3097.114       1436.612      -1889.406
      -2083.089      -1932.805       2477.518       3509.123      -3842.055
       79.61133       7452.042      -1902.939      -3986.003       4549.412
       203.9307      -5895.912      -260.4365       4196.147      -1032.557
      -1927.010       4837.878       1929.990      -4751.491       730.3958
       2889.428      -2225.584      -1681.576       2223.559       2060.920
       45.39459      -247.0647      -103.2889      -34.67358      -861.5765
       293.1499      -1121.741      -17.01367       3116.385      -2590.083
      -2689.079       2610.669       3278.658       1007.328      -3643.858
      -2272.646       5365.315       1220.396      -3815.442       1171.326
       1452.719      -2388.937       1.686035       1750.907      -545.7363
      -488.8149      -4118.386       794.4258       5878.466      -3873.335
      -2927.516       5039.822       353.6299      -5035.588       127.1787
       3593.423       170.7510      -4488.917      -740.5439       4580.907
       958.4415       1365.979      -745.0273      -4001.049      -547.2715
      -1208.433       2873.277       1692.007      -6339.147       1396.681
       3676.764      -1609.635       114.4087      -1210.880      -343.0031
       1730.476      -1840.343      -2720.401       2849.315       837.3611
      -3027.222       2684.820       1417.435      -3245.167       1357.735
       1191.744      -3045.566      -532.0168       2095.536      -3051.843
      -2953.597       3570.939       1534.946      -287.2002      -1301.554
       350.0579       2512.624      -2426.265      -126.8447      -1137.599
      -2434.505       3210.684      -1101.932      -2110.883       1239.567
       638.6042       2078.100      -2367.756      -1472.868       3829.856
      -2934.817      -3216.279       3692.893      -2688.759      -4415.146
       6380.964       2103.033      -8104.250       239.8057       6510.090
      -499.3408      -3163.628      -620.1626       1999.093      -466.8433
      -1460.906       3709.649      -2848.573      -4569.808       6520.998
      -125.5615      -6800.030       3755.357       3543.059      -4063.284
      -1525.822       2507.033      -1151.444      -539.2356       1433.889
      -4160.088       346.5713       7321.822      -2931.968      -7875.112
       4195.088       4100.424      -5559.961      -2631.469       4166.158
       3858.933      -2257.408      -3906.503       3556.359       3787.148
      -5742.803      -213.7520       7363.563      -3701.929      -3753.168
       5446.558      -758.9468      -3706.598       2369.607       1230.001
      -2579.693      -1977.531       1102.130       3259.519      -1620.624
      -3321.591       5911.242       2248.113      -6309.876       192.3638
       2922.305      -670.2166      -1897.649       925.0085       1975.488
      -2740.153      -3669.358       2267.394       3548.975      -609.0767
      -182.2510      -723.9805      -2291.765      -446.4868      -443.8423
       2364.759       1168.352      -4957.877       1528.341       4514.871
      -4032.105      -959.9707       3590.473      -575.1356      -740.8120
       1399.452      -973.3008      -3070.288      -1746.746      -1053.230
       4542.602       2404.919      -4509.562       2528.508      -127.1855
      -4135.522       4725.345       2046.225      -5883.341      -1000.127
       5637.269      -2119.264      -5079.227       6017.513       2745.738
      -6921.264       10.46973       4871.239      -1228.316      -2217.394
       360.5570      -123.4493      -1415.250       992.3091       2296.864
      -1662.743      -1965.597       2762.286       506.8623      -1969.245
      -571.1880      -1720.808       691.2744       3202.221       2206.007
      -1225.845      -2661.963       1515.079      -285.1211      -2864.310
       3474.666       1843.822      -7116.128      -2192.343       5531.811
      -1028.814      -3865.583       2584.818       2901.075      -278.8984
       349.9126       1966.168       533.0000      -1570.732      -1536.886
       2709.631      -216.6738      -8600.381       262.1348       8806.365
       186.4692      -3416.734       47.41132      -296.4873       1561.500
       936.4507      -2150.090       1990.076       1005.706      -4548.248
      -596.7520       5363.241       1674.537      -4676.048      -3044.773
       2354.132       3206.731       41.74707       395.7992       672.8530
      -3103.114       914.2114       4962.339      -5424.275      -4044.857
       8914.848       720.7959      -7269.192       1539.627       2482.612
      -6175.497      -2255.929       6800.101       409.1841      -5206.325
       5268.629       7275.922      -2586.953      -780.5735       1903.933
      -4552.646      -2597.379       5308.674       491.6260      -5450.095
       3497.830       4277.627      -6624.945      -2106.199       6183.064
      -1684.726      -4501.659       1775.534      -1388.908      -1942.895
       3917.601       1137.854      -4537.272      -2310.007       1110.085
       757.9541      -253.6875      -2392.296      -1123.315       2467.696
       2461.757      -141.8340       3294.054       6404.933      -2752.500
      -4140.066       7472.264       7732.536      -4754.094       3612.250
       27129.60       21605.02      -15.45898      -1011.406       19356.96
       21829.62      -1305.585      -1865.488      -1251.820      -22988.56
      -19255.81      -319.2227      -3877.750      -19441.92      -17670.20
      -121.9766      -4299.891      -11523.54       22222.12       27773.98
      -28495.57      -38212.33       13183.64       26916.37      -6420.859
      -18137.90       7716.082       5946.445      -30131.41      -5137.012
       35181.36      -8469.238      -30455.88       21830.30       36498.29
      -12153.05      -27755.74       17721.88       13834.26      -19355.59
      -351.3711      -2766.863      -19258.62      -2880.539      -6554.199
       727.1758       19268.88      -5312.746       13164.31       31689.15
      -21884.32      -14971.66       38051.02       8187.117      -40525.94
      -483.1660       11431.44      -42104.49       12670.16       64671.10
      -10159.66      -28317.22       16781.24       9397.867      -15447.24
      -20115.79       16615.28       32308.15      -16065.09      -23052.13
       4044.426      -11806.39      -30825.29       15.39062       22351.14
      -1449.002      -8751.006       7086.352       12629.73       10426.06
       12247.06       3701.255      -7395.760      -967.0664      -15471.30
      -27558.04      -4106.764      -2915.953       11559.34       38084.95
      -8473.316      -33900.05       13273.04       16321.82      -21430.97
      -6433.641       30652.49       13597.59      -16252.54      -412.0322
       14346.92      -19693.96      -24319.28       29407.60       7487.453
      -36232.41       13079.49       33392.27      -12718.38      -24888.86
       11520.23       35035.77      -1351.688      -36192.32       4723.168
       31510.23      -16598.05      -31458.70       3164.562       13541.75
       15563.64      -4373.246      -14899.61       10703.39      -3278.361
      -12401.92       15990.22       14672.41      -16804.28      -14955.11
       15133.68       9000.740      -8216.852      -4757.522      -1141.992
      -1524.154      -10225.09      -4362.887       19335.43       13413.50
      -2153.868      -3167.555       2030.296       6266.016      -15281.79
      -16941.35       2603.186      -6977.535      -5744.766       9393.846
       7112.221      -2184.531      -6382.661       1530.623       9138.041
       11905.79       1238.594      -15912.24       4716.090       17299.23
      -11449.31      -7012.244       8615.537      -10928.52      -9254.188
       13560.88       10864.25      -9337.574      -12355.67       3044.254
       2491.834      -10139.88       106.5391       14422.09       4758.256
       3593.596       5857.625      -12325.21      -8730.241       5708.869
      -5767.166      -9847.246       6888.541       14556.39       1134.073
      -3460.310       4332.500       2064.379       2352.525      -3917.215
      -11203.91      -2261.160       3163.801       5205.534      -210.2656
      -7660.754       4193.207       9715.639      -6233.090      -534.0664
       17343.76      -1250.309      -17270.55      -143.3853       3183.885
      -1077.604       5533.416      -6331.744      -5407.859       16368.06
       7041.729      -14192.45      -5070.814       9149.424      -6138.861
      -12884.32       5571.247       3130.479      -8193.801      -644.3379
       8005.116       1385.588      -3791.058       3104.987      -2224.731
      -3174.834       5440.971       1107.274       1934.226       388.8857
       348.3491       4600.580      -5447.361      -2586.373       4800.741
       1864.289       920.0552      -3717.028       42.33008       4994.436
      -4784.301      -6976.351       5814.326       10779.38      -182.4355
      -3592.521       362.9082      -8724.266      -8033.746       8638.840
       1333.263      -6530.779       8852.080       6009.861      -6400.962
      -625.2576       471.0298      -2607.708       421.8115      -5644.784
       1403.859       9480.225      -2471.516      -1650.020       2075.017
       1598.489      -1295.921      -6050.119       2625.772      -2332.910
      -3793.191       10831.71      -1748.919      -9289.996       6185.188
       3213.724      -3409.427       5979.537       3458.769      -8926.668
       781.5122       4319.215      -13697.00      -3659.439       15876.47
       2712.366      -9791.178       1578.092       7645.306       411.5962
      -983.6924      -2968.035      -7221.593       2751.331       4795.940
      -6845.768       1654.332       13577.32      -6925.633      -18292.39
       11643.29       14192.09      -16496.48      -9855.582       15852.41
       7436.549      -13424.49      -5600.979       6265.433      -202.0791
      -1530.768      -1368.729      -6298.207      -348.2944       3194.289
      -1993.240       4208.113       7837.693      -4878.737      -5339.009
       2804.012      -5064.803      -7779.822       4549.891       7044.264
      -1596.124       600.1445       10718.08       285.8984      -12694.27
       1070.982       12323.46      -1220.684      -10096.97      -2182.803
       5028.372       8212.554      -2438.824      -10632.89      -296.2383
       9021.769       3681.421      -3605.438       4097.617       2404.191
      -7026.987      -2266.038      -2671.747      -4012.189       4598.648
       4175.069      -1599.222       2087.964       5073.639      -2562.904
      -1738.280       3467.042      -3300.141      -2728.851       5950.838
       2548.879      -3168.135      -2150.767      -3214.876       2319.052
       2907.441      -4784.835       5265.519       6397.691      -17794.51
      -11920.02       21698.81       14164.71      -13301.23      -1281.215
       9791.937      -8988.324      -2796.051       12452.97      -2779.016
      -4579.524       5474.201      -2564.220      -6483.674       3853.033
       7779.155      -6605.859      -7458.825       5984.316       3446.549
      -739.4814      -2517.383      -344.9219       4739.068      -725.7158
      -4218.245      -2666.003       1456.279       4137.075      -295.8480
      -1148.539       3524.653       2141.260      -6777.797      -4585.227
       6377.241       1623.678      -2294.023       2180.501      -2575.669
       686.5996       9249.814      -455.3018      -7943.935       510.9590
       3682.791       2761.781       2193.429      -2997.181      -681.2119
