     0.02500000      -42970.38       41465.48      -12345.00      -12345.00
      -29.99000       224.3600      -25.24000      -12345.00      -12345.00
       0.000000       18.81000      -12345.00      -12345.00      -12345.00
      -12345.00      -12345.00      -12345.00      -12345.00      -12345.00
      -12345.00      -12345.00      -12345.00      -12345.00      -12345.00
      -12345.00      -12345.00      -12345.00      -12345.00      -12345.00
      -12345.00      -31.06740      -67.28460       921.0000       0.000000
      -31.59500      -68.73200       0.000000       105100.0       0.000000
      -12345.00      -12345.00      -12345.00      -12345.00      -12345.00
      -12345.00      -12345.00      -12345.00      -12345.00      -12345.00
       149.6579       67.36696       246.6180       1.345607      -12345.00
      -12345.00      0.9382690       0.000000       90.00000      -12345.00
      -12345.00      -12345.00      -12345.00      -12345.00      -12345.00
      -12345.00      -12345.00      -12345.00      -12345.00      -12345.00
      2008        13        10        50        52
       640         6    -12345    -12345     10175
    -12345    -12345    -12345    -12345    -12345
         1         7        13    -12345    -12345
    -12345    -12345    -12345    -12345    -12345
    -12345    -12345    -12345    -12345    -12345
    -12345    -12345    -12345    -12345    -12345
         1         1         1         1         1
CHUC    -12345          
        -12345  -12345  
-12345  -12345  -12345  
-12345  -12345  -12345  
-12345  -12345  -12345  
-12345  -12345  -12345  
-12345  -12345  BHN     
ZL      -12345  -12345  
[...]
      -21.96162      -62.85002      -32.41534      -76.55900      -40.09005
       3.000168      -43.05811       15.33393      -27.90543      -28.70331
      -13.87685      -50.32674      -29.68309      -50.65862      -57.88514
       64.89586      -21.30157      -85.76612       25.00911       45.57948
      -41.20852      -70.71051       21.02737      -25.90226      -39.66635
       88.37505      -25.00144       5.487244       57.40160      -26.72875
      -22.18062       43.84853       6.504593       22.46503      -47.89990
      -222.6853      -643.0010      -1423.141      -2678.156      -2713.005
       617.1011       1315.248       2082.215       9583.352       2670.738
      -8457.567       2165.132       3708.824      -5164.904      -2568.851
       3143.239       1825.752      -8624.930       1033.465       10385.81
      -4949.621       669.3936       9097.857      -5758.092      -10204.60
      -1325.408       3924.989       4959.058      -3667.119      -6367.372
       6643.896       2003.305      -2890.972       8487.553      -640.5410
      -12486.41       6868.615       13789.57      -12843.26      -5040.522
       12119.22      -8824.904      -6037.065       8297.343       465.8506
      -3719.655      -1904.332      -2914.524       3127.258       6411.729
      -3249.969      -2029.180       3467.513       4649.764       3430.521
      -6988.365      -8975.672       557.1309       3958.928       1532.869
       1800.902       6195.242      -939.6992      -9199.037      -16.28027
      -1023.024      -4073.417       3989.949      -142.5200      -1705.665
       3313.922       861.3774       2006.122       2664.129      -4113.314
      -9002.434       2093.564       9570.049      -1162.956      -3628.030
       1090.715       7056.821      -114.2754      -9911.498       1561.812
      -229.2578      -4199.861       6693.103      -343.7089      -1894.760
       3306.615      -10043.17       177.9902       12013.36      -4767.720
      -2515.068       6081.739      -6218.563      -5632.359       9261.270
       3149.865      -7067.718      -3137.297       6073.899       4337.670
      -6771.516       3391.226       5698.579      -9111.622      -1452.596
       5039.700      -3310.759      -313.5312       5618.108       1782.329
      -5153.040      -229.3578       4727.742      -9501.977      -8695.242
       12779.04       8652.500      -9501.033      -98.92920       5984.531
      -6934.393      -2520.028       4724.549       1924.725       207.3770
      -2430.780       1716.244       4108.108      -1542.909       1984.604
       542.7969      -9513.907       1539.827       7767.190      -3837.001
      -535.7197      -1554.055      -7337.341       7431.047       6871.172
      -5043.178      -1621.784      -926.7065       3163.091       1424.521
      -4078.926       1627.904      -1119.388      -112.3682       5355.502
       1680.631      -2405.153      -3474.518       2572.105       1090.614
      -5466.021       2457.698       5932.666      -4868.095      -1758.442
       3366.335      -4809.849       447.2734       2971.600      -3866.260
      -1814.006       3940.075       3975.529      -4912.346      -3448.823
       5087.866       3247.086      -1259.878      -1866.232       1433.951
      -470.1885      -1317.718       1952.727       280.2593      -1853.417
      -1945.194       4941.285       1820.126      -6319.878       1328.484
       4192.825      -1983.090      -2485.020      -280.8314      -344.6978
       1523.810       1446.702      -3034.784       1670.621       5509.355
      -577.8853      -1335.146      -1246.665      -1497.978       811.9883
       632.3276       1590.603      -581.4893      -3931.333       2771.970
       1836.644      -7496.908       1878.188       6343.668      -2781.056
      -796.7236       2699.167       83.93262      -3406.006      -343.6504
       3985.227      -1452.710      -5297.649       4267.177       4358.343
      -2931.792       2835.632      -1156.156      -3782.783       4180.157
      -2531.079      -2939.676       4420.318       1750.560      -2578.431
      -3533.956       3037.275       2112.487      -5248.470       584.0420
       6134.631      -368.6523      -1267.115      -1750.641      -1107.032
       2682.859      -633.6963       4396.627       2560.838      -9767.142
      -1449.199       6261.201      -2908.767      -903.8450       3627.378
      -3752.960      -3729.422       7983.044       3754.673      -9183.672
      -581.6777       6914.382      -381.0801      -4244.644      -783.6807
       2101.124      -2063.510      -822.6670       6325.535       107.7324
      -7783.596      -870.3662       5088.289      -422.1445      -3882.484
       417.9092       4093.492      -1114.551      -4297.189       3587.532
       1470.895      -3520.912       736.2913       1610.900      -969.2571
      -3259.897       2599.215       471.0840      -4895.578       4065.258
       962.6406      -3251.837       676.1069      -997.4619       3094.696
       528.3643      -6398.956       1203.543       4824.780      -3711.321
      -2428.080       4340.803       1847.317      -41.46143      -1749.794
      -1788.819      -150.3352      -1032.418       1131.034      -2345.537
      -2699.831       7633.227       2237.014      -9320.595      -565.0410
       6275.611      -696.4941      -2386.064      -206.2666      -1221.037
       611.0063       505.4609      -819.5481      -921.0286      -1897.385
       3780.352       3490.945      -3847.030      -1448.518       1931.066
      -2535.658      -677.3281       3065.901      -1783.467      -38.16235
       1185.538      -2189.139       333.3267      -390.0391      -2149.803
       1527.997       828.2114      -2496.700       445.3545       3059.264
      -857.1646      -3409.287       96.22510       3188.701       807.7188
      -3830.899      -1594.416       3126.722       2676.452      -1001.591
      -4135.426       1380.664       1597.985      -3229.987       208.1914
       1818.483       861.3457      -1834.129       406.8545       3811.718
      -2676.474      -2935.120       1607.996      -2411.261       228.5957
       5915.241      -387.6118      -3515.983      -669.7054       787.1809
      -643.8770       612.5520       2822.379      -2408.359      -1384.389
       1581.312      -1976.837      -1670.440       401.9375       3536.206
       1679.235      -3756.657       194.2837       1744.025      -2174.976
      -382.1113       3640.706       921.7441      -5502.400      -966.9668
       3242.690       39.54639       1732.027      -740.1807      -3622.279
       2528.279       1475.209      -2285.462       3353.867       625.5244
      -5004.953       1083.980       778.1620      -932.1230       3310.942
      -430.6348      -2687.727      -161.1323       1772.586       3693.743
      -848.0371      -3105.319       1121.177      -1193.143      -4011.996
       5056.943       6037.981      -4063.771      -3440.905       2556.395
       1551.177      -2645.149      -814.1636       1178.204       241.1699
       1604.525       1095.754      -1027.885      -1650.460       1247.405
       1226.174      -2397.099       858.6609       2043.025      -549.4906
      -947.4731       174.5996       4469.347       72.53320      -7169.073
      -106.9961       8009.124       163.4512      -8121.698      -728.2324
       4675.498       2519.970       868.1270      -2978.939       445.9753
       3345.130      -2837.491      -1630.180       1605.267      -1795.443
       1236.657       3239.667      -915.5615      -1189.893      -1692.653
      -406.3145       3265.004       745.8164      -3232.146       2819.380
       4335.046      -3618.497      -2090.628      -133.4309       1130.387
       1817.289      -2365.478       1064.727       393.5962      -2592.849
       2342.491       2749.683      -21.31885      -1124.574      -547.2495
       645.6638      -151.6118      -1948.756       1.122559       887.2466
       1384.317       2420.048      -2098.044       48.07422       2432.123
      -1303.331      -3182.737      -1460.200       4483.938      -352.8354
      -4275.979       3221.654      -308.0569      -892.4995       3584.568
      -3170.454       1428.776       2929.492      -6497.988       1267.951
       8173.580      -1725.425      -7616.330       462.5508       9154.002
      -2555.562      -10896.35       5645.081       4719.366      -8465.010
       966.6895       6880.521      -3897.278      -5406.608       4665.782
       3050.094      -2507.890       39.55060      -483.6392       742.7803
       2521.472      -2237.158      -3034.341       1126.758       3127.887
       744.7061      -3179.239      -3485.777       2300.291       3698.002
      -4398.895      -2322.736       4007.837      -1012.570      -3542.191
       888.1484       3428.296      -1259.782      -3553.574       3709.174
       2228.894      -5091.206      -972.9856       1550.233      -1154.505
      -593.5253       965.2881      -1079.373      -3014.114       2966.588
       4454.689      -4441.843      -1196.896       5592.343      -1472.365
      -4185.485       1310.155       1785.974      -1433.044      -1454.282
       1237.336       76.74902      -285.3047       2630.580      -2019.354
      -5038.846       3476.923       5878.932      -1985.925      -4086.566
       1234.547       3094.486      -799.2983      -2834.392      -1545.245
       70.68066       3388.691       2376.583      -1795.590      -27.73950
       356.8022      -4105.537       2266.831       6553.101      -3799.886
      -3841.258       3153.927      -373.9775      -4173.973       1762.560
       3065.931      -1790.763       1899.060       1615.678      -4228.314
       1068.733       4800.643      -2981.083      -2889.374       1344.406
       2066.350       2388.556      -1124.720      -1103.674      -317.9111
       728.2808       3048.635      -1741.817      -926.4172       2773.637
      -841.2988      -1359.261       1107.860       1807.774      -111.1064
      -1806.822      -96.99023       2079.817      -392.8860      -1119.153
       3492.346       24.81055      -3055.612      -420.8525       1717.700
       1951.169      -1344.154      -1644.553       503.1479       1309.349
      -862.5389      -919.5107       3825.616       935.8994      -1899.801
       1474.883      -878.7882      -392.4844      -118.4316      -5189.127
       1948.197       5659.719      -1554.676      -1195.170      -111.1562
       136.1548       3653.225      -751.2559      -5468.684       1935.119
       5417.064      -1716.405      -1710.321       1649.617      -248.0181
      -1445.120       1035.717       5451.584      -1405.345      -8153.925
       1973.286       3898.244      -4627.357      -716.0146       5409.775
       2040.834      -3303.351      -1570.447       1089.876      -425.0464
       1133.042       296.2007      -1290.886      -2986.474      -1074.139
       4679.308       2541.019      -2630.718      -658.2667       848.8081
      -2468.083       2553.561       4441.371      -5649.010      -1827.106
       3299.408      -3538.374       369.0264       3172.455      -1031.213
      -808.9375      -3532.480      -644.5698       3752.498      -3271.670
      -95.54248       5411.901      -3678.872      -3411.213       3622.691
       6121.426      -918.8447      -9195.104       2050.441       3737.881
      -6655.124       570.6450       3871.909      -856.0150       272.0376
       124.7676      -1614.181      -2174.024       306.5665       821.7188
      -3471.832      -1607.000       4046.278       219.5176      -2643.715
       760.3187       252.1167      -214.9824      -4410.515      -1301.204
       8835.711      -652.9941      -10111.04       451.1328       5886.620
      -1566.258      -2742.200       2652.366       997.9980      -7911.057
      -7287.763       2312.037      -736.9697      -7706.686       1515.850
       11100.52       1344.735       35.93945       9476.688       7596.984
       16010.17       11845.25      -19358.48      -13085.93       14540.41
       5436.734      -8656.199       2379.105       13243.07       11565.64
      -17886.61      -38190.15       5157.914       28808.50      -9349.344
      -17016.75       12769.19       13088.99      -11809.83      -16426.27
       7182.096       16050.91      -2864.957      -13989.11       8677.516
       31289.88       812.9375      -37719.45      -23765.58      -3572.691
      -12806.88      -8923.227       21963.33       27944.14      -18439.57
      -22034.10       19771.56       3821.248      -15347.22       1816.123
       7596.924       6026.222       52.79590      -8830.422       3460.648
       10896.47      -4285.547       18337.51       41465.48      -3151.891
      -42970.38      -24667.57       10797.87       9448.293      -19584.09
      -14708.06       13641.38       24389.60       22270.20       4747.053
      -11632.27      -233.1533       1283.020      -15733.88      -14687.62
       5498.438       18263.26       6928.988       11073.05       8458.719
      -15822.36      -6761.211      -9224.258      -17702.64       11286.71
       16985.75      -17330.59      -40239.82      -13146.21       29497.12
       15158.41      -17266.75       5319.938       31792.73      -270.4414
      -19936.56       6835.375       8708.090      -5978.709      -7780.052
      -9682.652       4443.521       7638.707      -6213.750       7917.007
       7156.531      -15696.24       514.2812       28929.85       10331.07
      -19203.12      -1448.219       17052.64       9119.512      -8331.004
      -18129.35       7624.753       14599.66      -15472.19      -6001.885
       14738.03      -7899.525      -17828.35       4820.581       5881.207
      -10075.45       1466.624       10207.69      -10019.35      -10835.67
       9155.807       14823.23       849.5703      -8174.326       2791.555
       3534.491      -5195.396      -7936.367      -7536.361       5178.648
       10623.11      -5390.537      -8162.646       4950.386       1297.380
      -4113.236       4619.582       12916.29       8486.709      -3611.186
      -1487.051       11592.96      -1620.824      -18815.50       4644.008
       10807.49      -16309.36      -13594.66       14486.88       13268.99
      -16550.57      -9086.246       21635.95       9721.664      -12502.78
      -7435.767      -1236.658       4473.549      -58.42188      -8445.111
      -435.2871      -2190.699      -9726.758      -3186.762       9194.919
       8304.949      -9224.932      -9554.365       9111.434       8266.176
      -3146.613      -5091.604      -3408.915       5160.848       3619.649
      -8349.474       3557.527       9026.173      -9644.606      -1483.018
       12391.86       3475.157       65.92188      -2430.041      -5280.026
      -523.4126      -1387.103      -1076.762       2575.638       1442.177
      -319.9800       1943.860       1250.117      -3780.006      -6372.296
      -4195.293       7169.279       12505.37       4133.330       1488.257
       1648.519      -983.2881       1327.115      -4632.377      -11241.87
       2993.342       12061.21       2129.125      -8516.418      -10156.85
      -7560.732      -3245.365       5390.545       9729.926       1587.629
      -6948.083      -2631.703       4603.889       6376.757       1117.889
      -7535.461      -5015.104       6680.522       784.7100      -9270.958
       2692.891       8833.055       3792.309       556.4614      -2403.585
       2083.309       1410.732      -4244.061       1911.672      -1083.756
      -8299.920      -3216.180      -2358.412       2401.242       4330.470
      -3506.709       3056.242       6937.095      -1716.151      -1022.885
       3365.936       3160.562       4020.100      -59.51562      -6815.391
      -3290.212       5700.847       3679.508      -2390.980       1337.447
       3215.443      -3903.646      -4032.073       257.6675      -251.8066
       5154.275       9902.059       1891.589      -4734.879      -3277.058
      -3155.703       204.4727       7559.655       3029.488      -8210.094
      -3276.351       1843.319      -5453.827      -767.4434       4042.935
       2290.348       6043.136      -546.2041      -3395.047       6554.633
       2779.973      -8668.864      -6472.582       5172.401       2138.979
      -7302.158      -2136.565      -390.8433      -2777.444       537.4912
       1159.531       4557.508       5245.237       1507.872      -4483.384
      -5169.592       9729.850       4770.508      -9816.757      -1005.811
       7469.068      -2847.156      -15047.26      -2419.260       9517.726
       2602.496      -2795.871      -2557.974      -469.4795       3517.193
       6567.475      -3068.433      -4769.523       8207.216       1621.460
      -7176.838       2518.341       141.6777      -9354.217       516.6257
       3564.447      -7851.795      -6652.514       8773.426       11645.22
      -1358.276      -1415.411       748.4795       3426.034       4868.301
      -10390.46      -7505.865       7531.281      -3520.060      -10635.88
       8665.725       3829.840      -11452.63       8544.301       9557.699
      -10686.12      -703.2461       11562.17       1577.117      -11142.54
      -6245.747       6293.690      -2669.363      -5071.344       10445.46
       898.6060      -6960.199       5492.547       3827.671      -4363.921
      -3366.166       1382.988       3898.895      -1416.646      -2238.173
       4070.471       102.9722      -376.1045       4161.193      -3254.093
      -3641.779       4493.295       3147.723      -1961.090      -2485.981
       2654.292       3942.227      -1306.731       3785.790       4834.910
      -9287.104      -8583.113       268.4814      -3845.610      -2651.935
       4232.579       4701.041      -978.4561      -5995.769      -1895.937
       3420.893      -1769.320      -5430.443       4987.298       6192.600
      -3958.601      -949.4062       7208.989       4896.098      -3437.672
      -4458.525      -1635.127       194.5117       6119.440       2331.517
      -6824.525      -4529.046       235.5215       5194.125       5231.780
      -4041.621      -4661.555       2971.015      -1088.287      -5439.392
       3298.770       7480.368       377.8779      -3856.244      -1544.014
