     0.02500000      -12424.10       12377.34      -12345.00      -12345.00
      -30.00501       225.7450      -26.78000      -12345.00      -12345.00
       0.000000       20.36000      -12345.00      -12345.00      -12345.00
      -12345.00      -12345.00      -12345.00      -12345.00      -12345.00
      -12345.00      -12345.00      -12345.00      -12345.00      -12345.00
      -12345.00      -12345.00      -12345.00      -12345.00      -12345.00
      -12345.00      -30.14410      -68.57390       1095.000       0.000000
      -31.59500      -68.73200       0.000000       105100.0       0.000000
      -12345.00      -12345.00      -12345.00      -12345.00      -12345.00
      -12345.00      -12345.00      -12345.00      -12345.00      -12345.00
       161.5667       5.410390       185.3297       1.452642      -12345.00
      -12345.00      0.2573928       90.00000       90.00000      -12345.00
      -12345.00      -12345.00      -12345.00      -12345.00      -12345.00
      -12345.00      -12345.00      -12345.00      -12345.00      -12345.00
      2008        13        10        50        54
       180         6    -12345    -12345     10231
    -12345    -12345    -12345    -12345    -12345
         1         7        13    -12345    -12345
    -12345    -12345    -12345    -12345    -12345
    -12345    -12345    -12345    -12345    -12345
    -12345    -12345    -12345    -12345    -12345
         1         1         1         1         1
CIGA    -12345          
        -12345  -12345  
-12345  -12345  -12345  
-12345  -12345  -12345  
-12345  -12345  -12345  
-12345  -12345  -12345  
-12345  -12345  BHE     
ZL      -12345  -12345  
[...]
       26.60889       539.5356       1175.127       1174.865       1048.322
       819.9355       173.3985      -231.0417      -486.6542      -21.18628
       618.5586      -261.6147      -1585.152      -1501.181      -995.3932
      -693.0420       1106.660       1307.155      -869.6123      -532.2544
       323.3710       525.9530       564.8845      -163.8926       1624.606
       2051.457      -1865.751      -3566.768      -2964.366      -1800.837
       1127.294       2579.980       790.3054      -175.4722       1593.485
       1705.198       341.5991      -559.9539      -1592.990      -275.6024
       559.5625      -1735.563      -1904.113       70.79443       681.9275
       703.7545       268.3774      -997.5138      -226.7373       820.1562
      -456.4839      -739.1543      -489.1978      -387.7576      -550.6865
      -2539.344      -3312.894      -1768.726       347.1519       1996.431
       1736.791       805.5474       550.3798       341.3376      -103.6729
      -326.2053      -50.91284      -511.3691      -1309.346      -1622.981
      -1005.617       412.4114       508.1763      -359.0896      -82.88428
       1013.357       346.1189      -1171.947      -933.2440      -303.3293
       315.9834      -732.1406      -2282.734      -282.4285       1266.469
       368.5537       450.1737       390.0818       155.4252       660.3650
      -419.0842      -1308.811       829.5764       1788.181      -578.6255
      -1974.959      -1765.929      -588.3547       509.2556       185.9277
       1219.209       1976.022       1427.652       778.5693      -1119.961
      -1981.493      -661.0876       615.9089       1315.413       681.7549
      -1042.978      -1327.126      -216.4770       119.0463       37.32819
       485.4041      -9.952637      -1177.677      -1786.453      -1595.155
      -316.1032       343.2483      -170.3113      -836.4792      -1016.371
      -198.6885       653.6169       366.7334       388.0596       1030.786
       524.9349      -97.88928       402.8306       63.52393      -1289.270
      -1588.570      -433.6992       878.3325       1412.856       950.8918
      -180.7234      -862.8760      -465.0058      -145.1081      -1.190521
       160.2372      -425.5347      -469.1561      -401.3918      -1109.106
      -244.4729       915.5588       924.7647       528.9196      -118.1426
       1105.482       1688.621      -1348.712      -2607.464      -1625.023
      -1334.769       414.5684       2150.226       1085.084       24.01701
      -48.40698       137.0479       915.1577       974.3667       428.0014
       235.6642       198.1173       508.1739       299.6780      -393.7098
       19.34521       786.8655       1311.515       1185.509      -382.3325
      -905.1411       243.2432       770.9744       208.4431       626.4363
       1412.015       622.8345       129.9991       119.0054      -887.0576
      -1029.881      -303.7227      -237.0316       415.6771       626.8285
      -242.1514       343.2334       1165.086       778.9662       565.2686
       683.1986       641.4407       124.3184      -926.9064      -910.3231
      -29.31323       313.6240       1106.074       2922.218       3053.275
       877.1060      -1020.475      -1410.341      -499.3833       840.0408
       834.9865      -35.50006       166.6631       194.2038      -291.2568
       216.0815       986.0859       1343.513       1496.230       1306.070
       808.1726       772.5564       874.7697       27.06079      -963.9500
      -574.3496       161.4317       241.5195       43.63354       565.4258
       1143.465       798.7114       842.4309       843.0984       438.5925
       583.6135       347.4172      -1141.430      -1781.574      -717.4532
      -382.6328       312.4834       868.6736       568.8315       693.6809
      -376.6086      -1011.323      -250.2661       269.1040       1031.888
       955.3235       68.44824      -538.2727      -702.2158      -672.6096
      -411.7206       442.0596       1119.066       1285.992       738.7881
      -635.7539      -1755.187      -1809.596      -788.9674      -210.4205
      -148.6409       453.9930       417.1239      -331.4446      -291.0610
       383.8035       1311.951       1233.122      -82.42993      -956.6055
      -1221.893      -1169.380      -543.5859      -52.93347      -339.1934
      -756.1987      -511.4027      -182.4561      -156.4752       12.17651
       537.0048       673.4716      -70.81592      -959.3428      -325.4536
       709.4343       56.36548      -677.8724      -421.1372       22.56787
      -394.3582      -1051.079      -323.5035       29.72632      -309.7302
      -527.3311      -973.0134      -932.4045      -572.5391      -428.0712
      -467.9282      -818.7089      -735.5939       241.3813       1191.466
       429.8606      -695.8030      -457.3613      -58.57300       171.8065
       229.9695      -95.60455      -69.25293      -610.7031      -1474.359
      -897.9407      -438.7910      -1070.455      -897.6000      -172.2227
       656.6396       1634.506       2082.995       1610.742       390.4438
      -470.9528      -272.3344      -52.14539      -36.12378       741.1475
       1734.419       1086.634      -137.8011      -347.5154      -200.6506
       304.4602       812.9423       229.3259       154.8850       912.9942
       189.3782      -1158.333      -651.8308       763.5752       657.1421
      -580.2256      -489.2515       625.7891       1424.462       1143.560
       299.8091       208.3047      -653.1543      -1783.824      -759.2992
      -129.8950      -129.4312       1017.171       1049.673       98.70740
       304.7788       720.8995       471.9060      -522.5073      -1354.651
      -1133.436      -742.3708      -913.1965      -407.4639       1184.133
       2092.250       1463.462       590.1849       147.9011       134.5662
       236.6364      -143.7449      -923.4309      -768.8535       411.3540
       977.0380       419.5198      -575.2290      -972.1470      -639.9197
      -1037.059      -1554.510      -1368.290      -582.3767       534.1792
       888.7991       588.6001       625.1558       741.1187       1242.201
       1376.276       27.31372      -963.6545      -1271.027      -1412.109
      -459.0944       197.2268      -68.56006      -892.3044      -1430.161
      -1188.768      -473.4705       25.33179       306.8079       1017.619
       993.8047      -85.55493      -774.3560      -962.2781      -1069.812
      -1157.533      -1249.904      -417.3213       1250.676       1888.289
       1578.872       203.0125      -1023.727      -756.5151      -707.9526
      -1805.854      -2120.335      -1690.300      -2409.088      -2518.048
      -366.3625       1083.692       456.7158      -714.0405      -1466.559
      -967.4919       347.1162       653.0651       198.6375      -563.6003
      -705.0679       717.2129       1301.184       13.55957      -1279.351
      -2046.695      -1793.974      -1015.670      -589.5267      -552.8132
      -124.4045       563.7427      -176.5552      -878.2874       234.0576
       1044.613       849.5136       196.5500      -107.8972       53.28906
      -807.0938      -2035.109      -956.1890       1150.858       1257.651
      -370.1597      -2067.471      -2013.855      -292.0208       461.4224
       858.2437       1333.189      -20.47900      -1761.842      -2261.231
      -1749.987      -424.0969      -228.6106      -902.5621      -488.4038
       689.5647       872.8938      -169.5933      -844.9720      -328.6863
       1000.819       1604.719       290.1409      -634.2823      -296.6582
       441.7725       1421.914       1584.405       919.5206       114.3568
      -367.3499      -343.9536      -647.2844      -116.9399       1056.939
       1085.179       585.0110       180.1428       316.5181       950.6895
       702.8267       877.2183       1574.728       1505.254       1002.850
       290.0558       104.0264       425.1694       444.3901       591.7140
       762.3259      -195.9473      -1613.077      -995.7136       389.2812
       1249.757       2096.447       2338.176       1888.758       1351.941
       1224.519       1229.573       626.4861       13.47931       131.1234
       442.0880       90.99944       7.737061      -141.4258      -917.4473
      -343.6748       1432.813       2112.255       1239.876      -213.3093
      -489.1125       255.6932       631.0420       747.7795       770.5271
       802.5168       997.9106       657.1479       61.98657      -297.4576
      -108.4388       234.2983      -92.82837      -882.0930      -1225.513
      -289.0557       1232.304       1686.164       1411.451       847.5228
       216.6143      -154.4790       336.0042       1259.619       1193.540
       363.1843      -421.7690      -455.6432       203.9753       603.2295
       828.5837       553.7084      -1.921570      -107.7083      -243.5765
      -507.1331      -608.5833      -677.7029       83.89941       1580.871
       1898.349       673.0476       93.92065      -227.8119      -629.5907
      -222.1896       198.4454       487.9270      -181.1533      -1312.998
      -1442.034      -1284.537      -765.6769       45.81250       753.0389
       856.1519       137.2531      -139.7980       696.3068       653.6353
      -801.5571      -1319.490      -505.8574       410.5211       835.9968
       44.02185      -776.2032      -484.1740      -116.0919       46.26053
      -11.67651      -345.9302      -595.0894      -858.3584      -957.7126
      -1127.445      -1307.328      -1124.274      -272.0098       626.7372
       707.1133       501.2771       678.1157       526.2362       147.0420
       576.6484       1191.276       1006.143      -51.07275      -1269.510
      -982.9338      -174.4592      -817.2681      -1665.382      -660.8378
       481.6106       336.2339       903.3340       1336.839       331.3641
      -303.3391      -380.4849      -22.57501       271.7632       180.7101
       335.0872      -61.62634      -656.5858      -534.9280      -483.2112
      -589.3224      -155.2749       920.1558       1596.484       1412.854
       838.8103       1044.822       1485.565       801.6134       239.2714
       119.4522      -224.5837      -560.7192      -963.0396      -657.0200
      -285.1504      -966.6904      -1654.906      -1114.545       235.0674
       792.6116       528.1658       168.1952      -261.5353      -399.5959
      -105.4289       62.47144      -543.6289      -1770.599      -1993.460
      -587.1528       342.1519       534.3784       793.5532       690.2761
       510.6499       728.6367       1473.533       1787.769       1038.222
       870.7469       964.5381       55.89795      -690.4756      -754.0212
      -947.4771      -1005.211      -237.1157       417.6917       114.9919
      -514.0798      -1257.777      -881.5811       449.4070       1226.903
       1120.588       496.5605       667.5599       530.1318      -569.3774
      -1304.439      -1166.981      -122.5626      -119.4800      -878.6318
      -326.2874       189.1972      -188.1993      -62.06128       536.5405
       1107.431       1530.273       1771.121       1935.269       962.5669
      -543.7496      -523.9187       127.2018       156.6799       496.4683
       741.8425       190.4448      -591.5698      -1725.706      -1713.041
      -419.0510      -453.5896      -788.2897      -82.05444       381.2419
       130.6545      -873.0615      -2269.996      -2540.556      -1097.113
      -853.1768      -3536.727      -5991.275      -5569.715      -4221.667
      -3652.622      -2874.548      -2283.197      -2320.059      -1677.008
      -784.4023      -1299.803      -1167.265       951.1846       1742.141
       1912.387       3872.452       4891.447       3332.837       1476.176
       912.7617       1531.478       2570.584       1651.967      -1428.933
      -3323.021      -3593.969      -4523.993      -5309.444      -3924.704
      -1462.430       1189.072       3731.928       4616.666       2109.481
      -2058.198      -3547.522      -1477.146       2881.616       5621.759
       3646.338       42.69141      -2653.063      -3265.772       425.1729
       5251.313       5681.374       610.6543      -7523.268      -10370.05
      -4676.111       875.5559      -53.62402      -2409.610      -748.4341
      -176.9315      -945.1738       2059.439       6024.370       5670.715
      -1022.119      -6806.376      -2948.427       2703.807       1032.592
       122.5107       4514.062       5222.112      -212.8418      -5193.792
      -5553.568      -1170.752       4323.671       5466.111       1534.023
      -3304.660      -6744.410      -7525.670      -3494.133       5728.676
       12377.34       8928.633       348.5547      -5893.668      -8116.444
      -3688.281       4874.616       2176.244      -9833.014      -12424.10
      -4178.795       6333.078       10712.60       6659.135       4614.189
       3035.596      -5396.015      -7735.144      -158.8145       6144.321
       7073.476       1167.360      -5709.998      -3814.127       2415.404
       4930.777       4499.695       3327.884       1957.824       1018.741
       33.89941      -3199.528      -5348.189      -2255.677      -184.0381
      -2380.669      -2233.352       2129.233       4397.590       4625.572
       5881.734       3181.525       78.66211       3446.499       4468.068
      -239.0780      -823.2866       1933.896       2011.501      -482.3799
      -3700.732      -3314.370       1027.459       6261.002       7950.578
       2712.191      -5024.797      -7339.717      -4112.542      -1386.512
       382.9092       1910.121       752.2861      -1192.768      -14.02441
       2917.924       4362.812       4375.182       1925.681      -948.5898
       1255.645       4235.373       1009.883      -5365.277      -6996.167
      -2094.233       1404.428      -982.3242      -5458.812      -7213.441
      -4622.838      -2309.783      -3155.334      -3194.910      -1532.303
       1028.881       4968.564       7997.699       8295.954       5681.479
       3074.338       4372.263       4598.985       184.8418      -2425.548
      -417.3574       2216.621       2399.220       27.08105      -1529.804
      -1537.938      -1856.118      -1534.062      -2033.484      -3046.735
      -164.3613       4425.270       7064.977       7146.237       3670.520
      -345.6628      -875.9026       323.1022       620.1945      -197.3462
      -1345.834      -2319.329      -1947.476      -1812.898      -1992.443
       463.4307       812.7930      -2845.033      -3813.809      -52.92822
       3435.557       1163.729      -3987.417      -3998.378       887.3301
       4257.466       4418.366       2976.989       2285.224       2316.227
       2470.833       1725.262      -1530.781      -3503.308      -3392.255
      -2821.157       1220.099       4579.065       1890.418      -1126.656
      -453.7949      -886.1699      -3612.835      -3524.226      -565.4639
       1887.037       1958.754      -2495.545      -7286.525      -6882.261
      -2401.897      -438.2217      -3743.206      -5425.116      -3018.242
      -573.3611       913.1069       1870.050       3392.932       6346.386
       6757.135       2131.165      -1473.405      -1508.328      -1747.223
      -4708.033      -6934.408      -4781.713      -2738.095      -2530.000
      -1500.830      -1370.570      -2512.318      -193.6240       5194.113
       3917.733      -2491.496      -3405.011       311.7070       4743.342
       7084.582       5446.126       3340.766       1977.028       1159.366
      -113.4023      -2515.861      -3152.660      -436.4502       3543.988
       4220.218      -65.14062      -4570.086      -5841.167      -2881.942
       2088.682       3201.848      -434.0547      -5125.283      -7283.728
      -4391.313      -73.70068      -787.1592      -3014.523      -681.5239
       1105.507       305.9719       547.9131       1792.113       3181.007
       2834.176       774.7733      -491.6943      -156.6523       3328.549
       7544.338       7828.505       4370.644      -271.1191      -2825.417
      -3383.516      -4670.775      -5929.406      -5965.946      -5176.820
      -3935.833      -1392.620       1366.818       1543.000       369.4634
       1119.494       2647.614       3389.429       3683.211       1701.950
      -849.2524       615.8770       2289.710       783.2664      -211.7762
       345.6455       1289.554       2444.510       3107.659       4508.531
       6963.791       8252.585       6558.202       2179.367      -2226.364
      -4265.136      -4619.426      -3933.913      -2165.080      -1893.525
      -3904.428      -5241.996      -4774.014      -3426.313      -2262.768
      -1407.150      -1848.220      -4035.412      -6025.227      -6484.759
      -4539.742       1310.742       7802.225       10632.20       9695.339
       6215.044       2384.951       423.4199       628.5396       1576.373
       105.7578      -3283.096      -4399.750      -3184.573      -2232.396
      -1980.087      -2528.076      -3078.506      -3924.350      -5560.717
      -3846.979       2021.178       6664.938       7580.806       5839.819
       3465.914       411.9243      -1732.323      -1493.879      -1853.417
      -2537.768      -1162.472       895.3511       2195.152       1787.611
      -887.5430      -3590.281      -3048.900      -891.7402      -740.1572
      -2826.652      -4053.596      -2270.700      -332.7493       544.6733
       1086.506       1237.127       2468.737       2597.127       20.47070
      -2811.213      -4448.574      -4988.121      -4640.135      -3241.880
      -583.4443       2143.664       3354.974       3150.980       3250.785
       4104.515       4441.989       3709.935       2496.800       1115.059
       92.31177      -470.1074      -1374.451      -2696.559      -3369.873
      -3002.701      -1487.973       382.7549       1745.928       2785.244
       2186.617       127.4329      -219.8184       1513.473       3331.527
       3380.249       1397.621      -138.0083      -532.0000      -1996.425
      -3352.332      -2339.410      -118.1226      -254.3057      -3761.771
      -6571.816      -5599.617      -2945.852      -1134.181       480.2617
       2617.805       4268.627       3887.032       1685.419       83.52246
