     0.02500000      -9526.320       11211.20      -12345.00      -12345.00
      -30.00501       225.7450      -26.78000      -12345.00      -12345.00
       0.000000       20.36000      -12345.00      -12345.00      -12345.00
      -12345.00      -12345.00      -12345.00      -12345.00      -12345.00
      -12345.00      -12345.00      -12345.00      -12345.00      -12345.00
      -12345.00      -12345.00      -12345.00      -12345.00      -12345.00
      -12345.00      -30.14410      -68.57390       1095.000       0.000000
      -31.59500      -68.73200       0.000000       105100.0       0.000000
      -12345.00      -12345.00      -12345.00      -12345.00      -12345.00
      -12345.00      -12345.00      -12345.00      -12345.00      -12345.00
       161.5667       5.410390       185.3297       1.452642      -12345.00
      -12345.00    -0.06133571       0.000000       0.000000      -12345.00
      -12345.00      -12345.00      -12345.00      -12345.00      -12345.00
      -12345.00      -12345.00      -12345.00      -12345.00      -12345.00
      2008        13        10        50        54
       180         6    -12345    -12345     10231
    -12345    -12345    -12345    -12345    -12345
         1         7        13    -12345    -12345
    -12345    -12345    -12345    -12345    -12345
    -12345    -12345    -12345    -12345    -12345
    -12345    -12345    -12345    -12345    -12345
         1         1         1         1         1
CIGA    -12345          
        -12345  -12345  
-12345  -12345  -12345  
-12345  -12345  -12345  
-12345  -12345  -12345  
-12345  -12345  -12345  
-12345  -12345  BHZ     
ZL      -12345  -12345  
[...]
       817.0562      -514.4436      -1309.859       211.2625       1003.138
       939.3995       543.0612      -240.4200       597.0918       804.6482
      -1103.729      -1757.516      -786.4092       154.8605       599.5115
      -10.06177       344.4907       1798.286       807.0674      -1504.429
      -1117.854       241.7831       117.6330       113.9257       276.2397
      -685.6824      -1557.708      -696.4778       563.9747       660.2935
       305.1106       189.4383       547.9833      -81.69897      -1429.668
      -59.51514       2260.750       686.2456      -1905.282      -1024.192
       509.3066       48.94495       195.6135       1208.952       1261.207
       1221.500       1295.404       1243.445       360.4824      -937.4399
      -819.7233      -542.0972      -513.0663      -30.45203       21.38635
      -610.6553      -248.5227       697.4189       677.0813      -221.8025
      -993.8204      -126.3472       1537.650       1407.479       167.3311
       217.1113       1137.169       1074.701       259.6693      -204.0693
      -815.9872      -232.8679       969.5487       839.1814      -60.30273
      -1740.406      -1485.767       248.2490      -415.4912      -1635.171
      -833.6937       52.31885       477.4238       1475.640       1414.630
       261.6578       223.2400       619.8469       346.1982       348.2876
      -359.0146      -2211.408      -1162.700       1716.883       1198.724
      -1062.591      -1294.305      -350.5825      -374.0278      -1313.129
      -1796.008      -707.7004       737.6936       957.7952       1293.326
       704.7376      -315.8655       522.2253       849.8188      -264.2549
      -1583.763      -2422.732      -1533.797      -555.9866      -938.1802
      -850.6562      -369.4390      -889.7887      -646.0331       81.59839
       104.2256       1016.867       1133.804      -766.1211      -1017.264
       596.6125       626.0681       172.2327       664.2367       95.80859
      -1569.059      -2233.588      -2113.212      -1789.028      -319.5379
       371.2434      -271.8201      -516.7427      -949.6621      -1377.235
      -350.1048       281.2032      -462.0771      -409.4822       378.0000
       783.0547       512.3102      -91.07422      -1036.347      -2172.500
      -1394.719       499.4141       941.1586       585.9426       50.23877
      -1171.023      -751.8748       530.3872      -373.3730      -1707.081
      -1469.959       26.90674       1215.503      -40.32935      -1165.566
       82.74622       481.0747      -940.2799      -1111.240       234.2661
      -333.1135      -1334.466      -180.0811       946.3562       711.1625
      -164.8854      -451.3576      -158.0845       152.8745       441.5076
       833.7955       209.3014      -590.5063       661.9678       1713.789
       915.7505       180.6512       69.54362       124.9111      -411.8612
      -748.3136       361.5493       838.6039       86.34912      -336.8639
      -574.2175      -245.4802       574.7096       553.7859       74.77783
       372.7681       1033.314       1640.736       1345.515       315.2113
       367.1367       1113.737       901.0504       213.3094       53.02698
       359.9233       308.9738       145.1196       93.06360       136.6241
       686.9873       656.0626       579.0054       826.9712       404.8828
       411.3512       278.8741      -281.1570       2.842773       582.7148
       120.8132      -791.8995      -517.4653       599.4287       1182.764
       868.8667       603.9937       1136.950       1179.205       527.7811
       568.0972       867.0741       549.9614       449.3005       811.2522
       954.8242       909.4475       636.2289      -32.68799      -613.3101
      -1097.109      -1428.678      -1280.825      -532.5352       118.2317
       404.6621       1195.090       1580.339      0.6203613      -1058.144
      -249.0640       512.2976       951.0005       892.6128       458.8752
       342.7773       712.5315       999.2803       804.3345       759.1188
       174.4163      -564.3074      -530.1601      -5.180908      -573.9102
      -1077.015       420.4839       1247.965       485.1796      -111.9172
      -444.7280      -1226.473      -1552.220      -1079.979      -831.4819
      -1129.204      -812.6411       1061.314       2092.888       1345.126
       552.7709       293.2609       163.4553       335.7922       250.4177
      -649.2399      -435.6020       377.3394      -74.26785      -285.0100
       444.3044       1181.831       918.5853      -73.31384      -439.5808
      -380.3646      -604.8956      -194.6509       963.5874       856.3188
      -485.7820      -365.8295       441.0114       235.0873      -370.8582
      -991.9011      -1076.753      -591.5753      -25.68674       118.4382
      -40.69836       245.9145       68.35583      -24.45386       571.5826
       373.9911      -294.3977      -25.35547       859.7649       1415.537
       764.3103      -694.7056      -941.1807       589.4163       1452.803
       190.3484      -881.8724       256.4060       999.2996      -380.5554
      -665.7002       904.7974       717.2909      -545.5887      -269.3043
       132.3761      -412.1509      -884.5342      -471.2334      -110.5945
      -40.23376       395.7092       69.11646      -877.3740      -971.1375
       16.10352       892.6616       1254.738       1561.557       1273.885
       126.5841      -849.1707      -70.04541       1578.882       1387.946
       420.6509       504.3344      -93.98267      -1378.815      -987.4745
       336.3689       664.8812      -109.3069       40.52515       977.3979
       880.0249       623.0332       1064.856       952.9403       150.3103
      -376.5874      -870.9509      -1081.511      -1090.818      -564.0549
       400.6595       68.28711      -720.7611      -247.2417       573.3236
       624.0168       746.3870       889.1108       137.2114      -1100.771
      -570.8679       763.0702       535.5317      -371.3323      -912.1814
      -386.5982       129.9064       42.60986      -32.31494      -506.3615
      -476.8400      -208.7473      -260.0793       60.62988      -284.6558
      -1423.462      -1803.691      -698.6908       537.7275       283.3508
       154.8727       380.2969       430.2232       429.1505      -31.79547
       52.64337       35.95703      -881.3098      -1138.151      -502.6383
       82.37427      -287.1096      -738.9553      -525.0859      -562.4319
      -612.7091      -340.4429      -1040.625      -2180.093      -2000.265
      -1225.952      -828.7195      -934.1543      -1688.098      -1589.144
      -842.6238      -665.3843      -215.1315      -51.43323      -385.3225
       93.77051       522.6815      -4.945190      -389.3037      -448.9489
      -450.7761      -377.3745      -648.9294      -572.8782      -267.8544
      -89.58813      -314.7839      -816.6489      -831.5598      -1027.946
      -1414.247      -1233.493      -719.0305      -191.9785      -18.68994
      -702.7715      -1629.465      -1611.311      -778.9884       171.5371
       385.9990       413.1292       664.3114       496.8882       47.49487
      -487.0266      -823.4279      -222.3806       340.6799      -189.9556
      -443.1116      -510.0532      -1136.230      -1322.733      -828.1071
       84.58331       349.1116      -387.5968      -646.3567       328.9709
       1102.521       836.4290       565.3848       66.99878      -1055.101
      -1501.211      -423.1706       429.7930      -397.9626      -1120.268
      -804.5422       12.23444       135.7052      -51.35706       342.6302
      -116.0506      -123.8730       552.4249      -219.4364      -414.2798
       612.5500       287.8137      -780.7772      -470.2185       349.0259
       767.7908       849.9146       459.9319       101.4434       636.1630
       948.2220       1.021118      -333.2623       36.05542       324.0427
       716.2142       333.3063      -235.3820      -309.2147       424.4728
       713.5171      -536.9585      -1231.210      -212.3391       669.1567
       808.7319       994.5837       637.6180      -128.0408      -649.2581
      -824.2774      -275.7363       498.2771       851.5364       729.0764
       576.3457       727.5630       489.7023      -194.0314      -550.9708
      -317.1495       418.6296       400.0332       781.8901       2049.981
       1836.202       590.9231      -364.7291      -796.9102      -309.5122
       876.9023       1579.802       969.7050      -115.4190      -79.73950
       815.6555       400.6997      -978.2334      -1229.573       21.23804
       655.3114      -159.5867      -112.7871       1494.270       2070.402
       643.0375      -288.6692       55.57874      -310.5268      -569.5920
       381.4710       349.2921      -657.0557      -366.8870       669.3057
       1054.466       1126.743       1155.793       946.6931       759.6475
       708.1594       828.0388       960.3762       886.7123       421.7586
       101.2415       767.2842       1398.935       1131.123       769.3242
       437.9826       59.42664      -316.9570      -498.6141      -230.3611
       385.9478       1003.648       790.7504       232.7080       303.6570
       199.0987       79.06641       348.5215       551.9316       763.7202
       687.3074       224.0323       183.9573       691.2363       902.5088
       1142.111       1587.491       1229.966       886.6594       437.7255
      -95.11639       21.31274      -305.5671      -308.6113       588.3497
       638.8212      -113.0332      -921.6951      -1409.232      -960.2599
      -21.94653       495.9288       168.3961      -39.03326       232.7493
       499.8125       1085.348       1250.349       501.0791       158.0835
       835.8416       1172.183       888.2146       618.7842       374.8323
      -285.8736      -556.7974       179.6396       572.7144       667.7936
       280.8476      -448.3799      -118.9635      -90.71118      -452.8301
      -134.2097       243.2253       632.3948       858.9335       463.9843
       101.2998      -11.05640      -420.0378      -1118.413      -918.1027
      -64.07373       724.1158       799.6425      -73.04724      -498.6542
      -437.6167       88.89941       972.6992       1479.291       819.7451
      -1444.045      -2032.154       66.73877       1623.857       1967.798
       1834.609       1080.792       946.9390       1957.256       1412.883
      -1032.462      -2165.917      -2121.195      -2105.130      -793.4260
       595.1909       94.16455      -1030.095      -882.4172       868.5867
       1442.275      -486.2173      -1621.438      -881.8691      -690.8450
      -581.1522      -99.61011      -412.8787      -800.5015      -114.5574
       1131.453       915.6992      -1472.439      -3622.162      -3831.362
      -2915.873      -1309.815       804.7612       1616.364       1364.410
       653.2690      -888.4390      -1579.349      -1018.126      -489.9692
      -1246.418      -1537.474       447.9598       1213.101      -630.7932
      -1639.626      -811.5698      -167.4778      -176.9575      -624.6680
      -1506.883      -2322.338      -2416.445      -1320.026      -362.0112
      -734.6641      -799.5640      -910.6455      -2552.097      -3978.742
      -2523.008       950.9297       2814.003       3538.181       4335.476
       3149.258       873.9033       949.0925       1222.839      -1800.779
      -3753.872      -1403.095      -522.2656      -3669.651      -5153.385
      -3121.408      -168.7764       851.8442       562.1035       1513.610
       490.4668      -2303.574      -1729.744       1027.058       3305.916
       4400.972       1915.337      -2913.062      -3808.555      -1048.094
      -1295.802      -3230.118      -515.4976       3065.318       1226.079
      -1626.328      -1510.510      -284.3107       227.5479      -154.4829
      -920.6865      -2393.500      -1529.343       1809.099       2284.059
       264.9266      -187.4014       1330.199       3303.973       1305.347
      -2337.832       1438.580       7015.559       2924.648      -6208.412
      -9526.320      -3366.297       6626.500       9660.510       3735.105
      -3778.449      -5211.304      -337.3687       3150.021      -197.3833
      -2748.719       841.1123       1623.868      -767.6604      -1045.536
      -35.81201       1550.994       1373.592      -2415.021      -3896.801
      -974.7014      -146.3359      -1976.989      -2579.752      -1963.644
      -2052.533      -672.4727       2488.462       1574.190      -1464.521
       1703.938       8383.865       9922.392       4475.791      -2274.928
      -4639.569      -5213.424      -5154.982      -2465.271      -875.0820
      -2010.535      -4825.396      -6987.864      -3812.395       2509.877
       5948.490       7254.344       9908.855       11211.20       7679.619
       1497.573      -3310.705      -3717.714      -538.5415       2913.191
       2136.175      -4000.908      -7185.428      -5300.975      -3847.942
      -986.0557       2370.955       919.2212      -1594.783      -975.9277
      -1166.003      -2783.260      -1944.860      -1689.693      -5195.213
      -6858.818      -4572.990      -2690.430      -481.7715       2388.199
       834.0051      -404.4629       3759.619       7921.668       9921.096
       8483.282       4685.146       2575.854       1368.119      -46.57422
      -1687.599      -3955.009      -5553.905      -4311.383      -981.5769
       1402.118      -434.4082      -4504.451      -4700.787      -1019.461
       2567.885       4505.160       5301.551       4903.231       2443.668
      -1148.118      -3484.569      -1958.860       1990.528       2909.989
       1696.007       2878.445       3492.243       2594.145       3787.092
       3548.304      -1511.549      -6577.799      -5951.486      -1642.190
       565.1099       1449.159       3375.767       4251.754       2544.127
      -399.1040      -1663.096       48.89746       1922.460       2596.133
       2911.864       1998.248       954.4231      -66.27148      -2524.734
      -3934.354      -3522.544      -3580.165      -2822.231      -1190.584
      -556.1028      -592.5923      -1403.760      -2249.654      -2463.291
      -1336.992       1528.342       4298.590       4916.654       4744.824
       5983.117       6250.948       4061.448       2358.978       1221.201
      -1550.780      -3466.543      -3293.541      -4558.959      -5747.123
      -5905.037      -7211.998      -5732.543      -419.8940       2410.160
      -40.47656      -2307.323      -293.2622       2243.673       2583.034
       2452.190       2038.250       844.2905       1392.368       2498.890
       900.9667      -169.5420       1728.543       1817.189      -583.0693
      -1514.719      -1204.776      -673.3776      -361.0098       777.0928
       3290.782       3761.716       2945.026       2729.266       2276.854
       2693.456       2909.003       1183.491      -206.8467       1087.426
       3756.970       3835.059      -414.6426      -6123.279      -8977.763
      -6696.432      -1708.977       2212.905       4285.854       2424.174
      -2599.607      -5520.205      -5145.177      -1825.435       2558.668
       3950.959       3341.343       2636.146       1645.625       1892.940
       2476.331       1068.948      -127.2837       576.0762       1412.387
       1481.198       1277.656      -189.6426      -2713.969      -3758.084
      -3723.018      -3031.039      -1585.375      -1885.240      -3283.471
      -3772.121      -4144.617      -3945.148      -2151.915       1088.910
       4537.494       5279.125       3846.010       3691.143       5447.754
       6087.634       3351.129      -443.7559      -1870.329      -1094.645
      -237.9805      -87.00842      -415.1887      -808.1447      -653.1768
      -95.98694      -227.2668      -783.3383      -335.8408       1282.587
       2753.840       2329.902       836.7014       242.6569       18.82910
      -1045.078      -3112.195      -5455.383      -6786.561      -6326.157
      -4207.537      -2640.240      -2624.368      -3367.231      -4085.981
      -3001.570      -179.9414       2783.051       4906.611       5704.672
       5461.487       5165.361       4562.431       4464.658       5719.020
       5327.943       2687.440      -404.8740      -2458.463      -2696.997
      -2306.840      -3083.967      -4688.236      -4485.867      -2644.614
      -1899.435      -2618.965      -3670.476      -3573.747      -1840.566
       176.2266       2107.078       4104.661       4918.818       4077.122
       2762.377       1476.932      -1398.438      -5030.764      -5721.825
      -4208.238      -3436.616      -3261.999      -2269.523      -265.4355
       1981.787       3369.521       3614.925       3338.706       2039.813
       438.6619       127.9709       667.8042       617.5153       251.7166
       596.3262       1533.341       2021.198       1257.045       125.4804
      -288.8831      -36.62305      -349.6387      -1922.027      -2878.356
      -1737.437      -241.8401      -187.2427      -1715.951      -3469.231
      -2780.948      -125.3101       1988.681       2861.664       3971.973
       5345.723       3845.832      -97.39258      -2195.562      -2024.752
      -1751.075      -1867.813      -1590.737       199.4902       2290.458
       2116.054       312.6729      -1545.438      -3203.943      -4414.047
      -4385.715      -2387.360       62.90625       648.9408      -62.48120
       628.6230       2424.354       2683.193       1942.833       1578.235
       1148.590      -314.9233      -1968.356      -2687.090      -3139.775
      -3233.048      -2751.918      -1815.488      -334.4922       1447.764
       2732.481       2420.245       1170.913       388.2580       143.3242
       239.7705       905.6167       1492.802       1846.591       1741.080
       273.1313      -962.3472      -1433.756      -2468.241      -2982.590
      -2100.943      -1079.301      -1455.476      -2490.090      -2572.236
      -2107.838      -1397.443       236.2461       2092.180       2744.991
       2617.355       2589.243       1746.938       773.1128       1094.670
       1860.771       1660.377       569.4390      -515.7441      -1586.905
      -2304.793      -1400.676       242.0079       614.6345       111.3931
