     0.02500000      -11618.20       13043.98      -12345.00      -12345.00
      -30.00501       225.7450      -26.78000      -12345.00      -12345.00
       0.000000       20.36000      -12345.00      -12345.00      -12345.00
      -12345.00      -12345.00      -12345.00      -12345.00      -12345.00
      -12345.00      -12345.00      -12345.00      -12345.00      -12345.00
      -12345.00      -12345.00      -12345.00      -12345.00      -12345.00
      -12345.00      -30.14410      -68.57390       1095.000       0.000000
      -31.59500      -68.73200       0.000000       105100.0       0.000000
      -12345.00      -12345.00      -12345.00      -12345.00      -12345.00
      -12345.00      -12345.00      -12345.00      -12345.00      -12345.00
       161.5667       5.410390       185.3297       1.452642      -12345.00
      -12345.00     -0.9719552       0.000000       90.00000      -12345.00
      -12345.00      -12345.00      -12345.00      -12345.00      -12345.00
      -12345.00      -12345.00      -12345.00      -12345.00      -12345.00
      2008        13        10        50        54
       180         6    -12345    -12345     10231
    -12345    -12345    -12345    -12345    -12345
         1         7        13    -12345    -12345
    -12345    -12345    -12345    -12345    -12345
    -12345    -12345    -12345    -12345    -12345
    -12345    -12345    -12345    -12345    -12345
         1         1         1         1         1
CIGA    -12345          
        -12345  -12345  
-12345  -12345  -12345  
-12345  -12345  -12345  
-12345  -12345  -12345  
-12345  -12345  -12345  
-12345  -12345  BHN     
ZL      -12345  -12345  
[...]
      -36.02100      -149.8279       420.3264       260.8950       76.84424
      -122.8041      -679.3353      -371.8988       168.8921       313.3937
      -253.6743      -1058.991      -455.0200       735.9330       673.7942
       286.3494      -654.5784      -1549.324      -998.2510      -44.15186
       552.7095       842.6211       1853.285       2658.851       1167.424
      -1211.591      -946.3370       581.9252      -205.9219      -1465.513
      -1169.726       196.3125       1349.804       569.4189      -1374.885
      -1456.353      -91.19092       1307.518       1892.920       81.63800
      -683.0018       879.1423       289.0356      -969.8389      -468.8239
      -347.3904       233.3870       1239.610      -409.5791      -2091.266
      -374.3140       2059.272       1847.553       342.7939      -387.4513
      -499.0039      -92.35590       417.7928      -62.43042      -1062.344
      -342.9321       243.2491      -735.0664       100.7499       1099.132
      -355.6704      -1806.893      -973.0989      -342.0261      -1117.324
      -168.6139       220.8041      -959.5143      -97.94092       990.9417
       272.4938       101.2605       1162.156       804.6985      -519.5575
      -668.1049       23.89746       730.0004       782.7521       371.3900
      -519.0864      -914.0830      -596.5723      -1718.823      -2058.969
      -658.4845      -27.32373       548.6426       739.6680      -266.6636
      -1177.625      -728.1069       1349.411       1736.585       456.3027
       65.16309      -1225.354      -1552.663      -181.6978      -832.1855
      -1193.858       785.6040       1979.912       1355.982       417.7851
      -38.12305      -493.8845      -722.4406      -357.1039       192.6436
       835.3989       843.2534       67.67163      -971.9641      -888.5358
       132.8073       218.6920      -360.3112      -147.3796       643.4951
       961.5374       780.5562      -11.61816      -1052.122      -805.9342
       292.3861       642.1815      -252.7852      -1452.366      -950.6803
       467.3702       507.3085       251.1887       327.5750       269.3716
       465.2567       155.4421      -735.9606      -243.0796       1347.596
       1343.619       160.5964      -475.9961      -671.9614      -11.57886
       690.6372       727.9091       568.0192       252.3969      -227.1365
      -612.9408      -486.7013       286.4121       805.0535       895.3208
       1227.403       411.3284      -1145.059      -468.8097       974.4977
       551.1670       416.4758       786.4011      -628.1133      -918.6218
       673.7241       301.7188      -1183.248      -884.2639       950.9995
       1698.046       358.2800      -833.5259      -1676.668      -1509.898
      -161.5557       605.5471       1144.408       1603.537       1692.980
       1606.825       1191.494      -62.24219      -1333.511      -779.5123
       469.4386       212.8033      -302.9117       5.280518      -69.01318
      -705.7603      -821.7517      -463.8821      -902.6526      -549.6755
       1015.646       1402.846       966.5510       847.0120       502.1685
      -402.6897      -332.7896       891.0695       664.4673      -870.2314
      -1634.783      -1183.859       177.9091       615.4972      -541.8350
      -344.4521       1236.398       1290.948       384.0773       208.6522
      -120.2363      -698.9258      -831.6396      -940.9871      -913.6552
      -520.5881      -224.4407       263.2250       522.6914       702.6451
       909.9092      -94.70361      -1066.391      -270.5203       832.5610
       803.8599       485.2755       214.4335      -70.30884      -98.64844
      -266.1313      -518.6650      -387.0684      -299.6868      -458.9153
       261.1703       590.4514       199.4092       890.5073       960.4290
      -371.8903      -782.5613      -273.2948       142.2755       149.5146
      -58.53967      -207.9832      -708.0481      -963.5458      -366.1917
       376.2314       913.9380       1314.556       1284.958       284.5127
      -532.7905      -252.1128      -653.1675      -1813.434      -1525.675
       18.60229       813.3228       138.8502      -66.03467       686.4226
       738.2814       446.9844       487.3683       524.9728       430.7167
       368.6830       222.4780      -49.67291      -225.8184      -524.2268
      -487.3552      -183.3015      -469.6493      -705.8339      -231.5065
      -297.4846      -709.0875      -101.7867       556.6649       338.8694
      -103.8997      -475.0396      -610.6547      -214.1999       210.8379
       88.84839      -91.10913      -498.7063      -1054.808      -980.3481
      -551.2261       200.1238       859.3761       606.5579      -157.3679
      -546.1334       215.9854       1316.504       1601.528       866.2409
      -227.0786      -244.8077       438.3691       31.14062      -1291.661
      -2008.887      -1221.325       12.55859       580.5329       476.7094
      -145.2932      -184.8999       344.1529      -124.4088      -467.8096
      -96.37341      -343.5801      -270.5811       983.2563       1394.043
       727.8136       402.0190       177.3068      -256.9615      -410.4141
      -299.2403      -272.5608       180.2793       866.0740       969.7380
       894.7307       435.1024      -356.3037      -673.0677      -467.8257
      -146.0472       182.1177       476.4058      -11.43945      -1234.471
      -1377.763      -87.89258       1156.899       1482.409       763.6932
      -396.2952      -369.3652       631.0742       555.8631      -238.9603
      -43.78304       21.83765      -288.9901      -122.3020      -361.5070
      -583.2152       178.1459       582.4380       143.8832      -438.8978
      -886.7441      -216.7343       509.8893      -105.3797      -260.7302
       568.1366       717.3501       132.5983       385.5000       844.6375
       355.5758      -65.68927       343.3886       253.6411      -952.7107
      -1268.920       192.8350       1285.548       676.7424      -507.8677
      -1060.715      -1128.201      -568.1567       693.7009       1462.866
       781.5663      -188.9763      -568.4399      -895.9728      -530.4602
       552.3445       1202.473       865.1459      -51.87671      -684.1113
      -1238.931      -1061.438       82.73730       188.3833      -1065.539
      -1416.307      -320.6631       849.5869       1755.715       1855.934
       499.6616      -982.0273      -1424.326      -935.5300      -247.3904
      -760.7495      -2097.398      -1948.566      -782.0278      -347.8853
       334.3506       1629.961       1556.413       808.5007       881.0946
       452.8027      -332.3264      -63.24005      -49.45386      -792.4033
      -835.9153      -625.3553      -631.4635      -435.0398      -208.9658
       5.348145       591.9712       1107.880       883.0638       417.0789
       155.9162       268.8336      -241.9688      -1158.521      -1655.579
      -1912.719      -1047.192       581.0327       904.6599      -191.4990
      -328.6743       221.6328      -584.0776      -1467.755      -823.1448
       168.1953       151.7963       212.7544       905.2234       892.5284
       434.6520       372.1365       111.9744      -359.4844      -850.7593
      -1201.631      -1507.454      -1444.382      -88.39795       1517.143
       1973.780       1163.941      -31.27930      -478.7571      -639.3660
      -400.6915       255.0398       345.6051       277.2394       509.8618
       587.9119       15.60681      -266.1738      -366.8491      -1020.376
      -708.0620      -95.61255      -306.5886       12.73633       1055.601
       993.5098      -167.8324      -483.4182      -235.3352      -237.0867
       165.6731       503.5963       78.58032      -301.2615       257.2910
       1295.944       1719.215       1269.531       346.0374      -571.3813
      -1006.106      -1482.500      -1708.744      -883.2188      -335.2239
      -865.3320      -1096.624      -366.4320       283.8788       427.4181
       388.5325       334.0288       658.1248       1029.378       389.4414
      -1197.160      -1696.893      -1156.847      -750.2886       512.2246
       1759.273       1619.706       988.3983       241.0073      -68.20850
       807.7900       1549.837       1180.623       842.5906       301.3555
      -748.0532      -1872.571      -2693.184      -2241.292      -851.2620
       379.4042       681.5320       366.7833       86.19836      -240.7321
      -140.7816       313.7700      -164.6703      -754.4791      -218.2302
       170.9425       105.8508       641.3809       1318.683       1091.641
       363.0975       156.3390       227.4866       119.7376       84.17578
      -226.3467      -820.7963      -634.3168      -452.7484      -222.8770
       1157.323       1403.495       313.0913       744.6699       1619.920
       775.1722       72.07703       517.2512       146.4780      -455.0959
      -415.8203      -911.6304      -1299.257      -1039.969      -1098.327
      -1399.237      -856.2539       106.4414       306.3713       380.0549
       833.4681       690.6660      -231.4069      -441.1523      -58.04285
      -249.4736      -162.7334       674.2427       854.5219       245.4434
      -93.19629       470.7104       1512.931       1212.958      -29.40790
      -201.5553       215.3233       101.1697      -70.88330      -44.88428
      -614.9829      -932.1497       310.1177       1753.600       1209.699
      -138.4314      -144.7856       199.8181      -317.0015      -229.2563
       1035.904       1385.659       984.2290       1068.550       788.3376
      -71.06860      -618.1157      -206.1340       674.6306       1229.967
       1079.107       298.8209      -42.46063       344.5176       252.4893
      -357.5598      -619.4126      -752.1292      -966.5047      -333.8401
       972.6074       1597.712       1394.995       1046.459       535.9634
      -401.7440      -574.9004       385.7101       548.7732       15.08984
       163.9351       245.5042      -387.7280      -633.1108      -351.1953
      -546.4503      -583.0498       720.8286       1871.175       1695.329
       671.0604      -635.1269      -500.3369       944.0874       1263.350
       159.1968      -966.0093      -1416.401      -1622.470      -908.5041
       309.0176       391.8776       203.0576       385.7491       370.1964
       37.88354      -622.1350      -1028.815      -693.7852       11.51636
       592.7184       809.4849       22.63721      -1017.523      -883.7063
      -64.25879       280.7828      -63.10303      -350.0907       50.34460
       585.1396       531.7705      -229.3087      -585.5933      -401.1528
      -1089.477      -1825.493      -1690.651      -1635.089      -1595.312
      -1155.674      -96.08594       822.3077       625.0339       59.42126
       70.45709       133.2349       208.2534       740.3315       1093.361
       602.3162      -176.5562      -732.4292      -821.8751      -266.4698
       142.9957      -327.9996      -338.9448       268.1120       427.8029
      -135.8472      -1316.490      -1513.587       120.4551       1481.421
       821.9296      -407.1484      -948.4187      -1082.865      -349.3329
       93.71167       389.4766       1023.173       462.3065      -127.9987
      -31.35938       104.0669       507.6743       769.5793       978.3403
       387.6133      -316.5161       464.0479       1322.600       1278.108
       583.2126      -227.9679       168.9128       623.7297      -449.3047
      -1589.297      -1690.609      -2178.919      -2125.052      -983.6119
      -551.2800       280.6816       1646.833       1115.256      -502.2588
      -1100.246      -1120.637      -1172.968      -1226.702      -1226.450
      -111.7285       668.5879      -972.9019      -2046.463      -1136.674
      -724.0538      -636.9902      -126.9722       117.5125      -193.4561
      -599.0518      -802.1704      -883.1572      -1633.071      -2747.478
      -2607.399      -1203.974      -314.8570      -211.1727       138.4561
       1041.266       3314.086       5988.527       6509.348       6582.209
       7272.074       6566.960       3604.575      -223.4102      -2555.021
      -3473.190      -3382.872      -1780.530      -1099.719      -2716.917
      -3122.785      -1068.277       1444.560       4115.322       4566.488
       2976.395       3979.546       4990.093       1007.232      -3855.560
      -5502.553      -5329.430      -3640.666      -974.3115      -2237.764
      -7492.625      -9645.597      -6334.735      -926.9956       2312.478
       1915.905       1424.365       4176.805       7190.202       3456.353
      -4995.025      -9259.021      -7698.608      -2501.762       3852.725
       6039.215       2690.706       178.1475       2769.532       3312.110
       1410.689       6462.645       13043.98       10361.28       1938.027
      -4473.625      -7712.168      -7444.906      -5510.879      -8308.969
      -8645.771       3541.773       12399.54       4585.548      -5896.678
      -8203.287      -4996.531       2615.791       5882.963      -3410.412
      -11618.20      -6058.225       3984.234       4602.724       906.5449
       3965.887       10963.10       9123.174      -794.5532      -1928.785
       4154.592       4099.131      -104.0479      -2594.289      -6143.406
      -9096.778      -5242.202       1131.062       4171.686       7223.840
       9103.622       5779.033      -1378.617      -8683.262      -5987.769
       4939.418       8280.180       2596.681      -1532.750      -2161.721
      -5016.981      -6362.108      -1139.993       2364.350       1783.201
       2361.395       1657.798      -2040.079      -1355.418       6452.129
       8860.195       1327.130      -2850.807      -233.2891       2023.639
       2866.429       563.9355      -4815.937      -4865.599      -473.3281
       1186.229       2343.713       3701.716       1705.363      -1984.775
      -4718.842      -6884.570      -7080.266      -5032.714      -2911.746
       1332.121       6078.718       2972.479      -6522.232      -10821.53
      -7116.485      -2774.648      -979.3105       1663.237       4270.500
       4774.449       5608.012       8121.793       8502.742       3286.441
      -3126.914      -5447.447      -4140.805      -748.3586       1824.931
      -82.36816      -2960.232      -1391.152       2871.992       4624.419
       3727.881       2750.229      -99.15820      -3431.701      -4811.996
      -5778.790      -5403.072      -2067.305       1348.420       1887.623
       2241.580       4660.379       6563.607       5611.013       1008.090
      -5697.043      -9708.117      -7192.076      -591.7656       4888.176
       7534.719       8736.645       8730.469       7027.892       4966.206
       2532.525      -2047.199      -5469.849      -3560.406      -1685.754
      -4551.760      -4565.050       3013.260       7529.161       1802.669
      -4935.496      -3825.128       1181.221       2056.785      -1581.230
      -6307.111      -8969.325      -5055.210       3094.594       7682.972
       5407.673       227.8184      -834.1688       131.7119      -1224.390
      -928.4118       476.5405      -1606.101      -4346.560      -3642.480
       143.1768       3381.855       5043.072       5855.425       3904.300
      -586.0703      -4794.682      -5544.500      -2249.734      -949.2480
      -4927.559      -7671.260      -5979.251      -4234.441      -2954.551
      -319.1123       2222.105       3680.422       4491.357       5760.916
       7265.179       5631.661       1983.872       741.2236      -2128.836
      -7099.297      -5928.126      -1444.825      -876.9258      -2486.353
      -2126.921      -341.7729       1671.695       2550.178      -980.5879
      -4289.319      -3291.250      -1310.669       1333.947       3509.232
       3298.302       1571.755       449.1748       2564.598       5496.849
       4323.536       970.5807      -172.5635      -1692.142      -5232.234
      -5292.892      -2448.235      -1486.586       62.30078       1827.655
       1180.883       166.5068      -1016.518      -2430.254      -3076.002
      -1591.191       1784.986       3783.451       4195.355       3416.510
       434.3354      -2650.738      -2391.867       1658.835       4164.145
       2085.235       594.4858       983.5188       77.09082      -2194.797
      -3912.260      -2546.199      -216.8237      -887.0708      -2767.197
      -2099.918      -241.6357      -1573.835      -3521.161      -514.8672
       3947.808       4711.169       3596.961       2484.238       1463.914
       577.4797      -801.8995      -711.4897       1490.506       3682.378
       4639.354       2640.221      -2264.823      -5566.307      -3794.715
      -549.8079       332.4096       290.9502       356.4702       1279.826
       3117.217       2802.800      -147.3193      -3007.787      -4106.195
      -4299.025      -5164.251      -5689.842      -3953.075      -996.3394
       289.3628       609.6377       1675.619       2171.473       1519.450
       1134.910       1066.712      -361.5645      -3308.007      -4463.149
      -2266.047      -148.7339       883.2285       2960.594       5782.944
       5872.798       3363.122       2845.270       4037.524       4537.817
       4647.319       4246.990       2397.669      -615.1001      -2575.650
      -2603.438      -2268.220      -1640.831      -103.0479       1327.978
       2219.012       3213.676       2386.646      -822.3945      -3020.489
      -3698.036      -2994.032      -613.0300       1060.296       921.7148
       355.4397       488.2314       1520.872       2876.231       2821.136
       1250.151      -507.9287      -2255.741      -2862.172      -2051.021
      -1836.763      -2905.664      -3812.598      -2848.882      -669.9954
       637.4164      -51.10498      -1139.139       13.72412       1236.998
       347.8142       39.24268       323.0610      -816.6875      -2663.587
      -3116.973      -958.8647       1583.189       1541.250       317.6421
       1178.733       3124.525       3821.657       3613.339       2519.139
       673.9206      -620.3523       562.6191       2424.396       895.8389
      -1024.143       1087.345       4365.391       4695.909       2739.524
       426.9058      -2078.594      -3573.117      -3885.490      -5029.414
