     0.02500000      -32896.09       19442.48      -12345.00      -12345.00
      -30.00998       216.3400      -17.81000      -12345.00      -12345.00
       0.000000       13.49000      -12345.00      -12345.00      -12345.00
      -12345.00      -12345.00      -12345.00      -12345.00      -12345.00
      -12345.00      -12345.00      -12345.00      -12345.00      -12345.00
      -12345.00      -12345.00      -12345.00      -12345.00      -12345.00
      -12345.00      -32.11960      -68.98490       1817.000       0.000000
      -31.59500      -68.73200       0.000000       105100.0       0.000000
      -12345.00      -12345.00      -12345.00      -12345.00      -12345.00
      -12345.00      -12345.00      -12345.00      -12345.00      -12345.00
       62.90144       202.2987       22.43150      0.5655740      -12345.00
      -12345.00     0.05783217       90.00000       90.00000      -12345.00
      -12345.00      -12345.00      -12345.00      -12345.00      -12345.00
      -12345.00      -12345.00      -12345.00      -12345.00      -12345.00
      2008        13        10        50        45
       210         6    -12345    -12345      9855
    -12345    -12345    -12345    -12345    -12345
         1         7        13    -12345    -12345
    -12345    -12345    -12345    -12345    -12345
    -12345    -12345    -12345    -12345    -12345
    -12345    -12345    -12345    -12345    -12345
         1         1         1         1         1
CLAR    -12345          
        -12345  -12345  
-12345  -12345  -12345  
-12345  -12345  -12345  
-12345  -12345  -12345  
-12345  -12345  -12345  
-12345  -12345  BHE     
ZL      -12345  -12345  
[...]
       172.6971       189.6806       182.9335       187.9163       184.9498
       195.8803       190.6498       194.6490       194.2315       207.4485
       196.8253       205.0408       199.4169       205.2283       192.7756
       203.8248       190.0780       193.7701       181.1429       189.0328
       167.5988       170.5668       165.0389       157.0406       141.2456
       138.8133       123.3194       125.5918       106.7859       100.0443
       79.57385       84.72176       61.70111       50.38458       28.15099
       33.22086       13.94837      -3.756001      -15.77325      -12.43750
      -41.79312      -45.44205      -67.36954      -69.25403      -89.83557
      -91.83493      -114.5617      -119.3116      -136.7930      -139.5363
      -158.8597      -159.0742      -172.2592      -176.8439      -190.4547
      -186.1113      -201.6969      -184.2358      -197.4282      -195.5711
      -201.3851      -186.8286      -199.7557      -194.3759      -194.2885
      -184.8185      -193.5272      -181.3320      -194.0084      -175.8634
      -171.6825      -166.6476      -173.3506      -155.9970      -153.8500
      -139.0880      -148.4684      -139.1755      -136.3329      -121.7197
      -129.9323      -120.3622      -121.7068      -108.0262      -117.5192
      -109.0691      -117.8875      -101.6954      -111.9534      -107.9095
      -111.9952      -96.38849      -107.8986      -97.97928      -108.3112
      -98.85590      -103.9262      -97.07947      -112.7370      -100.3363
      -105.8004      -100.5700      -116.3286      -108.9552      -114.9321
      -109.2878      -117.6493      -114.1060      -121.1493      -115.6393
      -130.6503      -125.4906      -135.1191      -126.8558      -139.4520
      -138.1064      -145.4738      -137.3059      -149.0541      -152.2866
      -165.0240      -152.9388      -158.1840      -165.5596      -173.3993
      -168.8959      -178.7307      -172.5360      -184.5969      -172.5899
      -192.6943      -183.9659      -189.1772      -185.9527      -186.8889
      -187.8246      -196.0475      -183.3317      -197.2794      -177.8378
      -185.2540      -178.0708      -182.5797      -168.8767      -171.6620
      -156.6104      -162.5014      -141.1990      -139.1909      -127.3973
      -129.9971      -111.2886      -110.3947      -87.91699      -90.50153
      -69.56357      -72.15918      -49.22195      -50.96470      -30.21684
      -32.05950      -7.399678      -4.662441       8.563980       13.67904
       37.07467       30.90582       56.16687       57.61374       76.25742
       82.13922       103.9901       105.1981       125.3113       126.7519
       147.0079       144.6619       164.7019       166.2610       190.1669
       187.7235       209.7317       213.9046       230.6875       225.2120
       239.5522       245.1140       267.4255       256.4102       267.8805
       273.0406       292.5687       276.4570       297.9020       293.7227
       310.9957       311.0307       316.1136       306.4287       326.3654
       321.2140       329.7236       315.4147       332.4536       323.3082
       334.5529       326.8267       334.2957       328.3469       336.9853
       327.4364       342.0260       331.7927       342.3861       333.5613
       341.2330       334.7314       342.5565       326.5152       336.6913
       321.2732       329.7755       320.2977       324.6301       313.3713
       320.3914       297.1862       301.7480       283.6889       280.4501
       250.0251       175.2356      -55.36731      -387.2085      -722.7075
      -881.1187      -884.4212      -530.8484       214.5090       657.7771
       764.3130       1240.947       1447.005       712.4803      -12.68958
       231.9336       999.6948       1157.038       1145.688       1765.217
       1319.975       861.1509       337.4193       42.01135       412.2417
       971.7024       1350.766      -287.2345       132.8763       1366.812
      -854.3135      -3632.248      -3170.661       1663.206       869.0596
      -4836.034      -3372.339       409.7043       951.8979      -731.2246
      -3009.868      -1410.543       2024.492       2189.342      -1350.532
      -1080.183       1948.775       1497.321       238.5039      -1799.123
      -902.5884       2158.246       2450.579       2505.704       1252.693
       892.9260       389.1235      -2697.069      -2697.583      -661.0286
      -227.8625      -981.2400      -160.2559       3023.685       1493.058
      -1778.934      -1851.859      -2181.067      -946.8555      -2297.232
      -4884.319      -3007.314      -2889.420      -3510.979      -2548.346
      0.8662109       2829.360       3836.982       4589.870       2162.631
       773.1802       3092.658       1566.195      -965.8701      -1217.167
      -295.8698      -10.31534      -47.60809       571.3923      -285.9590
      -377.3166      -71.88092      -431.5902      -25.04443       34.20068
       482.9714       899.5510       1004.451       271.4863      -889.6465
      -2175.097      -2261.385       166.8547       154.6064      -2675.321
      -3316.294      -1972.274      -1015.564      -285.3398       1982.746
       4273.887       3099.530       1034.745       1090.672      -310.4536
      -2259.638      -837.3788       618.7904      -333.3411      -703.6680
      -557.4919       450.5388       1254.318       144.3782      -305.6602
      -1126.261      -3416.467      -1728.438       1459.870       814.6426
       130.5781       2304.748       3519.065       2534.152       1317.007
      -196.4453      -1925.832      -3554.002      -3017.084      -2203.054
      -2414.336      -363.3691       2484.137       3228.169       1470.254
       120.0664      -457.1665      -86.77319       746.9932       1515.431
       2393.034       356.0640      -1367.199       246.6348       1170.553
       591.2002      -615.5460      -867.6940      -30.82373       406.2416
       705.7524       526.4960       513.6788       610.1089      -244.0134
      -925.2930      -1017.244      -397.0436      -496.9414      -293.6508
       408.1709      -1385.776      -2268.438      -1230.689      -1332.073
      -562.8821       899.6533       2262.922       3639.570       4238.443
       4731.388       3969.675       256.2617      -2709.195      -2906.820
      -3152.096      -3331.694      -1953.046      -37.58789       1280.183
       1315.452       1684.126       2467.869       1878.379       1260.424
       625.0406      -209.0950       348.3042      -776.4800      -1909.015
      -328.3989       301.7233      -107.5408      -780.4712      -1916.688
      -2017.603      -2294.593      -1794.815      -160.6656       6.585693
       701.9070       1159.780       549.1591       858.5419      -395.6309
      -2043.692      -1186.517       234.6001       641.6904       1577.075
       1558.437       167.0186      -1269.386      -2200.835      -1216.860
      -1172.119      -2365.183      -1325.561      -644.7471      -818.4910
      -737.0953      -391.5479       1208.362       2042.920       2725.583
       4112.471       3585.463       1575.054       62.55496       3.330719
       121.9729      -278.2163      -1934.123      -2176.769      -535.8375
      -216.3704      -734.7834      -1049.448       370.6089       899.7883
       500.4868       2510.789       2772.205       845.3657      -1280.796
      -2746.149      -2628.213      -2555.844      -2771.937      -1357.269
       695.2273       1041.046       1182.572       1416.392       350.0073
       457.5688       1983.294       2424.569       1741.809       1086.229
       1033.452       967.8955      -515.7339      -2083.769      -631.3251
       149.6143      -1961.838      -2580.835      -2348.576      -1222.950
      -69.07178       501.9316       2700.404       3513.451       2083.389
       1862.780       1073.185      -789.4141      -1760.450      -1722.417
      -1125.448      -1412.320      -1098.563       150.2021       634.0132
       994.0161       945.4495       1143.877       1123.446       801.6655
       1141.314       1119.928       35.17114       4.128540       351.2285
      -1121.493      -1685.832      -1765.873      -1870.122      -131.1792
       402.3660       541.4995       503.1677      -697.8015      -626.1851
      -916.4546      -1722.741      -711.1348      -490.2881      -1356.209
      -1735.449      -1455.137      -460.8193       290.4875      -172.9385
      -979.0540       13.38721       1654.340       1474.779       968.2695
       1491.771       3003.978       3393.923       1494.752      -1342.626
      -2432.940      -546.3756       534.8995      -112.0385      -744.6609
      -404.4417       609.5227      -856.8901      -2352.565      -2492.901
      -2258.207      -814.6737       259.4902      -299.1427      -676.0461
      -439.4368      -171.2250       516.8940      -644.1768      -1675.601
      -87.24463      -509.7419      -152.0107       2054.538       2086.815
       1501.036       148.6814       280.8838       1210.162      -839.6714
      -654.9647       795.4987       267.8228       419.6393       230.9927
       803.1697       1534.333      -345.5737      -980.8936      -1124.572
      -1568.382      -1291.168      -1068.542      -770.7554      -1628.832
      -1379.151      -524.5038      -230.0464       919.5238       851.3674
       204.2125      -666.1110      -372.4138       856.3773       751.3398
       170.3796      -192.5320      -100.4150      -1637.082      -3304.870
      -1495.973       444.7770       507.4319       192.5962       1136.072
       1421.357       140.8875       550.4463       1688.565       1196.315
       823.2071       508.2484      -249.0159      -712.7858      -696.2300
      -513.7036      -1109.127      -1258.147      -568.8158      -827.0394
      -97.64453       940.2583      -69.81409      -466.8085      -118.7416
      -398.1519       813.2805       1001.203       349.4023       1131.396
       880.6157       1273.896       736.8706      -1385.239      -728.2207
       547.9664       498.3057       86.56958       575.7766       1104.469
      -3.200195      -1866.839      -2350.369      -1533.394      -567.0410
       1122.369       2926.353       2828.540       1347.497       555.1807
       819.5405       331.9387       110.4197      -199.4165      -1352.828
      -1034.080       507.1760       1529.419       996.5659      -829.7957
      -178.6147       2184.952       1189.605      -10.79456       559.1418
       38.83333      -7.352142       70.92847       47.34424       1058.290
       1311.201       98.07889      -214.6649       288.8252      -630.8147
      -1281.365      -856.7968      -350.0098       853.2114       844.5891
       781.5454       1104.671       564.2774      -54.53125      -23.24609
       917.1921       468.1296      -105.6801       510.1387       34.37158
      -765.9932      -743.5743      -168.0760       126.3032       829.1107
       790.8683       136.4749       279.2200      -755.7159      -673.3671
       932.3875      -334.2925      -1455.686      -299.5068       80.09399
      -240.3770       1309.428       2508.872       1564.988       1194.356
       1976.077       2976.014       1992.421      -162.2725      -496.1909
      -1362.802      -1500.166       102.5637       1270.183       1418.509
      -191.9204      -1382.722      -1166.842      -839.0171      -596.6437
       151.9733       536.9653      -774.2524      -734.2380      -859.0212
      -1548.779      -480.6096      -220.6071      -199.1844      -251.1285
      -481.5859       1827.063       4248.782       3003.485      -347.7134
      -1208.906      -823.2666      -2035.985      -3528.357      -4203.133
      -4873.538      -4681.190      -1564.792       2419.792       3128.873
       2190.479       2590.798       1618.826      -1661.601      -4015.884
      -3349.709      -1579.806      -2425.509      -3040.021       106.0977
       2799.686       2336.092       3188.535       5968.023       8176.873
       8486.760       8423.951       7402.245       3053.164       798.6133
       3354.295       6212.105       7456.902       6428.338       4363.721
       3495.632       2787.718      -203.0391      -7407.742      -17668.62
      -23581.94      -22045.78      -17828.10      -15481.20      -13453.42
      -6354.452       1907.982       5578.430       8314.816       13274.23
       17127.90       14286.72       11278.43       13338.97       11205.68
       3439.430      -4821.914      -12660.04      -16114.79      -14743.13
      -14373.71      -15504.46      -12872.42      -4803.684       7403.250
       17386.88       19442.48       15197.53       9256.951       7723.828
       11021.38       14353.29       14065.02       7484.521      -1846.816
      -12225.11      -24020.39      -31623.52      -32896.09      -26894.30
      -14205.22      -1297.641       8900.488       14597.22       15923.52
       14863.66       11026.62       8302.383       10048.66       9662.486
       2758.273      -8787.898      -18560.55      -18051.56      -12074.53
      -7892.182      -2588.334       1708.344       1742.941       3100.682
       8662.863       11282.47       7632.159       3953.297       3387.992
       3214.058       3239.396       2672.936      -117.2480      -5909.178
      -10270.49      -7149.214       226.8506       4253.924       3953.131
       2486.390       1386.545       1946.354       4610.662       6045.430
       2019.169      -4613.590      -6896.371      -6318.535      -5769.331
      -4799.848      -4569.543      -5209.874      -4990.101      -906.3516
       5427.639       7383.818       7299.834       8863.853       6889.897
       1594.411      -1952.490      -4376.172      -6093.730      -6981.481
      -5080.468      -200.0570       861.3457      -2917.125      -4078.883
      -1204.209      -79.54663      -564.5762       2339.678       6175.520
       6776.702       4109.840       1151.402      -459.6562      -1633.984
      -2885.899      -4495.972      -4880.879      -3433.521      -2492.778
      -1276.599      -166.9770      -535.6478       125.9355       1673.542
       2179.195       2560.628       4109.940       4699.495       1820.061
      -2016.248      -4114.480      -4614.618      -3782.891      -2354.826
      -3572.146      -5592.953      -4157.389      -1470.836      -1877.576
      -4554.899      -4512.123       749.3867       7092.303       8726.273
       4975.926       3281.418       7724.570       11133.52       10976.57
       10523.19       9361.221       7705.206       5024.640       362.8857
      -3247.112      -3264.367      -3968.277      -6901.596      -7578.068
      -6592.537      -5100.601      -2434.146      -25.52734       1846.104
       3313.543       5117.642       5913.746       3585.280      -464.6133
      -4820.637      -8375.355      -9613.027      -8416.463      -6424.379
      -7212.344      -8041.460      -4789.859      -1486.350      -1278.105
      -1675.283      -509.0059       2176.070       4548.342       3744.773
       565.7295      -1609.083      -1915.243      -898.6851      0.5625000
       1663.648       5553.020       8832.713       7626.335       4788.078
       4187.027       3647.954       1512.868      -335.4399      -1166.224
      -2222.461      -795.6025       3422.019       4786.748       3442.550
       247.5791      -2772.379      -4112.423      -5195.399      -2510.000
       824.5811      -30.57678      -68.90137       1818.709       4879.557
       7674.064       6228.486       3375.571       561.6055      -3600.597
      -4861.870      -3020.720      -420.0112       816.0693      -1008.350
      -3842.768      -6089.785      -6681.594      -6258.479      -4916.882
      -1602.378       1615.289       3225.006       3667.023       4563.838
       5976.572       6641.473       6064.612       4423.650       2216.984
       593.0814       314.0302       57.25732      -1174.764      -2080.375
      -2404.954      -1639.509       582.8457       3176.505       4638.903
       3431.129       2148.143       3890.285       5751.859       6357.954
       5505.358       1531.328      -1857.801      -2438.854      -2231.468
      -581.3354       1744.453       3611.995       5025.518       5851.104
       5470.255       2839.418      -1081.631      -3038.670      -2203.518
      -2060.227      -3447.981      -4806.623      -6774.533      -8832.406
      -7815.494      -3824.101      -2479.386      -3669.274      -3490.148
      -2522.252      -2624.427      -2754.005       365.8838       4257.798
       3872.137       1807.442       771.6060      -54.58740      -1040.059
      -1821.365      -1316.865      -580.0181      -766.8354      -504.8311
       979.7290       2741.250       2421.635       1791.959       2866.864
       3369.496       1811.277      -28.81409      -420.5413       650.6914
       2055.201       1417.507       641.1094       1048.531      -210.6279
      -1880.903      -2535.717      -3044.979      -4184.197      -4365.492
      -1868.465       953.7100       2682.714       4038.336       4838.210
       3774.972       619.3467      -1966.615      -2621.569      -2408.779
      -2742.777      -3216.367      -2649.318      -1337.423      -1025.402
      -1651.658      -1579.528      -1711.146      -2552.781      -2450.948
      -2636.401      -2467.423      -787.0778       395.5664       70.28809
      -1433.638      -2108.569      -2117.083      -2367.236      -552.3438
       3291.873       5421.917       4001.532       1859.809       1033.841
       647.6577       404.1255       1024.207       1864.011       1788.749
      -132.8262      -2861.217      -4683.394      -4787.407      -2466.461
       504.1182       2009.912       1265.803      -961.8403      -1365.080
       190.9648       1359.776       1103.639       429.1328      -578.0713
      -2602.322      -3735.173      -2616.323       289.2578       3369.480
       4562.789       4561.291       3511.672       1187.809      -447.6154
      -146.6204       1111.086       1967.229       2729.353       3578.207
       4556.232       4528.317       2222.722       1359.097       2003.547
       1366.862       562.3457      -658.2993      -1776.194      -1472.849
      -1981.387      -3341.852      -3270.966      -2094.783      -1493.880
