     0.02500000      -12669.50       15298.85      -12345.00      -12345.00
      -30.00998       216.3400      -17.81000      -12345.00      -12345.00
       0.000000       13.49000      -12345.00      -12345.00      -12345.00
      -12345.00      -12345.00      -12345.00      -12345.00      -12345.00
      -12345.00      -12345.00      -12345.00      -12345.00      -12345.00
      -12345.00      -12345.00      -12345.00      -12345.00      -12345.00
      -12345.00      -32.11960      -68.98490       1817.000       0.000000
      -31.59500      -68.73200       0.000000       105100.0       0.000000
      -12345.00      -12345.00      -12345.00      -12345.00      -12345.00
      -12345.00      -12345.00      -12345.00      -12345.00      -12345.00
       62.90144       202.2987       22.43150      0.5655740      -12345.00
      -12345.00     0.05344265       0.000000       0.000000      -12345.00
      -12345.00      -12345.00      -12345.00      -12345.00      -12345.00
      -12345.00      -12345.00      -12345.00      -12345.00      -12345.00
      2008        13        10        50        45
       210         6    -12345    -12345      9855
    -12345    -12345    -12345    -12345    -12345
         1         7        13    -12345    -12345
    -12345    -12345    -12345    -12345    -12345
    -12345    -12345    -12345    -12345    -12345
    -12345    -12345    -12345    -12345    -12345
         1         1         1         1         1
CLAR    -12345          
        -12345  -12345  
-12345  -12345  -12345  
-12345  -12345  -12345  
-12345  -12345  -12345  
-12345  -12345  -12345  
-12345  -12345  BHZ     
ZL      -12345  -12345  
[...]
       488.7363       477.8927       494.7844       483.1471       490.9153
       481.5663       497.4135       479.7543       494.7019       477.9646
       490.8730       476.3414       482.5209       467.2551       481.9316
       468.2437       477.7710       462.4656       466.4685       451.7869
       461.4834       444.9131       455.2494       436.6887       443.1985
       429.2083       434.8285       417.6051       421.6929       400.0233
       407.4452       389.8466       397.1455       380.4136       386.8966
       369.8616       372.1934       354.9165       361.4393       342.7695
       347.4855       327.2827       336.7545       317.4337       323.3677
       303.4186       305.4868       286.8907       296.6765       278.1978
       281.4327       262.5074       270.0690       249.9688       256.3019
       241.4975       246.5447       228.0007       241.4270       228.0552
       234.3873       214.0582       222.4139       210.6046       220.5232
       202.6814       211.2477       196.4496       209.3636       188.6577
       191.1682       179.4886       193.2770       176.0222       183.5629
       171.4320       182.9501       167.3395       182.8391       162.7322
       169.8600       150.6724       164.5058       145.7859       150.6001
       138.1029       147.9453       130.7012       139.7451       121.9835
       129.9852       110.6227       118.9938       103.6113       113.9123
       95.48181       108.0736       90.95972       104.6933       89.20609
       96.96353       79.39771       99.05136       89.59924       96.70630
       82.74084       103.4416       92.15399       101.9538       86.59637
       104.0291       94.31497       107.1927       95.88843       111.8926
       96.17377       110.2274       99.99460       113.3080       97.95102
       114.3664       104.9737       121.2562       109.7383       122.0427
       104.9556       111.9797       99.09534       109.5497       90.72763
       101.0118       86.29962       93.49026       75.62619       85.36472
       68.77486       69.58435       49.73833       55.37655       38.16259
       42.04643       21.16612       21.76925      -1.454285      -3.836952
      -29.67205      -35.89183      -53.58101      -53.76126      -81.83643
      -85.51981      -108.1581      -106.6755      -134.4536      -136.7897
      -161.4724      -160.6877      -187.1762      -187.8812      -207.6926
      -211.5780      -235.4512      -237.7233      -259.2969      -255.4231
      -276.9530      -275.0995      -297.9056      -301.4950      -318.8580
      -318.3258      -337.2426      -332.1101      -348.8356      -337.8718
      -351.5229      -348.6688      -361.1641      -353.6711      -359.9688
      -351.5911      -356.5367      -341.9033      -352.9788      -347.5107
      -418.2549      -700.0044      -1563.274      -3004.424      -4439.385
      -5724.619      -6776.941      -6426.539      -4984.160      -3929.640
      -2588.752       1010.670       4487.778       4272.828       2931.402
       5390.666       7366.840       5096.001       3123.676       2494.431
       453.5068      -1095.384      -678.3750      -3654.262      -6039.565
      -2278.858       2849.625       3754.502       1652.881       4752.131
       7643.182       3367.971      -1689.174      -3262.418      -5586.656
      -7337.413      -2892.957       250.9690      -1168.998       2667.649
       3388.180      -2457.367      -1717.771      -397.6064      -2602.454
      -1895.434       917.8562       934.3945       1393.672       3929.910
       714.5894      -1957.156       68.90918      -205.9258      -2921.548
      -942.8340       2747.232      -1129.577      -3263.168       3184.339
       6206.018       2505.748       983.5566       2048.842       2024.053
       513.9510       508.0225      -363.5977      -2456.209      -702.1865
      -1792.668      -4229.240      -3146.405      -82.54736       2120.316
       999.8253      -143.8025      -243.8181      -943.7970      -604.6702
       472.6614       397.1533      -1409.023      -3878.945      -2669.305
      -621.2939      -836.7012      -1254.571      -1477.056      -765.1367
       2534.218       5247.328       3232.452       1624.218       183.9944
      -1536.174      -810.6421       81.05127       879.9878       1040.453
       704.7500      -21.46436      -493.4399      -1210.946      -2363.166
      -2301.783      -2496.449      -3071.912      -3844.457      -213.9805
       5177.343       3197.110      -166.0674       1344.102       516.4072
      -3157.416      -4135.342      -2625.429      -1080.571      -1971.349
      -1814.365       306.5698       432.2583       1257.550       3779.716
       2026.283       10.33789       2406.494       1515.383      -3034.461
      -5332.411      -3804.052      -161.3025       72.60645      -334.0820
       3031.753       1917.476      -1642.011      -366.3669       1752.390
      -18.79492      -2753.878      -2881.098      -1102.861       1367.229
       3131.966       3024.423       698.8252      -198.9551       1593.563
       1947.050       1259.915      -322.1411      -1215.539       837.9734
       1582.436      -116.6316      -1487.206      -588.0873       489.7996
      -887.6929      -811.2729       778.2524       978.9305       260.7217
      -830.3717      -281.4150       740.5884       762.4609       2568.142
       3764.260       995.7280      -2173.312      -2702.970      -1903.315
      -1006.725      -733.9690      -1063.158      -670.5371       1079.705
       2634.763       2688.233       2225.941       1868.773       1109.642
       1149.179       1457.398      -742.8569      -2907.739      -1101.643
       1523.313       941.9358      -964.5137       289.9165       2594.275
       1273.608       109.7139       1466.115       1976.588       1582.050
       735.0363      -269.6050      -833.1335      -406.7759       1003.352
       1211.347       1465.919       1188.866      -430.6679       156.7375
      -8.400391      -2939.479      -2934.683       421.8075       397.6340
      -30.69751       1225.350       690.0375       589.3267       89.07300
      -147.6250       1864.818       2216.158       286.1009       73.60986
       740.5918      -543.9895      -1209.635       173.3606       807.6030
       991.7366       1238.504       699.3596      -285.3052      -1316.574
      -1091.371      -1895.579      -2251.654      -740.2395       303.8328
       1237.881       1518.541       2092.506       2125.662       2047.257
       1072.089      -808.8276      -834.7083      -875.7810      -577.2708
      -542.6647      -681.5387       120.8970       418.0646      -282.1606
      -900.1331      -844.6140      -1093.350      -261.8878       149.5474
      -913.2869      -424.2972       59.77222       202.1545       1196.104
       349.7129      -2827.312      -1604.470       1947.986       1459.045
       911.0586       877.4041       496.2793       2728.970       2704.116
      -1400.312      -3757.754      -1782.588       1860.739       1727.505
      -1812.575      -3538.341      -2832.229      -1778.865      -933.3483
      -377.6931       588.6328       1585.719       3097.551       3592.434
      -251.7207      -3479.484      -1783.066       1095.615       731.9009
       207.1621       1951.948       2413.007       1279.303       732.1270
       676.1821       735.4136       1847.437       1927.107       732.6531
       49.18994      -2607.564      -2820.382       492.5291      -93.93750
      -2599.279      -1299.410       1901.758       2737.952       875.0177
      -680.9131      -657.1097       66.11353       599.6481       375.2960
       94.60107      -1282.949      -1521.557      -950.7236      -2363.854
      -1939.892       802.9917       2409.279       1956.340       2162.041
       1719.559       181.6794       937.6113       1195.851      -978.6321
      -736.8831       1173.925       786.0348      -187.8291       93.25122
       597.3359       1951.802       1802.653      -1005.888      -2223.665
      -1584.421      -812.2582      -882.0815       963.7222       2930.375
       1790.559       1156.353       819.6877      -99.45923      -412.9302
       226.4109       1319.507       444.9146      -1277.149       179.9115
       925.9451      -993.9065      -1431.146       870.5127       2889.676
       263.9805      -2259.815      -2118.485      -2448.682       58.05176
       1911.924       340.8134      -424.1075       342.8018       946.8477
      -516.3213      -1566.868      -1369.585      -1526.205      -1959.719
      -2785.982      -1754.129      -982.6095      -277.5664       1214.944
       1946.075       2232.451       387.1887       361.8003       2006.287
       1057.438      -266.5841      -568.7461       349.2944       630.9949
      -165.8018      -1342.795      -2370.688      -309.8929       1440.372
      -1127.777      -1659.903      -127.1978      -1302.431      -2047.321
      -751.2173       137.1035      -713.6504      -1391.373      -1182.526
      -857.4183      -248.9233      -741.0811      -1257.102      -1548.490
      -1970.158      -1316.635       977.9658       2501.082       1268.226
      -2.479248      -851.7744      -554.4924       951.0655       666.1379
      -931.4203      -688.8359       2218.872       898.8921      -2689.177
      -1678.727      -587.1855      -2011.519      -1157.677       1969.603
       1569.754      -921.8276      -2085.896      -2746.469      -2577.442
      -1777.333      -745.4512      -341.9978      -1208.704      -1259.842
      -1072.024      -2000.367      -1339.672       228.6147       859.1187
       1398.560       1082.702      -847.6211      -2259.924      -2115.276
      -1868.578      -1095.376       311.5562       368.2385       380.7515
       298.0195       635.3525       1007.072      -612.9531      -1851.590
      -1016.397       29.25879      -1024.431      -1428.489       861.7703
       1185.912       50.15894      -635.4177      -802.1433      -418.2797
      -180.6434       371.6938      -766.8965      -2588.098      -2340.812
      -836.1985       292.3961       85.63544      -399.5961      -208.5269
       47.16223      -232.0167      -233.5880      -161.9619      -975.0022
      -1114.658       143.7209      -789.8433      -2030.444       282.5197
       1434.897      -1267.803      -1737.174       403.0146      -564.9568
      -1357.588       714.1787       2913.182       3856.066       3490.015
       3824.171       1929.450      -1475.055      -1044.712       41.35449
      -1464.566      -748.1733       1716.941       355.4061      -416.8838
       355.7615      -1137.866      -1441.852      -312.0703       292.4392
      -765.4595      -2050.201      -2549.183      -3961.640      -2724.837
       1063.588       2567.061       2978.642       4265.069       2727.697
      -1989.204      -3622.008      -2694.136      -1584.713      -424.0527
       336.2425       847.5459      -961.7805      -1669.566       1455.867
       3981.350       3616.767       2958.904       3690.761       2519.239
      -1770.098      -4239.589      -1126.022       2471.376       1843.142
      -1005.498      -2075.624      -2779.979      -4650.561      -4732.447
      -2423.239      -69.09277       2041.100       5763.469       7547.348
       6891.639       5539.333       3068.652       1671.983      -809.2559
      -5254.268      -6251.626      -1237.408       3086.783       1812.642
       670.7017       1906.064       2767.836       5416.475       8216.778
       6166.847       3161.356       3572.337       5040.206       4423.622
       2939.147       1724.672      -2277.072      -4752.074      -385.4297
       4398.069       3280.649       685.9019      -1165.164      -4712.833
      -5879.274      -1917.367       3747.225       4268.314      -2425.840
      -6063.865      -437.8242       7396.263       7582.288       131.0010
      -4390.336      -2420.660       1089.930       3562.970       2520.322
      -4285.188      -11715.37      -10870.30      -4066.102       84.29688
       3007.182       6045.822       7028.172       9264.205       9760.510
       3234.288      -3210.705      -3229.925      -2303.324      -3121.987
      -2180.846       46.94653      -1.716797      -2117.917      -2631.428
      -1171.974       670.6738       2023.004       2396.979       3567.676
       4881.330       5159.617       5518.977       6402.938       7153.215
       8010.523       7122.589       3500.718      -344.7617      -5573.973
      -10544.31      -12669.50      -11914.56      -7525.293      -4218.520
      -4272.742      -3567.871      -3264.410      -4952.797      -7090.680
      -7287.383      -5112.438      -4298.854      -3420.213       1984.695
       8564.523       11856.09       13733.84       15298.85       13852.15
       8109.323       1334.754      -2842.525      -5063.135      -6167.748
      -4991.112      -2197.325       1030.183       2504.062       2681.941
       4542.521       5333.482       3965.552       1612.932      -3097.746
      -6844.461      -6236.867      -3044.985       1100.295       3395.441
       1560.489       414.3691       2260.125       2247.041       803.7957
      -813.4629      -2476.578      -2799.928      -4108.750      -5215.644
      -4427.781      -3127.312      -2154.151      -2175.882      -1765.121
      -2878.057      -5513.428      -5801.924      -5992.558      -5915.543
      -3751.883      -1810.409       1274.148       6248.529       8787.012
       6527.071       2281.139       258.1693      -93.47595      -57.23047
       1453.287       3595.864       3361.776      -146.8438      -2676.004
      -2348.665      -3151.551      -5261.055      -2852.427       1783.934
       3033.478       1417.810      -1109.478      -1525.153       139.8916
       1548.981       1989.313       3036.078       3090.621       1342.775
       2514.547       4498.010       4230.431       3162.410       1741.276
       227.8418      -2456.323      -4526.957      -4019.564      -4323.613
      -6802.094      -7825.825      -5980.121      -4350.228      -3891.041
      -2736.614      -781.8286       615.1982       707.8145      -115.0156
      -1305.259      -2119.277      -2004.385      -1898.194      -749.0957
       2528.270       3863.206       2790.369       2256.273       2667.245
       3400.359       3732.915       3617.997       3616.792       3960.261
       2596.274       672.2363      -1482.711      -3898.749      -4014.596
      -3958.977      -5944.561      -7654.654      -6532.562      -3073.198
       364.4148       1388.602       80.27051      -2359.705      -3502.664
      -1958.928      -372.0210       801.9143       727.7481      -461.0852
       253.7500       1874.688       2452.364       3100.557       3916.732
       3976.479       3172.881       1444.940       286.8396       840.2629
       666.8782      -439.8088      -674.1558       694.3667       1332.902
       506.5139       60.29639      -1367.283      -2280.490      -1774.625
      -2492.153      -3111.205      -1006.286       1144.038       1185.668
      -249.5425      -1813.580      -1384.925      -1177.182      -1506.238
      -161.9536      -248.8193      -1820.628      -859.2415      -205.1631
      -1810.802      -1978.966      -600.2969       53.39502      -1001.393
      -2085.374      -1500.298      -1414.479      -2799.152      -3429.245
      -1679.641      -214.6318      -2479.027      -5597.490      -7235.602
      -8000.172      -7409.902      -6475.169      -5390.833      -3388.276
      -140.6475       2934.322       4525.816       4929.301       6235.480
       7463.789       5410.878       3830.906       4368.518       4600.897
       3234.924       125.7131      -1561.699      -930.6045      -599.7402
      -938.6167       21.79883       2259.113       5651.240       8032.472
       6283.831       3720.451       2877.478       2134.397       1433.060
       468.7410      -1079.735      -1773.729      -1998.506      -2502.125
      -1868.240      -876.7870      -391.3745      -33.45001      -219.5291
      -510.8747       20.57898       685.1878       643.6440      -742.8242
      -2389.485      -2263.383      -1816.978      -1730.375      -2253.854
      -4323.352      -5703.812      -5827.877      -5042.817      -2371.284
       643.8271       1648.744       2594.924       4357.821       4446.671
       3423.490       2954.911       3568.584       3787.215       4190.348
       6306.707       7866.027       8584.910       8889.574       7759.084
       6326.103       4663.919       3061.383       1849.185      -111.2549
      -1022.547      -2154.388      -4066.645      -3921.322      -845.5117
       1224.950       352.4036       512.0178       740.0615      -1142.661
      -3287.769      -4173.093      -3624.587      -2380.206      -822.0728
       1552.612       3170.129       2650.565       1095.914      -1228.136
      -2372.014      -956.5845      -34.32227      -1286.562      -1616.775
       38.38330       1704.483       3185.989       3695.919       2014.002
      -668.1411      -2320.507      -1342.796       378.9163       1055.441
       875.9688       484.4033       1682.376       2135.678       514.7891
      -87.00781       831.2307       1170.995       509.8834       280.1616
      -1169.525      -3248.268      -2128.784       786.9570       2524.115
       3061.423       3678.026       4073.054       2791.418       570.9277
      -719.7656      -921.0752      -1060.258      -1266.279      -779.8357
       149.7552      -169.1055      -479.8159       792.2861       1963.043
       2620.388       3544.146       4052.718       3382.090       2009.875
       1304.025       649.4972      -502.7485      -677.3352      -550.7039
      -594.3501      -670.7715      -2359.680      -3002.586      -1078.701
      -800.7729      -1911.059      -1276.359       15.47931       438.3643
       79.86523      -508.4851      -771.8644      -369.7446       593.4229
       1459.616       1217.043      -219.6606      -1272.539      -1723.870
      -2191.188      -2167.218      -1153.485      -613.9600      -1374.950
      -572.4043       1846.864       2523.925       1843.323       1617.642
       1405.548       1395.602       486.3389      -1652.541      -2504.590
