     0.02500000      -16685.34       20357.79      -12345.00      -12345.00
      -30.00998       216.3400      -17.81000      -12345.00      -12345.00
       0.000000       13.49000      -12345.00      -12345.00      -12345.00
      -12345.00      -12345.00      -12345.00      -12345.00      -12345.00
      -12345.00      -12345.00      -12345.00      -12345.00      -12345.00
      -12345.00      -12345.00      -12345.00      -12345.00      -12345.00
      -12345.00      -32.11960      -68.98490       1817.000       0.000000
      -31.59500      -68.73200       0.000000       105100.0       0.000000
      -12345.00      -12345.00      -12345.00      -12345.00      -12345.00
      -12345.00      -12345.00      -12345.00      -12345.00      -12345.00
       62.90144       202.2987       22.43150      0.5655740      -12345.00
      -12345.00     -0.1042380       0.000000       90.00000      -12345.00
      -12345.00      -12345.00      -12345.00      -12345.00      -12345.00
      -12345.00      -12345.00      -12345.00      -12345.00      -12345.00
      2008        13        10        50        45
       210         6    -12345    -12345      9855
    -12345    -12345    -12345    -12345    -12345
         1         7        13    -12345    -12345
    -12345    -12345    -12345    -12345    -12345
    -12345    -12345    -12345    -12345    -12345
    -12345    -12345    -12345    -12345    -12345
         1         1         1         1         1
CLAR    -12345          
        -12345  -12345  
-12345  -12345  -12345  
-12345  -12345  -12345  
-12345  -12345  -12345  
-12345  -12345  -12345  
-12345  -12345  BHN     
ZL      -12345  -12345  
[...]
       346.8033       336.8729       317.0420       316.1405       297.2326
       298.5767       268.6649       270.8766       250.1649       238.8168
       217.7752       222.0387       193.9628       184.3551       159.0903
       149.5289       123.4303       118.6933       95.59938       87.78024
       57.48788       53.15656       24.48468       26.08516      -5.546577
      -16.01936      -41.06259      -32.95874      -73.00089      -78.52567
      -93.18582      -101.5442      -124.8568      -124.3260      -153.3332
      -145.4265      -170.5679      -176.2068      -194.1331      -191.5572
      -219.8142      -202.3116      -227.5470      -225.3096      -246.5651
      -242.1058      -250.8458      -247.4480      -270.5959      -261.9333
      -275.3822      -266.0850      -287.6077      -277.1553      -288.9906
      -279.6371      -299.5001      -289.6899      -307.7466      -291.8228
      -305.6506      -299.1509      -310.9540      -303.6505      -315.4597
      -297.6392      -309.5751      -299.7311      -306.8346      -289.8374
      -304.5292      -290.6393      -294.0553      -277.6096      -288.8070
      -271.6257      -281.7142      -261.3960      -269.1050      -256.7054
      -261.1642      -242.5378      -251.0025      -236.8711      -238.2507
      -215.7350      -222.6291      -210.7043      -216.7590      -190.7844
      -198.1216      -185.7085      -194.4190      -169.1208      -173.6345
      -157.2565      -162.6033      -144.8764      -147.1265      -131.6968
      -143.1248      -121.5494      -132.5638      -116.2674      -126.2995
      -113.3866      -119.9484      -108.3484      -119.3244      -105.5870
      -120.4973      -108.3753      -120.2332      -114.7209      -124.9255
      -113.3003      -132.1057      -121.3805      -137.3787      -129.3322
      -148.4590      -144.2913      -159.2103      -154.0434      -176.1890
      -165.4068      -184.7268      -169.4614      -186.3801      -182.3552
      -203.2353      -189.0508      -200.8354      -197.3634      -214.1875
      -198.9750      -212.4615      -204.1310      -222.4056      -200.7984
      -218.8519      -208.1664      -216.0266      -197.8065      -211.0664
      -201.7889      -212.0780      -189.8904      -200.1607      -185.0907
      -201.9538      -183.0770      -188.5419      -171.2888      -183.1092
      -170.0147      -180.1128      -160.8752      -175.0598      -158.9109
      -168.4150      -149.9496      -157.6047      -140.7999      -155.5825
      -137.6646      -143.4091      -125.3140      -128.4839      -110.1267
      -122.0608      -97.92081      -105.0102      -83.83685      -93.86060
      -78.32005      -83.52122      -64.99583      -76.33824      -53.78699
      -60.52269      -42.27231      -51.71884      -29.66074      -33.02618
      -6.411026      -15.51219       11.87404       6.506859       32.54182
       28.92755       53.29846       48.46587       73.04785       65.59625
       91.13196       90.05377       123.7827       109.5357       130.3393
       130.7575       158.1670       148.5282       170.0654       163.0391
       190.8981       191.0317       203.8394       186.4346       222.6982
       217.2530       232.0535       225.4861       244.7654       235.8120
       257.3823       245.5612       257.9609       244.4462       259.4160
       238.9733       255.5125       242.0018       254.3526       235.4464
       248.6727       227.8034       235.8156       213.8839       219.0468
       198.5017       203.7302       177.3281       183.3075       160.8995
       161.5431       139.5288       142.5844       119.9953       128.1189
       104.9367       103.4575       80.88483       89.58488       65.53088
       82.62024       101.8905       232.7759       472.3811       803.1663
       1159.778       1486.193       1563.451       1564.004       1437.727
       1140.196       455.8462      -295.3311      -980.9272      -1464.360
      -1695.164      -1696.654      -1942.885      -1415.929       210.2471
       952.9073       440.1869       385.6573       721.4199       595.9717
       1500.402       985.4052      -731.8408       469.8887       1295.697
       383.7915      -2156.606      -3470.535      -954.3638       799.9028
       40.66589      -495.9325       749.7952       982.8719      -963.9014
      -899.4717      -1888.004      -2015.036       1353.845       98.56006
      -1812.472       392.7584       1080.513      -404.7830      -462.2405
       1095.044       714.8376       1035.096       2028.172       997.4771
       306.0364      -241.2939      -1427.114      -1572.444      -212.0792
       780.5195      -1015.408      -455.3745       2443.701       520.3169
      -1012.961      -428.3328       111.9397       1368.610       933.6035
       992.3203      -436.2019      -1481.388      -629.2622      -1743.351
      -1681.016      -1036.902      -1172.696       9.812866       381.7368
       293.0410       1187.239       2962.483       3520.734       908.9482
      -1218.247      -1090.157      -386.4475       481.0626       379.6006
      -1165.631      -2216.878      -1477.322      -743.5923       589.9087
       1436.943       1816.926       2250.256       1957.493       3058.103
       2522.042       227.7402      -319.8933       83.66772       592.4589
       44.94678       363.7207       1657.621       1292.184      -411.6016
      -1291.260      -985.8119      -318.6113      -483.2744      -1293.441
      -1565.876      -1139.823      -951.4419      -506.1440       1212.898
       2815.284       2962.246       3063.790       2760.716       1156.514
      -357.2783      -1946.833      -2668.898      -1950.679      -1168.271
       339.2441       1791.682       1601.853       1700.335       1916.846
       720.1942       463.6124      -518.7770      -744.2864      -270.2092
      -860.5237      -767.6650      -1214.737      -1628.345      -988.5292
      -229.8892       389.0631       406.8496       446.1187       1039.054
       1444.271       913.7263       495.9217       267.8813       41.73120
      -675.9922      -1068.487       196.9465       716.8328       594.5122
       495.2534      -259.9296       452.0603       502.1162       173.8843
       1083.819       652.6768      -684.6777      -968.1871      -367.9277
      -214.2783      -1119.342      -2250.978      -2636.185      -1966.865
      -1393.036      -676.6016       236.8125       1615.402       2419.617
       1601.831       1046.445       946.4582       305.1099      -873.8135
      -1871.717      -1890.620      -1905.344      -1236.365       175.9161
       564.6718      -230.0366      -1021.732      -1250.157      -266.0999
       805.9478       1141.088       2021.804       2005.178       845.6449
       608.9370      -437.7930      -2019.667      -2673.909      -2592.007
      -1677.871      -1322.947      -2069.022      -2839.737      -3119.488
      -2441.818      -1581.669      -206.6758       1261.844       1249.631
       205.2651       365.9140       176.3082      -345.6359       587.6406
       347.1039      -459.0676       320.0550       355.4775      -622.9033
      -1024.153      -1828.540      -2230.046      -185.0020       1266.457
       393.9375      -476.2102      -718.9564      -621.3683      -104.0710
      -540.7864      -1133.687      -1383.903      -1124.295      -962.4919
      -1365.554      -1216.512      -1391.926      -1262.813      -559.9052
      -5.465820       1406.726       2448.648       1821.249       831.2761
       1079.480       1719.570       1803.679       748.3636       301.6772
       1011.054       772.8073      -221.1123      -744.3889      -137.8521
       627.8740       887.8025       892.2617      -373.4746      -1062.796
      -675.0779      -719.5740      -762.8082      -30.94580      -363.3296
      -779.0854       499.4833       12.65503      -1415.762      -26.58643
       719.4385       775.6143       1381.780       852.8101       724.5166
       775.0607       34.43225      -88.17854      -89.17529       234.2129
       1087.185       949.4491       395.8433      -73.96265      -444.0570
      -193.0138      -708.4257      -330.6399       408.0598      -277.4968
      -351.9535      -99.17392      -352.2395       330.6794       798.5895
       82.99316      -1286.676      -1545.412      -947.1809      -1353.969
      -728.2228      -34.77063      -670.3301       1300.699       3336.251
       2959.605       2842.472       2658.101       1589.166       696.9166
      -496.1204      -1085.238      -432.5831       115.3193       832.2036
       1299.549       1033.016       333.8525       284.0229       1109.566
       1114.596       644.0605       197.2344       353.7259       159.2524
      -653.6533      -934.4059      -440.9790       409.3405       603.9768
      -573.4033      -1119.235      -581.5785      -218.9314       29.83704
       180.0942       575.9995       1399.707       911.8285       227.4260
       329.7904       239.0653       271.8462      -429.3169      -682.2402
      -377.0083      -736.6892       274.6191       991.1147       610.7246
       908.1938       1476.042       1095.649       353.0334       734.4131
       1799.736       1420.895       535.3193      -228.6960      -853.7384
      -399.2082      -49.40015       365.9706       311.5325      -483.6782
       1140.801       1297.948      -659.7227      -1461.631      -1951.520
      -706.0950      -126.5979      -1148.542      -1326.788      -1436.910
      -619.4731      -130.3303       52.89429      -268.7145      -408.4254
      -14.96350      -737.1671      -19.87158       1795.616       2540.420
       2590.566       1887.200       1257.368       825.2542       292.4209
      -378.5911      -547.9717      -922.9209      -2053.310      -2134.327
      -1069.827      -715.5820      -843.3447      -1458.818      -1481.204
      -254.4650       443.5542       868.4312       1798.060       2189.676
       971.2512      -392.2562      -470.6095      -57.78772       216.0947
      -1224.245      -2058.197      -426.5591       1063.017       1181.044
       1036.064       1498.646       1486.880       1322.035       1527.557
       598.9229      -936.9375      -1590.554      -1126.651      -942.7883
       711.3083       1963.548       168.5625      -1073.543      -379.1143
      -223.8867      -1209.648      -1150.149      -445.4098      -380.9215
      -222.6691      -195.4426       87.62622       360.3950       870.5542
       1580.907       782.2175       155.3569       913.4613       676.5865
       59.89221      -38.92529      -832.4438      -1466.077      -1073.489
      -568.6313       401.6448       558.9958      -594.6917      -1313.235
      -294.3872       221.5866      -221.6470       462.6768       1187.514
       1578.460       1990.627       1163.236       388.5029       458.3770
      -343.5068      -1638.003      -1194.779      -648.9102      -1391.329
      -1803.699      -1445.844      -1110.088      -366.9634       974.3008
       1069.014      -115.3016      -397.5554       144.3516       1536.511
       2675.618       1931.268       345.8044      -543.2178      -734.3989
      -634.6744      -490.6810       55.87476       580.7119       483.2098
       58.08862      -443.4431      -960.5005      -474.3922       103.3118
      -305.4380      -291.9607      -101.6472      -196.7544      -1033.482
      -2295.921      -1533.460      -1476.696      -1441.165       735.5032
       1604.637       798.8953       782.6091       731.5566      -161.9252
       345.7548       286.1489      -773.5699       264.3385       219.7888
      -124.3547       632.3652       1305.182       1774.832       1637.545
       1691.454       229.7422      -1570.783      -1040.657      -828.1013
      -626.1578       207.9418       606.5767      -152.0166      -1677.036
      -1994.337      -1908.215      -3041.123      -4830.336      -6485.721
      -6981.062      -5880.656      -4049.519      -2644.512      -3135.555
      -6022.254      -9299.883      -11596.91      -11284.56      -10266.80
      -9025.242      -6716.512      -6699.049      -9113.887      -10917.84
      -10683.22      -6509.967       1161.893       7441.680       8516.685
       4853.577       1614.291       3548.023       9609.785       16039.65
       17710.34       13468.03       7465.107       4141.547       5542.324
       10873.66       15168.75       13328.06       7651.426       4721.480
       5301.232       3166.211      -4796.664      -14177.59      -16685.34
      -9054.291       1411.695       6584.718       3466.603      -2367.059
      -4867.535      -3747.323       1288.648       7956.859       9714.162
       2501.287      -7869.891      -11989.63      -9356.510      -5053.843
      -1083.141       3331.445       8654.535       15317.88       20357.79
       19806.46       13914.30       4794.089      -3680.771      -7511.795
      -7811.932      -7687.527      -8111.842      -7920.270      -6064.478
      -3320.104      -512.8123      -176.3877      -2145.497      -326.1152
       3593.494       4851.878       4596.749       2306.577       219.6462
       429.7178      -2392.113      -8434.672      -12173.65      -8924.068
      -1482.506       2902.102       3132.273      -750.0117      -4353.584
      -3220.807      -3514.821      -3732.954       2127.650       9385.785
       11965.12       9696.038       5397.237       1605.161      -371.4119
      -183.9802       178.3096      -2955.840      -7099.371      -7608.339
      -4948.793      -30.96387       4351.859       6390.174       7208.660
       4775.863       1060.034       168.0688      -1241.113      -4819.455
      -7590.145      -7388.096      -3507.040       2421.516       7693.693
       10221.22       9546.033       7387.595       4987.574       2057.674
      -2917.287      -8244.250      -11912.89      -13477.97      -11186.98
      -6373.368      -4543.381      -5964.571      -3243.998       4489.281
       10334.97       11825.95       10553.15       8063.873       5411.293
       2356.228      -2902.160      -8824.047      -10778.40      -7187.437
      -1218.661       2340.000       4944.098       8740.082       10390.93
       9856.207       6482.758       520.5127      -3651.602      -4978.064
      -4820.148      -5301.581      -5407.005      -2447.098       725.0083
       1934.641       1016.127      -1188.270      -1070.547       1475.681
       4217.717       7040.662       8214.257       6019.018       1904.942
      -870.4238      -1410.602      -863.0667       676.2070       1638.381
      -102.4443      -2483.318      -2317.263      -1438.977      -3362.189
      -5810.943      -4155.071       34.57422       2872.059       3113.226
       931.3708      -122.0415       284.8047      -852.7012      -2916.908
      -3354.843      -2349.608      -1213.508      -325.3640      -846.2620
      -1080.001       95.57544      -283.2883      -803.2811      -248.0232
      -541.5848      -793.4518       38.37183       567.0503      -1080.079
      -3489.419      -3179.443      -960.9211       525.2378       782.9243
       1314.726       3470.393       5273.641       4214.995       1679.655
      -510.8428      -2341.692      -3564.331      -3773.882      -4587.859
      -6149.723      -6730.655      -5510.789      -2733.788      -534.2422
       1626.965       5114.250       7373.422       7443.318       6668.301
       6415.260       6816.775       5013.692       1135.576      -966.9141
      -968.6167       446.7812       1563.263       891.7524      -307.4238
      -3184.000      -6279.082      -6503.060      -5686.271      -4790.374
      -3204.525      -987.3876       614.5170       318.3604      -698.6172
      -861.2477       29.32263       509.8857      -1383.517      -2501.525
      -287.5049       1564.273       2591.299       3745.981       4309.436
       5486.824       7086.123       8357.512       8852.926       8041.617
       5342.039       2024.564       576.1006       218.2097      -1052.398
      -1508.933      -384.5873       414.4349       560.3167      -128.8086
      -1824.509      -4169.588      -6672.691      -7239.189      -5542.244
      -4796.555      -5810.279      -6088.138      -5142.055      -2700.234
       984.1191       3837.838       4974.457       4816.005       3515.205
       1096.856      -190.7476       816.1677       1310.857       394.8018
      -1639.979      -4367.155      -5387.026      -3615.219      -718.5767
       1445.108       1266.184      -888.8555      -3105.926      -5319.219
      -6266.359      -4518.018      -2140.380      -511.4373       326.3306
       1168.511       1786.796       1034.553       770.4590       2025.457
       2898.201       2664.522       1758.496       1030.823       614.0476
       292.1724       1726.909       4141.842       3430.704       404.9380
      -984.3745      -136.4473       596.9783       620.9199       1289.341
       1528.583       37.52637      -2246.119      -4470.584      -5779.301
      -5501.162      -4884.238      -4497.988      -2718.420      -38.23779
       1370.780       2416.629       3889.060       4714.385       5961.672
       6910.609       5859.230       3927.103       1820.023      -317.7510
      -2470.436      -4964.422      -6667.656      -6966.141      -6397.384
      -4763.463      -2327.793       52.94043       2432.161       3680.441
       3542.369       3359.352       2686.439       646.0918      -2504.059
      -4593.581      -3703.504      -1112.562       1360.987       2036.433
       1386.815       1092.059       189.7668      -425.8896       538.7114
       1805.188       3472.059       4891.317       3723.208       682.8918
      -810.6406      -376.6421      -668.2222      -1292.826       789.6299
       4095.129       5600.623       4461.177       2409.516       876.8701
      -1791.549      -4333.664      -4703.762      -4045.699      -3161.226
      -2303.536      -2023.961      -2596.775      -3459.369      -4315.276
      -4692.328      -3977.856      -2833.263      -2547.013      -2264.775
      -102.3223       3120.066       5242.016       5492.131       4226.470
       3680.032       3558.070       1528.195      -1183.416      -2206.754
      -498.9248       2415.442       4182.554       4692.855       4101.741
