     0.02500000      -28145.22       48505.60      -12345.00      -12345.00
      -30.00500       217.7450      -18.13000      -12345.00      -12345.00
       0.000000       13.99000      -12345.00      -12345.00      -12345.00
      -12345.00      -12345.00      -12345.00      -12345.00      -12345.00
      -12345.00      -12345.00      -12345.00      -12345.00      -12345.00
      -12345.00      -12345.00      -12345.00      -12345.00      -12345.00
      -12345.00      -31.12380      -68.07400       912.0000       0.000000
      -31.59500      -68.73200       0.000000       105100.0       0.000000
      -12345.00      -12345.00      -12345.00      -12345.00      -12345.00
      -12345.00      -12345.00      -12345.00      -12345.00      -12345.00
       81.54082       50.32571       229.9850      0.7331514      -12345.00
      -12345.00      0.3335632       0.000000       90.00000      -12345.00
      -12345.00      -12345.00      -12345.00      -12345.00      -12345.00
      -12345.00      -12345.00      -12345.00      -12345.00      -12345.00
      2008        13        10        50        45
       530         6    -12345    -12345      9911
    -12345    -12345    -12345    -12345    -12345
         1         7        13    -12345    -12345
    -12345    -12345    -12345    -12345    -12345
    -12345    -12345    -12345    -12345    -12345
    -12345    -12345    -12345    -12345    -12345
         1         1         1         1         1
CONE    -12345          
        -12345  -12345  
-12345  -12345  -12345  
-12345  -12345  -12345  
-12345  -12345  -12345  
-12345  -12345  -12345  
-12345  -12345  BHN     
ZL      -12345  -12345  
[...]
       155.0219       144.9731       144.5138       136.4702       138.1340
       125.4460       126.5817       117.9081       118.4593       103.9313
       105.2278       92.37158       90.04034       75.09682       74.63370
       61.38365       59.78426       42.81013       42.87514       28.32571
       27.19494       10.50505       8.555290      -8.870434      -11.88044
      -27.68846      -28.12515      -45.31319      -47.76245      -65.75270
      -67.10559      -87.24921      -88.58545      -103.8271      -105.1865
      -123.1395      -123.0177      -139.7274      -141.2835      -158.8628
      -161.7877      -181.1850      -176.9920      -191.6497      -195.0288
      -208.8022      -204.5425      -219.0644      -216.4507      -229.8858
      -228.4199      -243.4344      -242.4392      -258.3597      -255.9642
      -268.9935      -264.6222      -277.0846      -275.0574      -287.6815
      -284.1827      -294.6168      -289.1647      -300.3830      -295.2668
      -308.3053      -303.9293      -312.4142      -303.6257      -312.6337
      -304.3951      -309.1085      -299.8806      -306.9424      -298.3251
      -304.7396      -294.5904      -300.2286      -290.4850      -295.5482
      -285.2521      -288.2578      -276.2463      -282.7897      -269.2097
      -271.1588      -256.1650      -260.2490      -243.3737      -245.0975
      -233.4211      -233.5428      -213.0026      -212.2698      -193.2134
      -193.4664      -175.9561      -173.4312      -153.4436      -153.7420
      -132.8485      -131.2886      -113.1050      -111.8693      -88.87405
      -88.74319      -64.71535      -63.52995      -44.07776      -44.70766
      -22.30082      -22.36903     -0.9604263      -1.522003       23.04042
       20.97601       41.11627       43.76115       67.03711       62.69699
       81.69943       80.25354       99.31992       96.33694       113.3573
       111.5478       131.1041       126.5388       139.9463       138.7017
       153.3203       147.7582       163.3033       156.6790       165.9136
       160.6652       174.1897       167.2344       179.6646       173.9323
       184.3269       173.0330       183.4463       171.5920       181.1927
       168.8749       178.2269       166.7672       180.5259       165.4679
       170.9350       158.1685       166.1521       149.4829       156.8312
       142.3735       152.5191       135.7076       141.7899       123.7119
       130.8510       111.2974       118.9926       101.6945       108.2516
       92.67932       102.1445       84.02792       88.47472       73.85326
       81.30258       63.48039       71.89374       55.17702       63.13713
       46.83966       55.39177       41.17172       51.40642       33.06850
       40.99953       22.66244       31.09123       17.86806       26.88519
       7.047262       15.77194      -2.403139       8.008213      -8.847481
       4.884501      -12.74859      -1.242016      -19.52988      -5.603321
      -21.37289      -9.642693      -29.10443      -13.86976      -30.05006
      -16.89669      -33.50132      -18.75488      -36.83047      -22.17052
      -39.92091      -24.35384      -43.01701      -25.87000      -45.81425
      -27.70206      -41.87659      -25.62559      -44.26686      -24.56768
      -41.25961      -21.28078      -37.25604      -19.86329      -37.28172
      -16.42290      -29.64162      -12.51154      -31.52790      -11.41339
      -24.06225      -6.003036      -19.59388       3.847639      -13.48197
       6.148228      -8.042744       17.34946       6.531715       24.05626
       10.14330       34.02602       16.17409       37.26495       25.38255
       45.81403       32.20320       53.50189       37.26112       60.82617
       49.52475       67.40674       54.71161       74.85663       63.76758
       85.32993       72.68951       80.21945       33.95239      -222.3413
      -1081.624      -2121.293      -2834.973      -2984.210      -1038.851
       1956.327       2191.750       2672.655       1401.161       42.75098
       1123.610      -1025.855       239.9873       1088.288      -686.4546
       1354.528       388.7818      -196.2332      -234.2839      -2043.970
       909.7734       3107.229       2269.097       3645.812       557.7266
      -4390.735      -2888.886      -1685.724      -392.0771       2383.919
       2456.759       2541.140      -2012.843      -4492.883       211.9808
      -147.6128       546.7720       2528.296      -924.2959      -1248.192
      -1153.466      -1252.511       851.7129       2627.533       4066.719
       2131.988      -1165.492      -1696.915      -484.2535      -338.9089
      -258.6907       1040.511       916.6021      -184.2089      -323.2256
       770.6071      -275.9351      -1486.086       910.0754       1479.561
      -257.9512      -1516.148      -2595.871      -1530.205       741.7456
       1729.533       1257.421       1710.631       1560.312      -685.7539
      -3321.172      -2258.969       1431.806       624.1091       751.9597
       2203.193      -625.8960      -2116.228      -3035.991      -1547.451
       2416.763       1854.025      -181.9202       244.7637      -2093.722
      -1247.080       2385.547      -135.7960      -47.36230       1907.054
       366.9225      -261.2789       16.92654      -23.61890      -414.8099
      -989.8770       744.1526       1922.750      -1296.808      -1752.427
       721.9761      -88.94290      -244.7058       395.7104      -2470.470
      -1655.954       1169.010      -897.5525      -319.4995       2466.079
       1828.431       1729.276       1236.467      -963.3818      -2178.908
      -1274.327      -1205.673      -874.3059       716.4341       665.6172
       1840.438       1668.624      -1164.341      -1360.643      -1316.885
      -810.2002       1435.155       1388.722       126.2747      -1054.492
      -1958.619      -987.9644      -694.9504       723.1509       1827.349
       33.19458      -748.3494      -403.6200      -402.9631       922.7271
       1365.230       719.0303       79.59521      -1134.732      -32.53943
       261.4104      -1774.070       318.6855       2413.045      -442.5148
      -942.3833       435.2151      -360.6006      -421.8665      -610.3665
       548.2649       1376.493      -350.9781       317.3103       339.0015
      -2515.982      -2176.468       1155.029       1997.124      -508.7174
      -151.5090       907.7847      -313.9017      -367.0332       1307.785
       1919.584       767.5019       129.6528      -1144.528      -1131.464
      -314.2498      -1547.524      -576.1548       1887.892       2430.026
       1102.644      -433.0957      -3058.684      -2545.082       1490.676
       2657.215       1519.253      -637.6791      -1056.638       1042.734
       1076.096      -1389.522      -1693.891       492.0808       522.3741
      -373.3735       1005.019       1045.891      -220.5981      -516.5830
      -1479.430      -1170.448       204.3217      -186.8794      -1606.370
       824.5977       2265.481       443.9470      0.2590332      -929.4126
      -1585.993      -820.3577       628.8323       1102.586       956.3058
       1021.884      -1285.804      -1467.911      -171.3488      -839.1882
       1212.990       1761.210      -1070.477      -1789.614      -1462.156
      -200.5103       1207.026       495.7828      -932.2397      -215.8202
       39.26575       97.95728       1097.524       885.7432      -586.3926
      -1486.926      -723.9806      -339.0149      -4.594727       813.6882
       448.8013      -753.0186      -1679.938      -906.3369       274.3213
       57.02881       22.60693       740.9124       642.4827      -244.6304
      -872.0962      -805.2139      -2042.239      -953.4658       1605.025
       1332.390       629.3064      -693.7239      -1016.525      -545.8616
      -561.9196       551.4473      -16.90112      -1017.617      -1556.456
      -917.3408       3060.526       2482.826      -2217.345      -901.3733
      -593.3364      -2587.263      -124.9976       363.6704       372.3608
       1984.140       842.1924       952.5475       23.91870      -1302.077
      -813.1689      -1686.765      -503.0532       1110.252       386.2773
       768.2959      -320.2043      -1502.472      -173.8590       183.8325
      -111.6726      -198.6897       1129.342       904.8738      -1762.573
      -439.2983       792.5830       1696.050       3787.492       345.8892
      -3084.349      -1584.582      -36.23438       2109.064       560.7983
      -3179.199      -1578.256       988.0093       1150.029       1115.001
       264.6922       136.3809      -245.4180      -233.7456       1656.792
       335.7400      -1070.414       715.6865       1081.194       307.9335
      -65.15527       664.7013      -84.88525      -1249.730       552.3804
       888.6545       674.7362       1142.371      -1440.835      -1862.665
       286.5253       213.4238       1355.527       1539.166       24.01465
       235.4894       927.9197      -787.7373      -3399.736       67.40723
       3115.214       2177.210       135.4395      -1134.511      -603.1646
      -294.5352      -1498.002      -2520.329       1241.307       2758.628
       876.5195       1758.973       837.3374      -1814.520      -2480.605
      -1022.691       618.7163       1547.663       1345.122       87.95215
      -733.3462      -1076.146      -883.2509      -151.1058       136.4092
       1454.141       662.7328      -508.7917      -142.9942       237.0864
      -171.8506      -2182.970      -485.8477       2299.966       1424.244
       150.7422      -2127.869      -1846.318       1637.366      -25.96484
      -3016.992      -752.7422       1669.504       3376.486       2706.785
      -1000.573      -3834.097      -2511.526       1305.905       317.0791
       1088.760       2431.115      -206.3431      -84.70422      -575.8628
      -404.0774      -320.9370      -1827.908      -994.7632       521.7808
       722.0858       310.5024       746.8840       265.2671      -1430.372
      -1607.855      -755.3870       483.0767       572.1301      -205.7997
      -287.8906      -193.2883      -324.5647      -253.6042      -1359.143
      -980.6177       1283.021       1064.521      -610.3206      -805.2021
       799.8451       1295.601      -1379.661      -2623.253      -777.0815
       1017.699       1403.191       1545.115       883.6582      -1397.508
      -487.6133       2315.583      -342.7646      -2418.219       260.2334
      -954.2573      -1722.908       1273.248       267.6802       394.4434
       1945.985      -33.89648      -2666.341      -2450.170      0.5488281
       589.8599       949.9785       2589.216      -235.3882      -2152.729
       439.9944       369.7590       932.6484      -136.2878      -2302.234
       648.6133       1329.154      -103.4850      -478.4252      -438.0552
       857.9613       1382.780      -879.4912      -1905.535      -855.5267
       147.8276       775.5967       976.5261       1044.453      -526.6431
      -765.5693       1245.508       1409.668      -30.73206      -846.0276
      -80.22717      -955.1838      -99.68018       1714.609      -773.1229
      -243.5444       1159.432       339.0527       948.0637      -317.8516
      -1893.769      -820.6787       691.5957       1123.394       875.4257
       334.8136       145.9236      -104.3770      -375.3340      -1995.756
      -1579.078       2111.367       2384.140       62.10229      -1007.219
      -887.5552       1298.629       1471.384      -1118.853      -979.4814
       826.8301       1603.456       1457.539      -332.4570      -1337.705
      -580.2075       1037.963       2763.460       1492.467       88.74561
       637.3074      -1047.260      -2397.232      -731.4399      -1610.334
      -2409.048       2098.183       1469.352      -960.7710       2519.892
       1604.208       125.5913       2162.538      -209.9849      -1663.261
      -1126.440      -805.5872       306.3568       471.9229      -1571.115
      -3679.074      -1517.450       1838.625       2525.582       587.5807
      -744.7133       130.2812       284.9985       603.1172       2365.146
       3974.502       4831.331       4491.433       3611.715       6925.949
       8441.367       11771.05       21705.92       15266.29      -1598.232
       685.4189       7520.285      -3017.406      -13294.19      -11083.39
      -1686.676       3288.078      -4487.879      -15672.34      -21795.87
      -7343.184       13577.25       7680.844      -10310.95      -17069.59
      -12100.79       8337.148       17377.01      -3080.250      -21829.51
      -16110.76       5457.141       12035.49       11914.15       17919.56
       2500.914      -25657.74      -28145.22      -17905.31      -3196.180
       34934.48       48505.60       8633.676      -14375.63      -5769.896
      -6825.383      -10921.08      -13621.92      -3203.734       14245.26
       18150.42       5076.730      -11556.41      -8905.953      -9416.500
      -14393.63       26.15430       9052.355       3161.297       2449.229
      -1638.368      -5699.726       265.9463       4965.040       5365.835
      -259.9639      -5352.209      -4890.703      -4986.570       499.3633
       20039.25       20419.96      -7340.469      -26267.52      -27106.52
      -12480.41       10398.77       20982.49       8425.354      -1453.415
       250.9863       1265.852       9197.326       2867.482      -10007.08
      -2739.615       2003.991      -1535.243      -3383.575       226.3301
       5142.366       5910.792       3955.493      -6635.713      -6659.668
       8376.902       7267.482      -6901.930      -11088.02      -6347.746
      -4576.988       630.8867       11206.98       6175.367      -147.8125
      -4894.066      -13763.02      -7012.036       4291.086       4873.174
      -1696.360       2708.061       9178.783       5666.082       7793.120
       5720.154      -7796.357      -12855.83       3337.059       16406.90
       6283.910      -916.0020      -6852.002      -11114.03       1606.005
       289.4609      -7521.711      -438.9932       69.31055      -9313.306
      -6796.488       5846.123       8056.781       7148.128       4696.562
       3832.238       7000.332      -2396.027      -14086.54      -17042.66
      -3709.778       7900.971       447.0469       4108.734       8979.356
      -1157.727      -6165.578      -8310.377      -2532.216       4865.866
      -1393.441      -2440.773       9389.625       13828.67       193.6152
      -11180.03      -8700.297       249.7441       5827.787       5606.976
       2064.651      -5449.587      -5523.358       149.8350       4220.441
       2187.737      -5075.061       507.4570       8076.758       6689.677
       1340.773      -9773.145      -5137.537       6078.272       2201.979
      -2533.652      -6002.232      -8395.305      -1194.324       7787.235
       4642.835       947.9355       3959.725      -3505.395      -10883.02
      -1688.676       10719.98       6991.957      -5647.625      -7545.676
      -5941.914      -310.1875       3382.582       3549.951       7799.398
      -1573.580      -12708.36      -3159.701       10958.40       5406.956
      -6319.708      -2316.396       3117.703      -1098.229      -824.6270
       1492.475       5917.582       15147.23       9288.329      -5289.215
      -10888.84      -8907.520      -1563.106       2134.348      -294.7310
      -1994.092       1997.334       8836.641       6275.111      -5809.842
      -5813.745       3055.616       1662.365       3371.678       3236.135
      -6004.363      -4868.866       2407.664       4722.163      -1018.503
      -6735.298      -226.2051       6723.722       4065.062      -3338.856
       2387.895       14081.88       2931.402      -11994.82      -13646.86
      -5777.043       10096.75       10097.62      -5813.803      -10845.38
      -1546.560       5058.901       4868.442       5406.310       1868.415
      -2037.083      -903.1863      -279.5449       3467.409       5514.097
       1833.510      -331.5879      -3487.167      -6542.635      -3268.503
       3779.811       4520.881      -750.0052      -141.3633      -831.5273
      -7009.113      -4037.722      -2516.850      -1539.230       4986.684
       949.7285      -3492.396       5858.938       11234.07       745.5391
      -9512.460      -3809.211       5713.337       4601.492      -674.8594
      -6394.742      -5465.896       4086.730       7526.911       3402.859
       1934.587       3458.233       423.1885      -4195.023      -4753.821
      -4848.552      -929.9360       2765.202      -1570.858      -2841.993
      -1555.248      -2407.467       2465.819       6965.756       780.5811
      -4966.144      -739.3628       3665.337       759.4102      -4084.754
      -5143.923      -1372.731       2218.485       2114.688       902.1855
      -1444.941      -6239.209      -4267.830       4823.728       5831.145
       3665.882       1640.433      -852.4186      -415.5275      -38.83350
       2081.053       551.2531      -874.9292      -39.05518      -84.41016
      -5364.529      -9680.538       695.3164       7125.621       5173.304
       2899.835      -2737.794      -2466.451       1654.648       1016.229
      -1028.578      -3143.309      -3105.646      -1016.738       2723.639
       8467.181       4526.313      -3696.176      -1801.525       914.1250
      -2821.056      -4731.226       349.2690       2961.770      -1905.813
      -3378.885      -753.1030       885.0820       4990.174       6736.942
       1909.779      -385.7305       58.29102      -2667.969      -6098.732
      -4616.117       431.7285       1598.013       3722.080       5432.896
       805.5508      -2077.761      -4362.418      -4764.395      -2535.739
      -4177.040      -2766.362       1500.956       186.1689       505.7295
       4166.869       2998.574       2412.166       6718.238       5065.344
      -1024.837      -3748.693      -5191.162      -4362.823      -4140.029
      -1013.733       5174.533       3398.259      -587.0527      -4760.129
      -3773.564       1788.761      -1537.664      -1183.644       3189.270
       1590.694       712.0527      -3233.878      -6282.944       1582.591
       3934.317      -1795.456       3613.270       7785.334       2511.981
