     0.02500000      -18742.00       17586.05      -12345.00      -12345.00
      -30.00500       217.7450      -18.13000      -12345.00      -12345.00
       0.000000       13.99000      -12345.00      -12345.00      -12345.00
      -12345.00      -12345.00      -12345.00      -12345.00      -12345.00
      -12345.00      -12345.00      -12345.00      -12345.00      -12345.00
      -12345.00      -12345.00      -12345.00      -12345.00      -12345.00
      -12345.00      -31.12380      -68.07400       912.0000       0.000000
      -31.59500      -68.73200       0.000000       105100.0       0.000000
      -12345.00      -12345.00      -12345.00      -12345.00      -12345.00
      -12345.00      -12345.00      -12345.00      -12345.00      -12345.00
       81.54082       50.32571       229.9850      0.7331514      -12345.00
      -12345.00     -0.2814826       0.000000       0.000000      -12345.00
      -12345.00      -12345.00      -12345.00      -12345.00      -12345.00
      -12345.00      -12345.00      -12345.00      -12345.00      -12345.00
      2008        13        10        50        45
       530         6    -12345    -12345      9911
    -12345    -12345    -12345    -12345    -12345
         1         7        13    -12345    -12345
    -12345    -12345    -12345    -12345    -12345
    -12345    -12345    -12345    -12345    -12345
    -12345    -12345    -12345    -12345    -12345
         1         1         1         1         1
CONE    -12345          
        -12345  -12345  
-12345  -12345  -12345  
-12345  -12345  -12345  
-12345  -12345  -12345  
-12345  -12345  -12345  
-12345  -12345  BHZ     
ZL      -12345  -12345  
[...]
       130.0533       129.5695       147.4877       140.9260       156.8478
       154.7270       168.6396       162.6027       179.5827       178.7317
       189.5156       184.2249       200.6484       194.9514       207.4533
       205.5522       214.0532       208.7683       220.3475       216.2771
       226.9673       221.6671       230.6837       223.9622       233.3005
       225.6403       232.9221       228.2833       237.9763       230.4355
       237.1674       229.5712       238.3231       231.7293       238.5994
       229.8088       239.4642       229.9781       237.5961       229.0751
       238.2848       230.1689       240.3856       228.6306       235.6489
       226.1472       234.6684       226.0882       236.3163       225.1044
       234.7056       225.0761       230.8578       219.7637       228.7315
       216.9519       223.2224       213.8234       222.9150       206.7280
       212.9999       201.1842       213.2969       199.9273       205.2859
       193.4034       201.6650       187.7686       198.0970       183.9878
       195.1065       181.0274       190.0081       179.2632       182.9789
       169.9701       180.3426       162.7095       171.5385       164.2622
       175.6589       162.4452       170.1738       161.0023       171.4163
       157.0413       166.0403       154.6418       163.4871       150.5033
       163.5388       155.3799       165.2188       155.3384       164.9431
       149.6269       159.1309       151.2642       159.6512       149.3722
       157.9622       147.5814       159.1294       148.7145       155.4896
       147.1661       156.5038       143.8376       154.4630       143.3477
       151.7694       141.8672       148.7803       141.3627       154.4026
       139.6142       145.3024       135.0625       143.3426       132.5933
       138.3481       124.5489       132.7748       120.2170       125.4878
       113.1711       123.6260       110.8994       113.2446       97.59772
       104.5562       90.59595       94.23306       76.39944       83.84471
       64.25458       69.11873       53.73721       58.95621       45.67719
       52.30354       29.67805       35.21012       17.42934       26.85842
       4.246761       6.507355      -10.93444      -5.631821      -25.20575
      -15.38687      -33.79393      -28.98267      -48.51225      -42.68887
      -59.25122      -53.03854      -75.23495      -69.90845      -85.89200
      -76.97897      -97.38013      -89.33139      -107.1674      -99.24091
      -118.2822      -108.7141      -126.9964      -119.8996      -138.3751
      -131.2472      -147.7715      -136.4616      -151.2585      -143.9788
      -160.4164      -148.9154      -166.8950      -160.7387      -173.6360
      -163.4175      -179.9442      -172.6616      -188.9822      -176.2278
      -191.8285      -180.4523      -192.9960      -179.2619      -191.8687
      -180.3593      -195.3948      -180.4349      -193.1035      -181.2246
      -192.6553      -174.5706      -188.9783      -173.7766      -184.2028
      -169.6788      -180.7396      -166.1621      -181.5115      -167.7935
      -178.6237      -163.2110      -174.9543      -159.3604      -169.7389
      -151.7707      -165.3099      -150.5898      -163.1564      -147.9329
      -162.7877      -143.2789      -155.2573      -140.1862      -157.1998
      -139.4584      -149.7276      -131.8598      -153.8156      -130.1609
      -148.3428      -124.3166      -149.8883      -121.8964      -149.9335
      -105.0872      -165.9688      -159.4487      -370.0723      -1638.170
      -6398.965      -9059.334      -10945.82      -9236.057       5690.938
       10586.91       10216.00       3713.261      -5023.368       2597.853
       762.5759      -293.7090       3957.287       4079.338       2068.749
      -1799.558      -1284.515       993.5439      -2541.600      -4294.669
       5122.291       4669.960       839.3210       1289.508      -4316.836
      -3878.403      -2230.953      -4690.405      -2933.009       1935.286
       5929.013       2303.715      -3165.839      -1460.151      -1127.188
       403.7969      -2014.817      -861.5957       6898.847       4058.026
      -2520.364      -5387.351      -3063.353      -2116.405       2345.690
       6191.549       1459.703       1793.553      -930.3313      -1507.846
       2559.518      -1967.445      -1969.659       2448.113       1526.787
      -52.17993      -547.2246      -1426.860      -2483.999      -3076.823
      -3889.300      -1663.572       2489.065       1192.844      -3370.474
      -1024.303       1974.465      -194.0513       3433.121      -463.6040
      -4668.701       3127.382       2470.452      -221.6470      -423.2793
       268.1084      -3252.517      -2813.458       3090.795       1410.380
       97.65869       1495.077      -301.0186      -3323.830      -2034.220
       1867.813       3132.888      -2108.856       31.31445       2412.381
      -421.7769      -79.88574      -1945.834      -3765.579      -723.2666
       4788.261       1759.798      -1713.494       321.9284      -335.2993
       23.76660      -2567.856      -1700.110       1043.220      -3894.253
      -2935.385       1153.946       4521.297       2365.201       3700.907
       5447.572       818.2009      -45.46875      -2283.502      -5407.336
      -4573.144      -2969.698      -221.1230       7925.996       5446.495
      -793.7583      -653.3936      -3351.344      -4321.491      -2226.314
      -114.8340       430.3770       4181.759       3933.665       648.9281
       1332.456      -1792.680      -1690.616       1406.447      -1475.062
      -1228.616       4183.142       1944.595      -818.8945      -1131.604
      -3223.285      -951.3379       1600.052       411.9541       1722.355
       2553.787      -1247.277       1516.874       1177.299      -1595.145
       635.8779      -1201.895      -2124.154       2989.299       1512.330
      -2007.751      -745.8130      -3376.755      -532.9629       3682.332
       985.9749       326.1211       1189.658       2354.188       516.6104
      -1504.007       1085.427       411.2850      -883.6006       665.2598
       3467.487       3425.241      -227.9375      -2596.543      -1721.916
       1587.492       830.6724      -987.9586      -803.8495      -115.5040
       95.07227      -1444.432       248.4431       1963.767      -764.9675
      -1173.929      -751.7499      -201.0396       2182.000      -312.7729
       1827.548       3899.201      -1503.933      -1577.865      -49.16309
       1152.331       2587.053       128.6479      -2381.836       88.87927
       1012.421      -182.8840       65.09863       1174.703       2265.959
      -1101.338      -1475.503       822.7275      -1873.094      -298.1968
      -874.3701      -1951.029       1410.421       685.9424       1716.435
       2411.661       733.5748      -324.3647       1333.633       651.9941
      -3936.535      -1838.459       401.3104       284.7004      -209.1616
      -1843.287      -1058.971       964.0200       2155.646       1364.701
      -512.2168       184.7310       1920.233       3387.162       1052.842
      -3917.800      -2043.841       4214.567       1095.662      -3285.962
       1039.998      -920.8910      -916.4683       2040.303       1871.570
       585.6069      -904.1543      -1654.751      -4509.459       3017.657
       3871.484      -4584.893      -1864.814       3575.772       2001.101
      -711.2704      -600.8447       639.2788       1669.464       385.6895
       919.6013      -108.4102      -2060.457      -2672.525      -1238.076
       1728.873       1560.845      -2474.902      -2994.298       2203.604
       2245.322       1914.330       140.5964       912.5585       1244.916
      -1726.300       535.3599      -1053.065      -893.9196       472.2209
      -1218.596       162.6172       3317.028       1856.544      -2032.997
      -905.6660       1976.132       1397.482      -4763.430      -2779.366
       1618.588       61.70410       2904.853       591.7812      -1907.373
      -715.8042      -1361.752      -1051.295       1511.096       5633.184
       1112.217      -2469.005       367.4360      -854.2617      -2764.673
      -1177.263       942.4265      -64.20856      -419.9791       1753.188
      -1888.332      -4338.661      -709.2979       2224.281       2656.210
       192.4414       323.5332       1090.632       799.4209      -922.7415
      -2330.371       1647.444       3066.963      -240.2686      -2275.157
      -1423.704      -1673.572      -1385.948       31.99878       211.0620
       1852.396       3774.956       833.6523      -2734.664      -1420.959
       1833.953      -1628.555      -7331.576      -2265.604       2748.207
       3269.090       2486.575       1071.198       1260.776      -1928.618
      -4617.029      -1123.902       2145.065      -210.2023      -1343.838
       1666.975       1514.400      -1279.574      -2273.994      -960.8083
       1255.564      -255.6000      -152.4126       1168.883       301.1855
      -996.3481      -2411.978      -2076.827      -455.6822       79.86340
      -243.5543      -68.49268      -1252.061      -2155.755      -1379.590
      -44.80493       1014.452       1397.431       2954.328       1504.406
      -3867.777      -5145.519      -33.99023       4227.961       2127.582
      -780.8613      -211.0585      -218.2417      -1260.152      -1426.479
      -2521.585      -1703.828      -52.70227      -234.6516       1741.301
      -1516.852      -2780.801       642.0674      -3841.910      -2718.033
       372.3762      -287.1396       4656.778       5049.818       595.7646
      -2278.089      -3064.089      -2734.044       2408.646       2533.156
      -3785.292      -2463.986       1861.939       3919.374      -398.3271
      -6070.555      -1612.866       1466.189      -1501.157       425.7631
       303.3311       83.07031       2790.528       215.4653      -486.0212
      -147.0164      -1496.453       3411.231       2560.609      -4505.259
      -3283.631      -1918.105      -518.3652       1353.359       1191.117
       3455.343       2741.905      -2277.772      -3111.646       1240.806
       3521.236      -645.3513      -191.8574       3377.252      -1148.892
      -3668.806      -1296.812       2602.461       4223.651      -296.1606
      -3387.499      -1155.178      -666.5366       455.6304       2141.406
       1229.579       1462.059      -1187.357       431.3436       281.4102
      -1821.392       2101.174       1472.343       377.3750       913.4238
      -2004.202      -2276.472       572.9216       1459.756       137.5397
      -782.6895       586.6951      -1762.282       253.6484       5101.565
      -12.56567      -658.0059       1576.917       1145.464       2002.445
      -2744.121      -4695.926      -41.61328       1715.074       3334.358
       3675.390      -663.7534      -2537.579      -2216.023      -1334.997
       3522.066       3133.639       680.9141      -1183.322      -1667.647
       63.92041      -78.13477       1730.152       613.7061      -2528.457
       967.7028       406.6094      -2496.376       1457.435       427.2000
       736.3979       1196.737      -1966.414      -1738.298       424.6494
       1432.669       279.4072       3159.609       2968.093      -1588.397
      -130.8037       1401.534       2140.336       3826.396       1001.604
      -2251.062      -4155.062      -1821.896      -521.2864      -1140.398
      -512.3671      -162.3467       468.0170      -116.7422       2001.241
       3563.141       1115.825      -221.4697       2549.260       1794.084
      -1903.746      -1193.542      -613.9448      -1174.427      -653.0986
      -1792.552      -1736.523       3972.310       4384.199      -2966.579
      -4857.061      -864.1177       165.9182       1900.316      -154.2217
      -5265.747      -3172.689      -2796.031      -7237.871      -8724.752
      -7538.150      -7873.659      -6533.729       659.4834       7371.795
      -522.6289      -9192.112       969.8477       11602.23       14484.41
       16449.93       8274.490      -4880.868      -3884.387       5886.529
       12089.72       1425.582      -14782.13      -6775.646       5358.316
       6018.887       8392.854       2661.542      -4631.660       5389.883
       10212.43      -3852.516      -8415.545       2036.617      -1691.877
      -13631.74       1619.205       13617.45       224.1287      -1356.912
       3720.525      -720.3728       256.7031       516.8770      -9807.365
      -9227.570       7112.902       10651.00       6557.906       942.1348
      -10765.83      -7415.725       1911.989       1312.239      -3625.721
       2853.311       12863.00       6729.881      -6415.711      -15508.09
      -18742.00      -7827.415       7216.241       974.5127      -5125.273
       3751.719       13150.45       17586.05       11525.08       3109.672
      -3510.242      -10407.20      -10935.85       2514.309       10019.65
      -459.0420      -2257.431      -387.4414      -3967.945      -5424.765
      -1230.342       4566.747       5201.963      -3425.680      -7117.978
       214.4941       7583.721       2120.603      -7710.775      -1985.198
       733.1924       2846.149       4109.870      -5464.186      -7726.848
       1650.170       9074.971       4227.926      -6192.684      -2877.423
       3543.179      -2396.459      -3171.310      -447.9492      -5554.356
      -7410.254      -558.3242       10254.51       16800.08       8412.252
      -1416.695       747.9980      -4897.539      -13994.21      -4575.644
       2120.176       1941.205       7483.827       4214.518      -4667.359
      -2345.963      -6693.977      -7033.096       7139.695       3105.965
      -3443.965      -199.2700       1484.072      -188.9946       1702.826
       2232.318      -6731.522      -5459.821       1518.326       517.7417
      -2516.503       1936.414       8705.756       9690.486       5636.566
      -8001.930      -12468.75       1606.852       3677.011      -2137.254
       2573.283       4192.604      -4582.897      -5568.095       5945.965
       2304.641      -3068.243      -541.6279      -3569.459       3736.208
       5750.046      -4696.668      -5679.580      -7685.867      -7892.316
       6506.686       11496.26       7788.271       2164.742      -7036.449
      -10310.69      -3743.541       3105.195       183.9619      -1795.867
      -7871.294      -2117.205       11733.59       9376.607       1382.461
      -12732.19      -13987.57       3682.023       12864.61       13103.53
       13093.20       442.7695      -15906.84      -10350.64      -943.1021
      -4452.147       3841.850       9720.810      -6013.160      -13659.38
      -9017.051      -1545.672       8699.427       3994.120      -3103.774
       6950.673       5261.469       549.9485       129.3760      -3660.448
      -1652.865       1541.632       3976.969      -4577.264      -3400.779
       5232.225       3626.166      -2547.654      -9485.170      -3150.580
       2777.684       4470.576       8717.403       4651.298      -5313.267
      -5122.347      -1135.737      -4555.568      -1249.225       5771.291
       8106.961       7607.434       865.1016      -10142.11      -10238.12
      -4107.641      -3894.207      -2252.956       2089.213       3630.097
       325.0690      -729.7100       137.1299      -60.07812       3056.992
       7418.045       4246.764      -3651.231      -3764.109      -3263.936
      -6655.666      -5290.383       522.9609       7643.295       9240.872
       4617.536       827.8740      -845.1768       1381.889       902.7070
      -1880.291      -3602.073      -1744.822       2736.055      -1636.028
      -3213.419      -129.8828       4405.845       5980.316       583.5781
      -2184.845      -4528.609      -3345.481      -436.4727       5814.447
       8859.201       3425.009      -2218.125      -9026.170      -8685.890
      -3254.220       113.4141       2378.622       5690.400       1706.662
      -7998.295      -3784.800       2872.001      -1013.453       2805.990
       9167.953       2808.116      -4358.559      -6722.707      -2177.345
       3190.552       503.2017      -3789.632       2465.203       10135.02
       3405.188      -2749.888      -2158.325      -5557.420      -4037.466
       3815.776       1783.228       141.6793       1269.745      -1266.854
      -2888.783      -3414.009      -86.94482      -1033.836      -1467.045
      -850.3052      -1679.945      -499.2256      -2605.095      -920.9258
       2478.725       3800.123       5584.225       4635.359       1956.538
      -2048.320      -4665.755      -3429.366      -760.2910       4909.590
       8235.740       4267.420       650.1377      -3301.984      -8696.332
      -3102.608       2065.431      -145.8486       1956.024       2683.331
      -759.7705      -3535.576      -1931.710       1536.845       2811.809
       2575.875      -1785.671       719.1211       9561.047       5671.771
      -1969.247      -1853.702       2931.230      -660.2510      -5836.097
       325.9998       1439.980      -4313.903      -4168.431       438.2119
       196.2449      -1269.750       68.43604      -1198.304      -3197.110
      -2855.317       646.3047       3775.788       2589.167       1118.926
       799.0723      -902.4614      -3651.319      -122.6309       4430.425
       1889.994       739.6660      -1783.409      -6040.562      -2682.230
       1219.021       568.9248       1364.684       4400.006       4992.730
       2681.499       2767.974       3456.059       837.3174      -1777.504
       170.6387       2304.758       3545.167       5366.343       2810.117
      -2621.410      -6787.930      -6512.591      -5122.649      -690.6416
       5510.426       3839.857      -700.8484      -1323.961       2571.688
       683.8477      -4335.041      -1137.528       2835.390       467.8037
      -1721.595      -651.4092      -1532.739       652.7803       4335.614
       3656.047       3417.312       4165.107       3028.266       589.4580
      -54.84961      -992.1094      -6318.968      -4057.127       796.4594
      -121.2506      -451.1426       1457.228       3541.891       1060.073
       477.7310      -404.5244      -5044.811      -3872.240       456.9834
