     0.02500000      -35326.50       40265.99      -12345.00      -12345.00
      -30.00500       217.7450      -18.13000      -12345.00      -12345.00
       0.000000       13.99000      -12345.00      -12345.00      -12345.00
      -12345.00      -12345.00      -12345.00      -12345.00      -12345.00
      -12345.00      -12345.00      -12345.00      -12345.00      -12345.00
      -12345.00      -12345.00      -12345.00      -12345.00      -12345.00
      -12345.00      -31.12380      -68.07400       912.0000       0.000000
      -31.59500      -68.73200       0.000000       105100.0       0.000000
      -12345.00      -12345.00      -12345.00      -12345.00      -12345.00
      -12345.00      -12345.00      -12345.00      -12345.00      -12345.00
       81.54082       50.32571       229.9850      0.7331514      -12345.00
      -12345.00      0.2045326       90.00000       90.00000      -12345.00
      -12345.00      -12345.00      -12345.00      -12345.00      -12345.00
      -12345.00      -12345.00      -12345.00      -12345.00      -12345.00
      2008        13        10        50        45
       530         6    -12345    -12345      9911
    -12345    -12345    -12345    -12345    -12345
         1         7        13    -12345    -12345
    -12345    -12345    -12345    -12345    -12345
    -12345    -12345    -12345    -12345    -12345
    -12345    -12345    -12345    -12345    -12345
         1         1         1         1         1
CONE    -12345          
        -12345  -12345  
-12345  -12345  -12345  
-12345  -12345  -12345  
-12345  -12345  -12345  
-12345  -12345  -12345  
-12345  -12345  BHE     
ZL      -12345  -12345  
[...]
       86.39969       80.26480       92.88617       88.38538       103.3300
       100.4379       113.9958       106.5805       118.9903       112.6723
       128.0003       120.1562       133.1316       128.4908       139.5945
       130.0610       143.3790       137.6771       150.0840       137.8087
       147.1243       140.5964       152.3345       141.0883       150.3880
       142.2994       150.5234       138.8699       148.5186       137.6342
       145.0782       137.3449       146.8608       135.0028       143.4340
       133.9312       141.2144       130.2755       138.7235       130.0991
       142.9915       132.9841       141.0977       131.0246       139.5599
       126.3428       137.3975       124.9739       134.2915       123.9118
       133.5713       121.6215       131.2758       121.2141       130.0180
       117.5106       126.2339       113.3343       119.1161       106.7553
       115.0329       100.9859       106.5081       95.93356       103.8397
       89.88910       95.69452       86.06818       90.87549       76.03879
       80.62808       67.24707       72.14908       61.79721       69.35646
       55.83231       58.71335       45.89684       53.48324       38.97997
       41.97806       32.72288       39.47788       24.28651       32.80698
       22.28464       27.51126       16.33461       23.18701       10.46512
       13.86736      0.3237472       6.470659      -5.290928     0.08927345
      -12.58692      -3.516815      -16.69682      -13.91266      -24.62375
      -18.07791      -33.25987      -26.54448      -38.90242      -32.75981
      -40.30736      -35.54460      -47.97937      -40.65794      -52.68530
      -45.51593      -55.15280      -49.73746      -56.98833      -49.57825
      -62.49844      -55.05573      -64.77951      -58.52399      -64.62622
      -55.54366      -62.27353      -54.68491      -63.12300      -54.10526
      -62.08536      -54.64644      -60.39081      -51.46265      -58.17461
      -48.40926      -56.24191      -46.48189      -52.53938      -41.72534
      -51.11795      -40.45563      -46.67064      -36.97491      -42.51820
      -31.18480      -38.79848      -27.09875      -33.02892      -23.01959
      -27.77055      -18.88905      -28.29908      -16.83114      -23.08698
      -15.67074      -25.43973      -12.64715      -20.33815      -14.90079
      -20.82517      -12.47021      -21.11987      -12.40974      -19.39799
      -13.34136      -22.82883      -17.00025      -22.22187      -15.81668
      -24.68600      -17.07594      -24.23206      -18.99739      -29.84003
      -23.22250      -33.22823      -26.73855      -35.46474      -32.72693
      -42.88213      -37.04034      -47.69543      -45.22736      -53.81128
      -46.43732      -61.89522      -55.87785      -68.23965      -65.88667
      -79.20059      -75.98578      -91.00092      -85.72247      -100.5952
      -98.76755      -114.4835      -109.4719      -127.0367      -125.7780
      -138.1554      -136.6063      -153.1198      -148.2058      -163.1163
      -161.0967      -175.9802      -172.5692      -187.3943      -181.9304
      -192.9202      -188.8525      -201.1236      -195.8058      -205.7715
      -201.9396      -213.7127      -204.6613      -212.1841      -208.2614
      -215.1556      -206.1800      -213.8442      -207.0419      -214.1370
      -205.7604      -211.6584      -201.0261      -204.6394      -197.1735
      -203.1923      -190.7049      -193.0544      -185.4727      -191.2564
      -177.5133      -181.2111      -171.8283      -176.2743      -160.6546
      -163.0806      -147.9345      -151.3771      -140.1986      -145.5120
      -128.2635      -130.5688      -114.0190      -118.1944      -101.7651
      -105.2114      -87.81320      -92.21933      -76.56953      -77.22223
      -56.96686      -64.70264      -58.24408      -100.7202      -369.0942
      -1606.182      -2997.907      -3717.576      -3804.393      -545.7559
       3254.597       2982.548       2136.582       119.7909      -613.6118
       1861.785      -662.1367      -2628.179       1095.867       1055.750
       1703.393       2216.498      -1625.526      -720.9249      -16.58887
       1411.346       3190.021      -234.7502       1114.272      -179.4414
      -3887.090      -705.5996      -917.9677      -661.5093       2381.708
       529.2065       1216.797       1921.911      -1446.402      -1116.733
      -8.619629      -374.1335       206.8198      -28.29199       832.3599
       2277.465      -732.4434      -2158.716       44.95483       1759.187
       394.2473      -2192.073       2064.000       2508.163      -2234.246
      -598.3370       555.6409      -1485.908       49.32422       2137.362
       1291.079       1653.828       1682.270       224.4429      -2216.044
      -1668.388       1083.897      -3012.498      -2007.291       2258.107
       47.32178       981.6594       1473.679      -533.7244       830.0880
       435.5280      -370.6948       1058.102      -1669.428      -2410.211
       698.3623       416.7604       595.7611       193.4229      -975.9326
       374.4322      -213.3684       666.9912       1950.919      -904.5964
       297.8606       2018.316      -1558.468      -1779.646       861.1871
       4.423584       512.5797       1289.496      -1730.144      -2355.511
       686.0078       1968.889       720.9810      -1025.849       856.3726
       3493.271       318.4863      -1240.721       472.6387      -2346.107
      -4322.724      -482.5815       550.3628       884.6240       4519.281
       2032.949      -495.7100       1968.795      -436.2212      -2380.909
      -404.0918      -1471.415      -526.3457       2547.597       1628.153
       223.5557       1666.462      -107.2031      -3037.086      -1689.611
      -1973.054      -1424.748       1682.384       2395.745       2456.715
       16.19482      -1244.068       1736.378       295.8401      -2342.378
       652.9567       959.9990      -1342.569       617.6680       1958.163
       1189.701       763.5173      -371.1570      -1412.776      -1142.460
      -1160.239       23.45728       1284.707       402.8643       1459.942
       1550.464      -1429.065      -2773.364       343.4224       2555.054
       746.2007       959.8182       643.1602      -676.6373       150.5825
      -442.7568      -801.6508      -371.1176      -91.56018       677.7382
       344.8789      -652.6792      -771.0522       591.4116       2014.095
       951.6766      -533.5608       912.9709       108.5796      -2538.094
       922.9585       2659.830       15.88208       120.9453      -690.1387
      -1586.948       357.7104       282.4910      -550.9707       529.2631
       404.8813      -64.55225      -337.2461      -1543.241      -1910.798
       366.5308       2052.734       772.1938       1443.425       1682.244
      -347.0649      -1978.017      -1009.142      -151.7562      -660.9126
       715.0032       91.38147      -426.5840       619.0610       879.7424
       641.5054      -982.5270      -1247.596       542.9302       1583.914
       519.5007      -992.1046      -192.3163       807.2432      -162.7615
       104.1564       839.9839       105.2931       324.8173       469.8311
      -1350.995      -2298.499      -2236.354      -1875.011      -155.4937
       1248.918       1727.121       1047.263      -347.0762      -1141.115
      -698.6313      -366.4771      -180.6494       1480.535       1648.625
      -614.4661      -1501.210       480.0913       982.3848      -744.3630
      -1119.957      -892.1650       1036.987       2356.958       127.9816
      -466.0315       82.21021      -323.8213      -2482.884      -2684.322
       523.4165       563.0326      -67.05267       494.2329      -179.6815
       195.4983       1382.648      -1638.024      -2492.495       1706.541
       449.8953      -1143.658      -448.2053      -1321.727      -101.1199
       1328.974       1356.524       506.3213      -1416.246      -831.7281
       133.2076      -418.8071      -392.5488      -1570.632      -652.8447
       2453.572       1129.906      -856.4742      -84.46265      -1297.624
      -736.6906       1250.240      -1161.195      -592.9248       1214.976
      -1961.617      -446.0273       3321.259       659.6089      -2152.505
      -1881.131      -550.8032       1580.190       1780.215      -1940.085
      -1067.935       2585.772      -1064.606      -2141.704       1507.814
       1735.322       1698.636      -158.2930      -3010.264      -2233.743
      -938.0208       362.9101       169.0614      -806.5479       1351.308
       1825.987      -1304.146      -1796.965      -333.5623       530.2775
       896.1060      -1018.548      -1180.881       661.3938       500.8656
      -403.5566       845.0789       759.4823      -788.9141       1064.626
       1044.559      -1566.089      -1160.897      -186.4424      -782.3830
      -735.0269       977.2031       4246.281       1718.686      -2794.018
      -1200.327      -1551.173      -2552.780      -743.8323     -0.5117188
       1318.703       2320.344       821.9888       541.4573       1447.360
       364.3457      -835.7993      -1596.199      -2941.569      -821.2156
       1886.084       318.2075      -1350.505      -1208.385       1281.278
       2788.406       1875.291       702.2034      -976.7462      -499.0655
       191.0139      -453.3677      -2192.229      -1806.558       776.1404
       508.3081      -1350.370      -1071.588       743.7288      -834.2098
      -729.7280       1555.318       90.99695      -27.78613       1249.835
      -1166.416      -1623.280       245.9685       820.7979       1743.084
       1139.521      -13.44800       26.87305      -871.3076      -2491.681
      -318.1416       1449.411      -277.3923       784.7982       1273.596
      -932.8639      -304.4738       933.9150      -1438.225      -2599.426
      -1704.801      -480.2002       2580.553       3177.062      -916.2227
      -3027.414      -240.1909       928.7517      -186.6675       781.8407
      -8.023438       165.6963       3310.198       1787.214      -2285.050
      -3545.637      -1469.101       2302.771       3346.733       668.6212
       109.5503       419.2866      -1463.968      -2477.675      -2968.040
      -2331.502       1031.233       4091.271       2418.904       1311.403
       2092.667      -434.2827      -1885.650      -478.4457       431.4075
      -661.5223      -702.8965       428.7466      -972.9187      -1083.898
       271.7552       77.84094       442.2607       489.5588      -112.2319
       1430.320       1303.667       682.6658       1578.930      -388.0049
      -1999.354      -377.5906       61.07202      -1277.799      -51.13965
       2268.477       3434.662       2162.528      -340.5420      -2779.567
      -2686.939       1600.494       1391.148       355.3604       1285.345
      -705.3585      -353.9512       109.6147      -820.2389      -604.5169
      -336.3601       934.8582       481.5020      -293.3267       1325.743
       1717.318      -287.0190       205.0879       1315.118      -1129.073
      -1434.987       139.3468      -708.1694       1261.770       3322.336
      -1180.342      -3201.598       1342.853       1447.923      -1729.010
       129.1201       2109.025       1223.050       1880.338       336.9048
      -2229.337       425.5139       1155.789      -822.6157      -1096.123
      -1142.303      -91.81470       994.7139       744.5786      -1484.390
      -2747.344      -735.8241       438.6989       398.8661      -96.78900
      -178.3867       822.6616       1981.588       2670.051      0.3789062
      -1153.216       708.7080       2134.641       2913.635      -275.5005
      -1171.451       569.6631      -2478.041      -3555.177      -2193.720
      -776.1061       110.4431      -1035.878      -88.69922       1229.898
       2152.522       2412.388       641.6296      -836.7058      -1386.105
      -445.6890       250.7935      -1069.910      -1021.962       1128.318
      -996.7832      -3727.763      -1241.468       2635.212       1470.784
      -3003.441      -1969.059       588.5049      -69.56763       198.6875
       3000.461       10141.46       15542.88       15512.96       12272.99
       2993.533       3139.855       20514.99       14835.52      -12993.47
      -10307.95       5569.041      -1284.691      -8272.199      -13437.35
      -29889.20      -33045.48      -13080.29       6429.031       1667.814
      -12003.10      -1810.266       15351.20       18173.89       9887.320
      -15729.47      -35326.50      -10158.50       25976.02       22069.62
       5073.121       10965.43       11680.44       95.55688       2306.992
      -3881.195      -21687.44      -32356.90      -27921.89       14143.40
       40265.99       21638.62       5898.494      -3778.629      -4379.309
      -7062.315      -6161.225       10472.24      -13543.67      -24803.45
       23164.40       22262.01      -17375.50      -19028.99      -4796.297
       12453.71       19679.13       2149.965      -6644.599      -1218.455
       6886.788       5626.316      -13739.17      -21440.19      -11552.56
       3526.158       7761.331      -4034.251       4190.344       9820.965
      -2966.194       3390.911       8098.113      -1234.709      -8205.257
      -6575.298      -3259.555      -6626.600       5087.580       12367.64
      -992.5781       5720.745       7639.720      -4782.437       2175.103
       4441.156      -5894.789      -11441.20      -15604.65       1055.875
       28292.44       13484.91      -11547.55      -730.9922       9607.094
      -10150.02      -25918.51      -3678.727       27777.52       23753.91
      -3718.559      -20297.70      -15872.75      -1839.786       1802.568
       7097.598       11009.33      -3984.740      -6340.861       9851.976
       4736.947      -13309.44      -8167.055      -2403.654      -11860.72
       252.1875       23949.55       18343.02      -3835.539      -7487.061
      -4068.113      -6146.474       1917.429       2350.287      -1105.188
       7601.404       8169.561       3873.547       1864.102      -8648.488
      -15709.81      -9027.822      -6493.400      -3087.917       5517.119
      -5777.512      -4906.219       15546.96       5572.449      -9861.177
      -3190.219       8748.336       10761.07      -1910.334      -8242.918
      -2832.292       2901.814       4434.554       625.9387       1036.452
       1257.123       818.5498       5094.249      -701.6992      -16163.92
      -3557.762       14914.97      -3454.774      -8887.828       2911.129
      -7165.839      -7851.154       7855.574       13606.43       8135.776
      -1270.863      -2668.230      -6078.985      -7999.581       2919.600
       10238.31      -1716.258      -16333.67      -8175.393       2001.852
       3273.090       3047.176       6834.535       12779.15       8511.627
      -3558.879      -8678.908      -1666.896      -1634.916      -11078.79
      -2143.754       14106.59       11645.64      -1238.393      -10547.99
      -2330.369       9334.707       475.4844      -16290.34      -15549.80
      -3469.029       2415.609       6470.172       7783.881       3307.995
       97.14404       1946.201       3830.098      -4030.783      -10581.55
      -3907.762       5330.582       8787.941       3322.479      -5843.184
      -9262.297      -1823.312       4668.545       802.3838       4120.764
       4092.676      -6445.101      -3635.977       2070.279       5082.299
       6242.126       2730.492       3719.018      -4093.510      -8059.699
       7247.459       8830.421       3013.688       4009.623      -3457.943
      -6250.078      -444.1018      -443.1953      -2313.209      -5388.926
      -10616.15      -8586.105      -589.8789       10030.13       15910.10
       8255.484      -3593.621      -7727.562      -6694.905      -1677.163
       1924.459      -16.72461       3813.110       2881.265       711.5039
       6285.020       7562.353       5081.823      -3085.836      -11735.65
      -10841.58       509.8203       7655.498      -1970.432      -4576.311
       5227.452       5861.719      -1171.096      -2735.871      -374.6389
      -230.9854      -2696.814      -5274.614      -48.89551       5235.866
       4626.512       1516.704      -3475.804       1689.337       6819.535
       486.0356      -1668.535      -330.5626       60.01660       340.0840
      -5136.177      -7657.380       1580.121       9120.797       4495.653
      -940.1638      -2761.628       2307.644       5892.245      -953.0893
      -365.9912      -2.851562      -6417.342      -4956.089      -3169.351
      -1465.776       5842.950       3409.962      -6345.739      -1376.420
       6376.257       1346.139      -526.8994       3691.959       1717.894
       607.4531       3168.176       1425.934      -770.4824      -3223.666
      -1234.380       1418.052      -1526.608      -807.8984       4106.353
       5846.441      -650.7715      -6743.018      -3354.442       2645.958
       4394.371       2996.597       1460.359       3728.400       3318.355
      -2212.586      -5573.715      -5465.794      -4629.322       125.4922
       8574.492       5259.141      -5554.255      -6892.711      -1517.113
       5124.314       8981.741       1615.846      -10677.17      -11266.97
      -3516.720       2516.833       2209.502       1531.564       7181.051
       5151.442      -654.2887       1108.036      -1505.125      -7387.584
      -2593.689       4872.479       3411.977      -68.70825       931.6724
       2007.201       190.0444      -108.4824      -1889.273      -4476.104
      -1272.961       4672.160       8221.184       3250.578      -6649.283
      -9983.912      -3761.599       2237.468      -224.8698       319.3521
       67.00977      -4270.122      -2713.658      -394.1641      -2152.354
      -2449.454      -756.5504      -706.1787       1906.928       6313.688
       4304.334       325.9766       2462.159       3261.658       2126.272
       1726.526       79.12646       1383.767       487.5403      -1664.966
      -474.1299       1599.494       1606.592      -4649.717      -8018.728
      -5027.944       1558.277       7793.450       1112.973      -3663.285
       2473.512       15.65918      -5376.387      -1513.663       1859.774
