     0.02500000      -6627.826       7905.096      -12345.00      -12345.00
      -29.98999       230.3100      -32.34000      -12345.00      -12345.00
       0.000000       23.93000      -12345.00      -12345.00      -12345.00
      -12345.00      -12345.00      -12345.00      -12345.00      -12345.00
      -12345.00      -12345.00      -12345.00      -12345.00      -12345.00
      -12345.00      -12345.00      -12345.00      -12345.00      -12345.00
      -12345.00      -29.95960      -69.63990       5051.000       0.000000
      -31.59500      -68.73200       0.000000       105100.0       0.000000
      -12345.00      -12345.00      -12345.00      -12345.00      -12345.00
      -12345.00      -12345.00      -12345.00      -12345.00      -12345.00
       201.0610       334.1573       154.6196       1.807726      -12345.00
      -12345.00     -0.1079533       0.000000       0.000000      -12345.00
      -12345.00      -12345.00      -12345.00      -12345.00      -12345.00
      -12345.00      -12345.00      -12345.00      -12345.00      -12345.00
      2008        13        10        50        59
       740         6    -12345    -12345     10413
    -12345    -12345    -12345    -12345    -12345
         1         7        13    -12345    -12345
    -12345    -12345    -12345    -12345    -12345
    -12345    -12345    -12345    -12345    -12345
    -12345    -12345    -12345    -12345    -12345
         1         1         1         1         1
CORT    -12345          
        -12345  -12345  
-12345  -12345  -12345  
-12345  -12345  -12345  
-12345  -12345  -12345  
-12345  -12345  -12345  
-12345  -12345  BHZ     
ZL      -12345  -12345  
[...]
      -242.6597       500.8722       790.4575      -511.1751       82.15796
       219.4541      -1701.787      -832.8384       289.8198      -640.5455
      -582.9204       561.5789       1419.526       640.3430       743.6121
       1199.337      -14.76868      -432.7388      -444.4326      -716.9874
       112.5860       225.3458      -687.4463       893.8972       1578.083
       82.04817      -44.78314      -126.8270      -288.4797      -129.2687
      -17.27606       181.2217       505.0054       1348.842       1323.551
      -379.6475      -1038.403      -998.6390      -739.7837       28.51648
      -155.8369       1676.783       2375.842      -363.5145       51.78308
       1246.906      -972.3354      -1761.741      -352.9905       307.1338
       1040.303       1710.554       1005.924       20.53656       58.61444
      -430.5538      -89.15723       1960.720       567.8090      -400.5215
       1032.063      -888.0439      -2433.813      -1282.170      -682.3161
      -176.1427       736.7060       86.53027      -422.6848       306.6245
       835.0947       1160.025       1043.481       1137.277       254.8597
      -817.3978      -318.1042      -560.9619      -1499.095      -1313.938
       47.78711       1263.233       1653.644       452.8657      -1720.850
      -1056.853       1280.884       1091.698       565.6387       1398.749
       1490.144       1261.502       39.60107      -842.3137      -633.4639
      -1564.040      -1275.802      -705.9595      -786.8675       119.2634
      -118.2597      -319.9135       211.6543       508.3396       1102.628
       78.89917      -780.7571       462.1928       451.4197      -1216.279
      -1539.629      -543.5028      -283.1196      -355.3594      -891.8237
      -715.4172       776.6130       668.7312      -245.5624      -380.4044
      -129.6840      -99.81183      -177.1250       893.1334       886.2831
      -471.4474       368.9399       1238.143      -50.17932      -759.2253
      -74.32947       123.9243      -1682.536      -1925.743      -45.46875
      -206.9570      -649.7694      -119.4526      -806.9634      -733.3291
       1024.499       563.1920      -710.2666       102.0074       595.6565
      -276.9383      -325.1847       567.5032       287.5981      -44.98486
       942.8191       651.8735      -744.9065      -688.6250       398.8982
       846.3435      -522.2004      -1106.631      -154.3834       65.27686
       545.7725       323.0428       15.11279       1073.135       432.5305
      -1043.616      -146.8927       469.7924      -580.9456      -305.5301
       123.5930      -320.9855      -457.1317       241.2550       862.6201
       247.9449       221.2026       470.0324       302.9151      -57.65308
      -596.9152       22.43433       728.8223       624.6392       997.6462
       1354.584       692.5232       482.0065       573.7731       483.0674
       872.7347       289.7045      -131.8864       64.76587      -870.8367
      -895.1444       179.7917       453.8802       393.4664       516.1190
       699.0646       150.2296      -185.1108       784.7969       1414.556
       1054.422       689.9277       1276.454       1552.653       155.0342
      -754.4917      -166.5763      -293.2678      -863.5791       402.5576
       1118.121      -419.1162       425.0352       2118.133       1116.310
       683.1337       64.63647      -113.5679       1848.550       1386.384
      -720.7269      -414.8650      -224.0714      -921.6861       37.56873
       484.1270       200.7061       995.7803       1147.333       826.2855
       112.7821      -787.6117       153.0615       1048.201       49.74103
      -354.2095       626.5640       1112.333       578.9781       135.0192
      -221.1486      -717.3838       166.4624       1011.576       853.0134
       764.1360       289.5786      -599.8518      -1421.300      -775.8020
       503.8638       736.4943       611.4778       794.1211       1350.403
       634.3398      -826.5715      -1135.639      -435.8010      -58.42285
      -1027.485      -16.27173       1653.342       526.1375      -471.6848
      -564.7295      -649.8304      -597.7070      -576.6719      -1079.579
      -835.8491       788.8848       1499.436       773.9648       734.0692
       342.1931      -491.8062      -666.0938      -2231.424      -2777.654
      -1256.807      -759.2704      -348.3467       1632.926       2447.706
       1002.360       510.9033       270.3955      -2137.722      -2751.422
      -294.4693       70.33105      -773.7389      -535.5968       65.34183
       95.80017      -133.4495       129.1406      -300.8995      -39.83752
       886.2147      -280.0852      -621.2136      -8.973633      -947.0902
      -519.0149       159.7299      -526.1077      -762.6431      -972.9893
      -574.5126       325.6309      -579.8149      -1374.882      -655.5244
      -1345.778      -1810.814      -961.5121      -344.6419       359.9658
       2.228638      -108.2327      -57.76392      -1388.896      -1314.168
      -409.4802       354.8228       1245.339       881.4138       164.7416
      -522.2419      -927.7007      -1114.561      -1066.296      -42.99280
      -246.4814      -946.9487      -616.5837       325.3375       611.3427
      -23.83936      -275.9180      -771.5269      -1112.321      -635.7211
      -53.31067      -105.6262      -270.7223      -81.78455       46.47986
       306.3523      -325.5352      -1047.315      -405.7724      -35.98206
      -229.6858      -744.8617      -417.0811       244.7598      -1645.145
      -1679.537       974.0294       461.9565      -825.9552      -619.2852
      -733.9659      -217.5049      -204.6348      -425.9440       31.58594
      -552.6284      -1173.025      -904.5059       373.4717       1713.112
       718.3799      -1291.854      -984.5370       354.7219      -961.8157
      -1466.207       852.1777       1035.778      -207.0135       320.6361
       13.37793      -1693.636      -853.8045       138.0203      -259.3335
      -41.48749      -93.55566       963.7532       1152.148      -375.1154
      -648.8583      -177.9328       170.7300      -569.6359      -931.8890
      -32.84497       380.3868       284.3032      -91.08887      -299.8328
      -6.716736      -36.95801      -821.9854      -1032.208      -206.2876
       718.9404       1091.099       575.4240      -69.32666      -171.4059
      -51.24158      -298.3860      -893.1863      -280.7628       783.3435
       286.2241       590.8562       1391.630       51.89368      -785.2498
      -210.2457       135.9512       364.3247       582.1118       447.6053
      -120.9528      -302.9206       13.59143      -407.7795      -390.0798
      -277.9508      -708.3344       42.47339       535.9742       279.6346
       158.8286      -43.67651       795.9661       1122.215      -30.29584
      -10.93445       311.7200      -659.8182      -369.9131       950.1492
       730.1132      -348.0753      -18.11255       763.5249       270.6201
       507.3611       1434.560       413.2859      -1036.321      -228.7637
       1066.157       735.3091       225.5618       263.8299       45.24896
       49.59167       191.5439      -709.1851      -697.5178       44.08716
       232.9512       1653.260       2467.235       1344.546       301.4956
      -460.9564       243.2510       764.2251      -735.4999       230.7477
       955.5865      -461.0820       1057.635       1859.364       1133.390
       1679.112       1257.541      -48.01147      -1011.615      -1164.251
      -367.0774       289.3782       532.9360       1544.784       1391.448
      -491.8138      -205.4988       1031.155       537.4813      -211.8918
       3.473633       742.2217       851.9414       128.6588       6.076233
       316.5681       253.2109       353.6825       158.5187       185.7009
       1097.514       855.1660       657.7627       1082.510       715.1104
       1004.413       1486.199       759.8569       498.1763       824.9913
       440.6298       106.4449      -20.05029      -214.2793      -960.9458
      -1210.458       63.41943      -158.4042      -56.02979       1027.895
       427.7529       891.4639       1869.398       1794.194       1865.395
       853.3328      -281.5772      -126.2358      -356.5027      -924.9812
      -677.0861      -51.92188       611.9824       1103.536       986.7448
       318.0906      -105.3047      -49.63757       104.8647      -704.2388
      -807.6765       426.5557       536.8816       900.4062       686.0148
      -670.8315       324.9568       1242.872       883.4401       802.8004
       299.2523       508.8539       677.6749      -121.9746      -1145.955
      -1696.723      -946.3834      -426.1149       266.8889       1382.030
       747.8669       29.99976       1008.914       866.2930      -567.7026
      -972.9121      -1693.362      -1977.109      -976.0872      -667.5444
      -893.8464      -996.9905      -381.5175       49.31567      -862.5642
      -1550.718      -57.39014       1128.796       551.8501       1216.075
       1692.133      -414.5022      -1182.633       59.49066      -120.5995
      -331.6180       313.6852       168.5718      -331.7700      -908.6272
      -1212.443      -1082.990      -1483.400      -1521.125      -267.0798
       549.7303      -1.958130      -412.4114      -409.8745      -843.3179
      -1301.344      -984.4753      -430.0122      -521.0818      -234.5671
      -239.6598      -179.8756      -116.5324      -607.9121       286.8231
       159.8120      -911.4266      -353.1227       190.9208       375.6079
       441.7134      -415.6475      -1806.899      -1272.292       333.2357
       333.3286      -71.92896      -192.8774      -435.5979      -796.7714
      -666.5632      -179.7017      -1384.438      -2855.057      -1568.259
       792.0214       772.3601      -496.4377      -121.4028      -23.38110
      -629.4838       114.2448       201.1223      -165.1356       554.6758
       495.9990      -856.8928      -1094.837      -430.4990      -1407.505
      -1856.270       685.1396       2320.867       710.6680      -702.6621
      -534.2826      -202.2491      -421.1287      -981.2980      -475.5366
       461.8920       65.53809      -801.2230      -373.1907       319.6143
       241.6774       344.6839       296.1173      -20.00635      -726.6042
      -1169.021      -494.8316       54.73132      -209.2996      -772.7893
      -335.4133       101.6191      -889.1401      -1005.699       316.2278
       917.6777       290.7119       231.7961       982.0382       578.2373
       372.8894       500.5178       27.89844       193.3461      -202.7286
      -742.9070      -460.8420      -1052.321      -773.1375       400.8036
      -162.6888      -685.7581       86.77417       424.6314      -225.7213
      -44.23730       1286.193       1696.619       854.2702      -49.93164
      -751.9849      -1070.501      -737.2722       700.0098       1528.652
       245.6904       396.5042       1591.765       273.0743      -447.0984
       763.5912       249.9380      -891.8855      -148.5063       249.9712
      -1455.557      -1903.452      -156.8450       138.4869      -92.80273
       758.8198       1334.891       618.7598      -531.0862       32.44580
       450.4534      -107.2721       213.7075       889.2747       1047.670
       305.7202      -567.2160      -151.2046       972.6831       849.4385
      -489.2114      -985.5199       186.1794       956.6589       492.3928
      -65.78015       34.29785       1326.883       1198.593       63.88672
       1391.867       1953.578       367.8192       26.66223       207.8558
      -347.9146      -665.3110      -953.5854      -1333.972      -1189.656
      -243.5223      -265.6765      -642.1521      -507.9724      -1153.880
      -1120.564      -797.2805      -1308.232      -1102.015      -283.6990
       541.0391       806.8779       511.3750       516.4417       1033.723
       1360.162       611.4874       95.00412      -98.62305       76.09637
       474.6858      -368.9147      -661.5536       257.1516       807.2192
       489.7598       253.3323       738.2006       524.5623      -674.8174
      -1230.279      -725.6984       131.6748      -733.2683      -1495.410
       554.6694       1369.815      -123.1007      -228.8013       1095.960
       924.7622      -364.5186      -154.1282       380.1441      -44.41266
      -390.4178       226.0490       266.5722      -292.5488       214.1461
       412.9274       388.5620       1001.940       133.2437      -1097.282
      -1077.710      -1369.474      -966.0170      -579.2151      -470.8992
       553.7004       831.7578       594.0986      -817.0352      -3259.494
      -4323.064      -5031.282      -5877.312      -4347.750      -2471.665
      -1876.614       134.1777       3518.613       6820.465       7905.096
       4685.973       1045.179      -823.5381      -2326.850      -1363.043
      -680.4497      -2331.002      -1069.470       3962.893       7623.121
       6238.180       2444.088      -780.1404      -1218.120       782.5728
      -780.5405      -3104.626      -916.3596       347.3867      -1478.967
      -1294.396      -408.9111      -2782.909      -3508.817      -205.9844
       2442.730       4573.857       7059.254       7480.906       6183.239
       3003.100      -1452.620      -3087.193      -2137.740      -2967.123
      -2984.779       468.3486       2064.539       1587.019       2263.745
       1827.174      -49.13965      -2701.503      -3307.639       1199.582
       2560.236      -1169.826      -728.6758       3897.351       5270.122
       1441.039      -287.4749       1018.379       262.4575       146.6770
       774.0327      -1372.408      -2591.300       987.7373       3302.530
      -740.2354      -3379.480      -1373.833      -1865.572      -3509.054
      -2479.506       1150.493       4129.660       1544.396      -708.2617
      -1231.274      -2991.878      -267.7803       3162.751       1024.596
      -2315.164      -2163.494       1162.316       3094.886       2101.902
       332.8160      -797.3423       1306.408       57.76367      -6488.271
      -6017.470      -580.1973       2036.326       2381.249       2132.598
       1854.005       1292.409       819.3824      -68.68164      -1530.231
      -1629.803       1037.238       4087.617       4114.883      -358.4707
      -4507.266      -4199.057      -3181.781      -739.1925       1216.136
      -830.3740       630.8564       4457.222       4751.805       2481.925
      -2390.291      -4279.419      -2905.625      -3750.083      -4221.412
      -3670.706      -3104.046       510.6221       5125.840       5518.036
       2686.921       732.0441       380.6451      -460.0734      -189.4325
      -43.61633      -1478.929       1294.075       4370.952       2011.602
      -74.72241      -267.8594      -1354.572      -2186.755      -1350.538
      -1006.917      -591.8464       1618.088       263.3516      -3458.297
      -3000.205      -1122.631      -1528.081      -3652.693      -3083.693
      -1798.402      -1326.913       1669.562       2417.779       2751.046
       3589.671       1355.944      -16.47400      -227.6787      -839.5039
      -1812.736      -2384.406      -2004.607      -1274.834       489.3022
       1402.164       1274.099      -725.6040      -2383.324       609.2334
       1104.932      -3122.840      -3300.965       1020.273       1097.523
       67.49707       3520.721       3559.606      -594.0051      -1238.413
      -347.1641      -1585.442      -2642.714      -2368.012      -325.0415
       886.4868       1698.598       3143.873       1873.995       1615.649
       1270.312      -1834.787      -2006.317       300.8267       2036.693
       3133.219       730.2344      -2394.275      -2095.476      -2735.823
      -3942.884      -3136.173      -2114.585      -1403.900      -1592.886
      -484.2285       2218.829       2879.225       2135.350       1082.994
       346.7797      -149.0524      -241.1477       758.9406       422.3519
       110.8638       1286.680       518.9888      -1703.245      -1916.221
      -367.2174       914.1880      -471.0371      -2830.884      -897.6465
       317.7793      -1959.146      -935.1562       2615.049       2636.519
      -863.8345      -1717.305      -957.6008      -991.0905       348.9242
       941.4707      -26.20898      -772.1104      -112.0543       561.4468
       384.9634       825.2458      -81.20703      -1751.696      -1999.829
      -2239.771      -2535.270      -3702.072      -4645.861      -3572.196
      -2312.195      -748.5508       1349.807       2256.833       1384.491
       1353.772       2715.150       1762.638      -1011.800      -1224.659
      -131.3938      -1200.292      -895.1914       2519.873       5197.945
       4602.948       897.9728      -200.4620       837.3862      -874.5078
      -1878.928      -1141.405      -158.0782       350.7595       252.6328
       834.7241       469.7383      -649.0474       462.0767       2112.003
       1005.067       358.1719       1272.844       1023.387       906.7435
      0.1235352      -947.9835       828.6653       170.6113      -2933.431
      -2017.457       500.6187       1488.715       1062.721      -184.2209
       312.6672       726.6511       560.8513       630.0127       1067.262
       2256.458       629.0310      -162.8081       1099.337      -471.0315
      -1278.182       78.10522       911.9797       518.5519      -209.8026
       216.9995       1142.106       2100.571       1689.353       1297.106
       2168.893       1801.527       1805.009       2094.663       1162.207
       83.46216       600.8521       603.3601      -1264.324      -1224.204
       427.7783       117.2493      -1208.495      -787.3420      -16.29691
      -145.3295      -113.7004      -55.13135       613.1650       1755.551
       1960.198       2048.338       1677.273       978.8359       1572.519
       1164.350      -1812.124      -3563.975      -1975.751      -33.32507
       4.011368      -82.83624       392.1001      -697.6606      -1144.748
      -287.8347      -1028.325      -1612.319       198.7776       1273.480
       97.64789      -237.0625       714.2441       1406.050       1438.423
       666.9543     -0.2574158       135.4072      -318.0371      -1527.561
