     0.02500000      -11222.18       11193.78      -12345.00      -12345.00
      -29.98999       230.3100      -32.34000      -12345.00      -12345.00
       0.000000       23.93000      -12345.00      -12345.00      -12345.00
      -12345.00      -12345.00      -12345.00      -12345.00      -12345.00
      -12345.00      -12345.00      -12345.00      -12345.00      -12345.00
      -12345.00      -12345.00      -12345.00      -12345.00      -12345.00
      -12345.00      -29.95960      -69.63990       5051.000       0.000000
      -31.59500      -68.73200       0.000000       105100.0       0.000000
      -12345.00      -12345.00      -12345.00      -12345.00      -12345.00
      -12345.00      -12345.00      -12345.00      -12345.00      -12345.00
       201.0610       334.1573       154.6196       1.807726      -12345.00
      -12345.00     -0.2540661       90.00000       90.00000      -12345.00
      -12345.00      -12345.00      -12345.00      -12345.00      -12345.00
      -12345.00      -12345.00      -12345.00      -12345.00      -12345.00
      2008        13        10        50        59
       740         6    -12345    -12345     10413
    -12345    -12345    -12345    -12345    -12345
         1         7        13    -12345    -12345
    -12345    -12345    -12345    -12345    -12345
    -12345    -12345    -12345    -12345    -12345
    -12345    -12345    -12345    -12345    -12345
         1         1         1         1         1
CORT    -12345          
        -12345  -12345  
-12345  -12345  -12345  
-12345  -12345  -12345  
-12345  -12345  -12345  
-12345  -12345  -12345  
-12345  -12345  BHE     
ZL      -12345  -12345  
[...]
       831.3508      -616.0957      -1213.157      -164.9566       279.6270
      -473.9212      -148.1554       519.5256      -93.58936      -720.9365
      -1279.954      -1649.866      -1395.056      -169.7188       1717.079
       1471.759       378.2700       299.6820      -451.7189      -499.4059
       348.8676       124.7389      -537.4806       19.06152      -116.1758
      -979.1069      -345.5192      -122.0109       125.4465       929.6464
       146.3663      -717.9244      -312.2931      -242.8196      -415.4710
       169.6512      -116.1636      -896.5110      -321.6683       593.8400
       69.37512      -620.5438      -164.8459      -434.4480      -1449.444
      -1020.306       197.9540      -84.48071      -391.7390      -69.90735
      -529.3177      -46.60193       439.5127       518.7236       1470.937
       1283.435      -102.5645      -1096.968      -1052.612       474.3914
       1137.469       96.64050      -232.8681      -143.7232       42.36963
       469.0677       94.01758      -439.4155      -1153.643      -927.9909
      -89.02194      -48.77637       501.5791       1326.433       1366.756
       241.6808      -321.3831       494.9341       248.2566      -228.2920
       143.3176      -48.70923      -820.1199      -315.2816       460.9380
      -776.4105      -1072.472       392.1409       815.5732       1154.446
       1444.296       792.8608       144.3387       187.3174       471.8324
       242.1057      -26.44383       57.88672      -283.2090      -876.3641
      -227.0417       602.6305       359.6779      -120.0903      -279.5208
       569.7332       1162.868       578.2465      -74.97607      -913.6345
      -1158.602      -1.723633       1040.470       1275.079       859.8894
       579.5117       571.4101       314.7757       160.6250       142.3518
      -69.65367      -75.32217      -42.01877      -228.4114       412.7834
       890.4963      -337.4299      -622.7451       660.7103       777.5771
       424.9619       296.2090      -205.4248       228.6801       383.1448
      -38.22711       126.6789       173.5541       187.8328       438.6216
       1088.338       949.7627       135.6511      -89.51099      -645.1235
      -989.6000      -608.0098      -260.2652      -140.6261       150.7456
       1064.606       1691.848       1107.357      -95.04309      -519.8248
      -181.3542       160.8112       537.1711       484.6313      -206.1138
      -742.6577      -263.4413       356.3245       255.7603       7.778641
       59.13222       89.29344      -82.64688       35.74115       260.1550
       140.5502      -324.6439      -629.2560      -651.9550      -565.6670
       7.459045       377.8440       165.1697       287.0631       600.0040
       22.37451      -656.3950      -1037.718      -1245.005      -652.8501
      -34.61633       366.8031       392.0636      -352.8333      -1122.688
      -1400.271      -912.7390      -272.6526       241.3845       767.4463
       1017.563       450.2216      -159.0741       278.8260       85.80371
      -1058.322      -1073.618      -516.7842      -1174.682      -1480.816
      -127.6894       189.0015      -874.3210      -1079.052      -232.0070
      -126.1270      -533.2184       345.5542       800.9409       695.6385
       462.5566      -128.2354      -100.3281      -824.9429      -1301.894
      -994.2137      -716.2122      -52.62549       151.3190       284.9822
       235.3607      -52.21283       200.1111       180.4928      -105.7280
      -470.9969      -431.9012      -31.61902      -355.4255      -984.3333
       51.14282       1559.363       119.4490      -1130.096      -571.6219
      -717.6586      -490.4700      -556.6838      -736.2381       33.97467
       150.8058       42.96979       474.5356      -683.5940      -1304.561
       517.5817       408.3284      -876.1722      -256.9720       213.9323
      -584.5754      -851.8125      -101.2579       470.0100      -31.01514
      -827.6772      -945.4014      -1208.756      -643.9854       97.99683
      -348.8228      -365.6786       72.68750      -248.0070      -770.4342
       30.76514       1044.485       306.8594      -860.0383      -497.9995
       469.4083       501.5798      -114.0845      -535.9178      -22.70972
      -177.4009      -1319.618      -1022.405       214.7668       428.2274
       156.3778       598.7545       453.2747      -761.5692      -844.4249
       157.8336       481.4153       409.9534       816.4341       799.0789
      -394.0000      -1065.826      -143.4097       42.93964      -162.5231
       652.1461       464.3684       109.3707       356.3240       135.1897
       310.1343       162.4980      -1034.430      -1996.672      -1360.980
      -168.2046       107.3807       517.3005       747.8616       215.8334
       181.5045       53.74023      -890.1254      -1007.424       554.6884
       594.2122      -856.8705      -340.8838       643.2537       832.2322
       889.7135       345.2520      -402.7759      -825.8103      -637.5103
      -424.6374      -290.3132       691.1787       1260.518       837.7878
       878.8602       383.0413       157.7307       135.6017      -560.8203
       264.3306       366.2469      -342.5007       120.1426      -437.8121
      -909.4374       44.85498       667.7947       627.2576       815.0256
       847.8872       827.8707       639.4301       378.6782       288.6787
      -1123.636      -1935.674      -811.1919       217.8479       733.1274
       863.5122       670.1150       348.7649       567.8247       918.7856
       1058.761       543.3768      -118.2334       95.30450       53.48944
       103.8485       58.83118      -432.9396      -400.9625       25.81543
       499.9216       623.2400      -162.0774      -1290.635      -907.6097
      -566.7874      -681.5645       646.7521       594.4262      -302.1301
       926.2866       1516.694       966.0662       1014.635       729.1453
       439.5727       308.6266      -363.1183      -509.4620       261.3186
       952.6173       532.6841       899.8008       2288.371       1111.645
      -200.9340       316.9207      -351.5685      -880.4069       38.66125
       403.5564       791.5146       1798.838       1536.473       435.6328
       56.94925       79.12589      -309.7451       261.2416       852.3187
       46.67554       317.9367       307.2891      -559.4196      -168.0116
       240.5647       423.6562       659.7910       892.0807       792.2748
       238.0546       438.7400       932.5459       1193.231       1194.706
       117.2152      -577.5283       326.7637       873.9580       970.5662
       1138.710       453.5366      -167.0381      -644.1240      -930.5247
      -670.1748      -225.1262       935.6851       1712.141       1181.737
       855.5586       842.0288       426.5739       251.9587       201.8556
       288.5839       102.0391      -656.6517      -564.5848       92.59686
       194.7396      -493.3315      -866.4636      -348.0715      -318.9953
      -379.6704       178.4004       45.61694      -1063.713      -1107.614
      -304.7948      -251.1543       346.8097       682.6284       562.2537
       638.9130      -305.3536      -526.9073      -332.4014      -91.13916
       1092.491       1177.213       354.9355      -439.6099      -1238.341
      -1116.410      -443.8086      -596.5278      -747.6378      -286.3217
      -590.8788      -507.1607       52.79053      -609.6492      -896.3228
      -50.12988       372.7478       461.9702       1022.165       1536.675
       695.6147      -1345.550      -2070.363      -2209.790      -2533.154
      -839.4785       976.4629       1086.858       841.5164       630.1969
       325.6582      -428.8447      -587.1074      -337.6021      -1118.613
      -718.9303       76.09277      -431.5018      -26.01562       48.82275
      -1157.144      -1291.395      -476.5981      -796.7080      -1543.471
      -822.3414       56.58345      -35.77576      -14.46277      -302.4163
      -323.3140       685.4412       673.5281       157.1804      -398.8790
      -753.8778       281.8046       555.1592      -126.9910      -355.7993
      -1035.447      -1233.817      -651.2831      -588.0106      -841.7770
      -366.8811       356.2326       37.02277      -35.19312       426.5698
       578.7921       623.6606       42.48535      -857.9442      -622.6251
      -342.8081      -1183.425      -1357.417      -707.1216      -390.9674
       278.7439       898.5737       706.9001       568.8472       106.1848
       667.3076       2113.446       1232.042       27.06006      -347.4224
      -1058.317      -1060.964      -1175.283      -1215.488      -391.0725
      -216.3713      -655.3081      -981.9619      -962.3582      -170.4927
       552.8721       500.2245      -66.33603      -177.0862       171.3889
       30.48462      -411.7266      -572.0034      -134.9417      -106.8670
      -227.6543       614.1045       712.6854      -55.15491      -201.1193
      -234.6539      -301.0467       308.2175       248.0104      -161.2118
       446.4915       587.3079      -431.3452      -1355.448      -1046.059
      -264.6648       28.77280       61.49219       188.1990       378.7024
       488.0867       171.8630      -668.9149      -575.1371       70.38510
       90.22705      -595.4927      -1048.355      -432.0396      -166.7869
      -654.9482      -388.5611       11.75290      -148.4541       658.2573
       1174.559      -5.094482      -892.9412      -627.1570      -445.0371
      -950.4957      -916.8501      -53.52466       560.2173       176.1218
      -207.4928       179.6655      -38.28149      -632.1450      -537.4640
      -112.4583       303.4983       437.0381       758.3889       765.5592
       365.7321       406.9276       407.4436       498.8751       406.6581
      -53.42853      -64.69824      -468.6309      -1393.157      -1378.434
       15.13306       946.5776       774.5806       1051.120       702.0000
      -499.6104      -703.9304      -717.2760      -750.4426       236.8175
       387.2651      -779.6499      -355.7007       972.1846       1250.562
       585.5424      -61.51172       180.8267       776.9626       721.4497
       689.1650       1002.080       406.5046      -1016.252      -1381.688
      -484.6941      -393.9810      -1024.346      -961.9026      -367.5654
       323.0715       946.7358       633.0940      -315.6802       270.6370
       1093.197       569.8983       95.36914       329.4365       572.6521
       283.5112       416.0037       704.0565       158.7380      -219.4404
       415.7336       1043.425       106.8905      -728.5936      -163.4161
       109.1451      -150.8980      -112.7217       428.9617       787.9117
      -87.63760      -418.5999       370.2704       291.7273       110.7330
       115.8748      -217.9127       165.3574       722.9424       606.0396
      -37.86224      -155.3345       292.3918       159.0232       223.6721
       765.7048       494.2565       245.5614       743.7561       216.2280
       35.36914       1079.831       392.2394      -361.6456       370.4255
       778.0977       639.8308       811.3264       894.9980      -34.64526
      -222.2405       164.7159      -270.8129      -325.3121      -131.7365
       5.411255       290.9216       503.3952       33.26245      -490.6160
      -142.3621       206.2202       510.9468       870.7661       948.4426
       657.1766      -200.9605      -298.4534       535.4890       809.0812
       676.4995       176.2334      -201.1719       794.0908       1565.043
       1310.714       1107.343       1053.138       857.9482       477.8755
       518.7349       409.6726      -556.9669      -369.8184       1104.397
       2251.074       2103.908      -4.601562      -3194.252      -5149.648
      -5181.870      -4311.887      -2212.628      -967.3115      -3189.666
      -4320.315      -1931.545       1661.621       4483.207       5179.266
       6600.777       8879.463       8200.365       6989.018       4125.364
      -3243.732      -8346.229      -7014.799      -4578.296      -4439.145
      -2633.169       1828.732       6848.754       11193.78       10635.00
       5465.668       487.8750      -3912.191      -6913.812      -5798.344
      -3040.847      -1088.494       689.7275       2384.974       2497.060
       457.2388      -2021.773      -3823.115      -2187.792       887.8406
       29.03931      -1532.800      -884.1536      -583.8166      -389.6255
       1711.299       1504.848      -816.4216      -225.7805       858.5541
       233.5344       86.71973      -412.5820      -3199.924      -5713.257
      -4872.640      -2298.632      -471.8135       1402.018       5115.113
       8951.426       10212.74       6404.648      -1354.215      -6362.758
      -8733.277      -11222.18      -10265.28      -4461.300       503.2900
       617.4678       2958.172       7732.344       7804.521       4728.135
       198.3018      -3304.070      -5821.119      -9289.492      -7476.211
      -2403.009       2144.047       6132.850       5770.715       3397.980
       885.9434      -1698.102      -3254.777      -5285.925      -6031.951
      -1948.387       2606.883       2811.542       3237.293       3026.622
       729.7646       3299.396       7669.787       4311.354      -13.26953
       1562.102       1578.695      -2343.235      -5004.925      -4040.768
      -2912.487      -3347.174      -3696.033      -2868.970       2636.975
       7961.456       6430.008       2779.787       376.1270      -3322.821
      -5222.352      -1335.456       2276.513       1509.678       840.6035
       1247.810       179.3008      -4713.658      -9097.113      -8850.402
      -9451.671      -7833.246      -513.2461       4620.447       4981.231
       1717.805      -1022.454       1846.195       4575.245       1823.779
      -872.3403      -911.8257      -1431.873      -804.3779       947.7646
       2527.853       5641.985       4560.258      -571.0303      -2478.794
      -3584.841      -3955.793      -1406.407       812.6211       1996.479
       1840.195       823.7812      -1127.524      -2278.569       159.3577
      -11.14453      -3731.373      -4636.665      -2769.060       222.5723
       1496.111       1745.881       1596.508      -640.9131      -2715.946
      -4819.805      -5210.512      -2625.322       427.2676       5355.875
       7602.807       3054.758      -60.65527       1110.440       629.7739
      -2081.420      -2042.590       1553.935       2564.746       95.95044
      -600.7263       176.2139       1717.586       4266.728       3520.288
       301.0703      -2516.162      -3510.353      -2185.349      -1411.635
      -1565.822      -1858.378      -2199.198      -1767.645      -2165.180
      -4482.167      -4984.524      -3128.134      -1609.205       684.7197
       3132.634       3647.865       2999.255       2727.693       1353.721
      -547.8549      -704.7168       652.8748       1069.907      -770.0825
      -826.7461       1661.974       2919.944       2077.436       477.4480
       374.6226       1570.638       1123.637      -659.9917      -1431.568
      -785.0045      -16.42920       35.27686       534.9421       42.55090
      -856.5923       1065.928       3234.017       3428.140       2530.597
       506.5623      -1175.182      -653.4722       1505.610       2317.430
       2089.941       2746.146       1857.284      -71.92163       309.2058
      -466.2461      -3009.614      -2439.334      -446.5269      -928.0557
      -2708.452      -3999.762      -4958.675      -3153.537       917.7764
       2735.225       2572.801       1661.276       904.2253       447.2393
      -77.20654      -29.63989      -441.7803      -1875.214      -2420.764
      -373.4561       2122.165       3094.344       4461.193       4729.792
       3281.186       3499.427       2926.559      -692.3311      -2338.168
      -2479.481      -2506.958       96.57312       914.2294       19.19019
       1174.258       1323.095       199.0347      -1047.297      -2117.815
      -2935.271      -3708.437      -2465.324       668.1582       2652.228
       4064.187       4378.572       2345.443       1982.696       2955.874
       2275.391       1624.030       1003.798       187.8162      -396.9990
      -1568.889      -1671.523      -935.8213      -2969.959      -3185.486
       86.82672       349.6638      -332.5804       193.4094      -280.6724
       848.7803       4030.896       4899.836       1539.390      -1290.849
      -343.1200       409.4500       503.5583       1372.945       916.2163
       280.1660       1042.132       1528.577       240.0929      -729.6538
      -496.8608      -977.5391      -3213.584      -4451.381      -1285.001
       1325.083       1272.741       865.9727       62.52222      -277.8069
      -985.2667      -642.0029       269.5901       297.6841       1690.184
       1992.932      -422.3313      -1035.213      -804.3223      -1432.841
      -651.6459       41.71484       788.1211       3263.141       5112.041
       3727.297       1171.524       83.39233      -420.2299      -93.70410
      -629.5322      -2879.045      -3750.546      -2362.336      -90.67200
       41.32935      -1180.336      -648.4243      -345.5684      -1356.403
      -1457.600      -733.6201      -1383.865      -1604.140      -1073.899
      -1096.059      -1538.979      -2025.276      -1065.800      -1659.759
      -1536.865       1709.959       1647.019       254.9927      -81.78052
      -1198.285      -989.8313       612.3057       1950.473       1674.439
       920.1809       1517.732       875.4885      -22.84344       429.0532
      -971.7712      -1308.250       279.0447      -463.1082      -746.0631
      -146.4221      -233.8008       122.4980      -648.5686      -864.5992
       359.1460       306.5977       534.7878       1057.914       1058.918
       1553.729       1609.465       1785.246       679.3320      -1867.460
      -2538.667      -1758.087      -841.3696       63.27490       805.0115
       799.5709      -49.95654      -986.8559      -727.2656       917.3047
       1043.723      -46.14764      -154.5729      -546.6747      -447.1770
      -322.2461      -1290.083      -1991.081      -2875.951      -3294.405
      -2970.916      -1635.939       605.2744       1257.491       1622.243
