     0.02500000      -13559.37       18029.50      -12345.00      -12345.00
      -29.98999       230.3100      -32.34000      -12345.00      -12345.00
       0.000000       23.93000      -12345.00      -12345.00      -12345.00
      -12345.00      -12345.00      -12345.00      -12345.00      -12345.00
      -12345.00      -12345.00      -12345.00      -12345.00      -12345.00
      -12345.00      -12345.00      -12345.00      -12345.00      -12345.00
      -12345.00      -29.95960      -69.63990       5051.000       0.000000
      -31.59500      -68.73200       0.000000       105100.0       0.000000
      -12345.00      -12345.00      -12345.00      -12345.00      -12345.00
      -12345.00      -12345.00      -12345.00      -12345.00      -12345.00
       201.0610       334.1573       154.6196       1.807726      -12345.00
      -12345.00     -0.1594914       0.000000       90.00000      -12345.00
      -12345.00      -12345.00      -12345.00      -12345.00      -12345.00
      -12345.00      -12345.00      -12345.00      -12345.00      -12345.00
      2008        13        10        50        59
       740         6    -12345    -12345     10413
    -12345    -12345    -12345    -12345    -12345
         1         7        13    -12345    -12345
    -12345    -12345    -12345    -12345    -12345
    -12345    -12345    -12345    -12345    -12345
    -12345    -12345    -12345    -12345    -12345
         1         1         1         1         1
CORT    -12345          
        -12345  -12345  
-12345  -12345  -12345  
-12345  -12345  -12345  
-12345  -12345  -12345  
-12345  -12345  -12345  
-12345  -12345  BHN     
ZL      -12345  -12345  
[...]
       316.5825       902.5264       508.3691      -445.4777      -488.0842
       8.636230      -424.8240      -192.7432       461.3324       516.0040
       202.0806       377.4817       551.5270       126.7858       117.7187
       296.1670       285.4813      -271.1733       367.3926       1323.444
      -191.0552      -1295.797      -1035.260      -446.1548      -308.4499
      -268.9955       311.9681       316.8521       425.0420       584.3984
       754.4683       1089.478       487.9128      -543.4961      -886.2587
      -316.1586      -6.028442       50.53198       397.3680       384.0070
      -206.5358      -379.3301      -109.0161      -808.7703      -913.5361
       151.3298      -336.9639      -150.6294       1341.588       517.8823
      -284.5752       1034.862       966.6304      -527.9346      -760.9596
       107.7990       323.6748       378.2957       546.4790      -888.9431
      -1307.350      -208.2822      -1002.434      -1159.555       163.8311
       669.7529       168.7999      -349.6116      -139.3333      -611.3811
      -846.0827      -50.98779       601.6011       1544.016       1074.181
      -629.2800      -813.6814       321.4370       796.6802       26.25830
      -309.9290      -96.04150      -905.9810      -1117.220      -80.11255
      -51.68457      -518.3652       287.1030       1245.839       408.9009
      -1038.098      -261.3037       783.5336      -281.0851      -676.0199
       333.2427       329.6898      -371.5838      -201.3955       306.9571
       70.73285      -2.628540       647.9843       704.5049      -339.5166
      -1598.150      -1793.985      -661.0020      -345.3171      -831.4235
      -445.1216       59.43433       637.6379       1243.793       761.1097
       77.57471       756.6211       1231.188      -180.2456      -1917.691
      -2002.818      -1152.838      -975.8961      -128.4072       752.9973
       129.5239      -412.2509       76.70068       989.3685       1003.552
       34.59772      -44.48193       752.4264       883.0970      -10.95422
      -534.1893      -253.7342       5.617706       25.56842      -46.93652
      -41.71436      -248.4438      -420.5328      -158.6746      -882.6089
      -2042.417      -1733.117      -737.7432       129.8134       683.6920
       354.8785      -213.9617      -491.8174      -1038.759      -1162.917
      -489.0210       118.0811       996.2095       1672.234       1368.978
       618.6052      -213.5317      -907.1248      -818.7993      -484.5266
      -563.3121      -111.7188       623.9026       233.6072      -421.8445
      -572.9407      -494.1884       410.2859       530.9869      -26.29688
       320.0371       701.0555       816.1807       398.0134       135.8469
       286.4368      -489.4683      -1190.505      -766.2564      -218.5370
      -154.1357      -511.6887      -731.8799      -1008.332      -1305.043
      -292.2200       893.0576       909.4338       1026.079       910.2073
       434.8296       530.2664       650.6804       592.8545       739.9162
       207.6880      -847.0092      -545.1293       346.1772      -462.1189
      -1565.415      -963.0315      -346.7573      -979.7657      -462.3359
       1889.150       2540.250       1056.981       137.5186      -504.5632
      -807.6090      -209.3505      -78.80444      -903.2236      -1593.929
      -946.8160      -46.49335      -372.9119      -135.7174       683.4777
       104.5797      -289.8682      -406.8739      -753.2665       11.03735
      -203.7318      -277.4805       1429.433       2265.190       2634.538
       1629.132      -671.0723      -1155.915      -1058.719      -1920.570
      -2142.849      -1021.594       81.47266       1093.750       1841.166
       1514.630       1571.967       1955.170       962.7661       193.5615
       327.9847      -542.9602      -1282.353      -998.0679      -1310.797
      -1267.506      -126.8657       580.8806       430.3469       647.8353
       499.4552       166.9503       768.7820       506.1060       815.3992
       1783.667       473.1475      -1309.551      -1139.824      -830.3859
      -115.5071       1152.341       301.4773      -309.1302       257.4512
      -847.5767      -1905.501      -495.6334       607.8605       372.8195
       364.5813       183.2759       98.04932       583.6892       1103.491
       1250.748       1387.964       536.3259      -764.2871      -828.3010
      -896.9270      -431.0359       214.4557       481.2354       422.9762
      -294.2255      -245.4719      -186.1361      -687.6351      -100.1924
       832.9226       1048.388       1404.569       1783.618       1583.179
       165.8669      -885.3928      -311.8733      -339.6459      -504.4121
       648.0972       1270.267       156.4324      -458.6434      -123.3352
      -492.8403      -994.9453      -1162.173      -1223.152      -607.8601
       893.3193       1813.691       1344.279       1307.371       1867.704
       1311.315       653.9304       1372.271       988.9858      -731.1519
      -559.9332       78.44189      -690.2527      -703.5475      -25.76172
      -404.8411      -1370.440      -1001.443      -782.5265      -885.7031
       1059.627       2067.466       921.3462      0.3170776      -231.9014
      -238.8007      -252.2351       88.39522      -163.3230       254.1777
       1400.308       697.2634       142.9773       25.34637      -23.40063
       621.8591       595.8574      -916.7622      -2491.762      -1422.785
       72.90428       95.07449       63.91748      -52.58838      -706.7186
      -603.3379       586.1791       205.9905      -228.7666       662.7882
       55.50977      -1054.219      -838.1503      -110.0854       519.2263
       599.2632      -595.2445      -1069.946       397.6813       583.2697
      -572.0647      -378.4342       481.0851       487.6320      -142.6039
       151.7201       221.0461      -658.7610      -489.0776      -732.6410
      -1056.519       93.63232       878.7407       1107.014       451.1719
      -868.7687      -420.8513       637.6826      -236.7744      -855.6311
      -550.3940      -1070.265      -882.0886      -112.0077      -511.7302
      -817.1937      -654.0652      -529.1174      -412.1575      -891.9714
      -826.8916      -565.0757      -1014.391      -875.0018      -309.7231
       519.3811       203.2095      -1144.256      -721.2343      -397.3743
      -650.0193       779.1978       1568.621       554.6467       216.0625
       985.4656       188.1484      -1097.905      -1146.171      -1816.659
      -1234.417       531.0649      -197.4180      -1288.757      -1216.252
      -846.9043      -193.1135       76.46851       322.3186       651.5531
       157.0706      -900.9393      -621.2185       808.2038       577.8550
      -599.7786      -97.86206       531.9714       112.4169       170.5522
       637.5122       1349.715       951.0981      -630.9479      -725.7468
      -247.5352      -191.6945      -61.91077       65.19727       839.6033
       1069.412       337.9189       3.562378       292.7046       616.9592
       974.0664       978.3555       1018.479       1688.722       1720.422
       506.1960      -558.7582      -601.7048      -653.7239      -556.6696
      -56.85037       255.1248      -50.21191      -482.0447      -85.67212
      -468.1140      -1298.767      -680.1184       634.6028       1332.133
       1139.935       1442.692       2934.368       2800.067       1031.555
       49.63916       406.8276       869.8574      -54.82886      -276.8926
       1125.065       2045.515       1193.541      -316.6460      -996.7842
      -1453.843      -1189.746       245.4067       165.4409      -1453.794
      -1174.765       762.3564       1844.725       1506.466       670.4863
      -486.5643      -720.9363       219.8600       336.3482      -206.8698
      -14.61426       174.5128      -221.9880       50.64771       864.4912
       1213.313       748.5981       122.5620      -433.2197      -1135.096
      -1319.850      -1260.112      -520.1086       102.6056       187.2915
       1100.631       863.9233       326.9834       765.1074      -310.7625
      -788.4170      -614.0635      -1559.252      -1129.498      -740.9663
      -1056.351      -307.6374      -42.61163       46.75830       543.2463
       887.4813       717.6332      -510.4071      -520.5657      -45.74072
      -1081.862      -1109.152      -182.8049      -228.1423      -1087.666
      -1525.205      -951.3729      -325.7045      -73.97705      -267.6411
      -872.0769      -889.6482       55.68335       1056.096       476.9419
      -916.7480      -1430.701      -1231.580      -397.7559       949.7710
       2215.358       1844.346      -555.6465      -2007.292      -1891.034
      -1459.228      -556.7113       303.4807       293.4952      -162.1552
      -9.500000       615.6863       464.7542      -166.7987      -260.6184
      -341.5872      -933.2961      -993.4602       18.20044       176.2978
      -112.4132       299.5835      -318.8450      -472.7900       683.7432
       583.2611      -633.2527      -783.4438      -823.9473      -1598.882
      -1224.067      -251.8710       183.7930       27.72070      -31.86938
       262.0620       44.93448       81.76245       80.14478      -710.3096
      -1413.522      -901.0957       589.3135       1241.238       764.4307
       1361.619       2099.475       1182.857       821.6086       898.0875
       512.1558       388.9987      -214.0779      -638.1853      -466.7708
      -729.9905      -944.7115      -168.0889       544.7842       4.747070
      -754.4587      -1119.091      -1093.626      -881.4874      -824.7642
       290.1187       1543.045       1779.151       2202.034       1590.092
      -133.6289      -737.2078      -998.8329      -727.7271       470.3214
       699.1228       428.8960       940.1475       1554.464       1783.205
       1976.384       1395.092       583.5545      -38.01025      -501.5430
      -105.9707      -521.5701      -1523.949      -931.2385       137.8010
       571.3491       1590.335       1467.155      -575.8201      -1091.945
       14.45508       677.4940       723.5484       524.7114      -43.11987
      -894.9064      -819.2791      -81.54947       131.2790      -265.0209
      -496.3059      -508.2625      -419.6995       304.5190       1249.792
       2171.676       1409.183       126.9080       763.9136       564.3827
      -366.1911       37.71271       333.4791      -210.9557      -613.4025
      -405.6568       28.84778       348.4443       896.2660       1004.301
      -37.24683      -389.3690       546.7877       290.9081      -853.4169
      -170.7612       831.7744       494.4886       112.0884       72.25183
       438.7816       243.8157      -830.0251      -425.0146       1030.520
       1355.649       1146.547       912.1448       590.1523       1020.556
       1781.280       1126.044      -53.93021       148.2831       81.31885
      -1141.781      -1093.534       196.5168       431.3420      -184.6941
      -557.9404      -755.1633      -659.9197      -140.1632      -106.1947
      -495.6213      -348.1536      -359.3296      -985.3015      -744.9355
      -310.1719      -946.5625      -866.4878      -192.0168      -369.5056
      -543.2596      -185.6671      -243.7497      -339.5420       752.0693
       1419.043       480.4485      -73.80859       348.5173       387.0059
       910.3213       1651.267       442.2915      -937.5559      -565.2224
      -751.4629      -1254.889      -1146.309      -1667.711      -1820.925
      -1114.604      -854.1906      -950.3750       288.4521       1858.124
       1859.058       1489.678       840.7484      -66.18311      -541.9885
      -874.4264      -316.8582       107.6411      -1245.107      -2337.710
      -1714.489      -970.9486      -233.7031       808.6064       2394.491
       4390.523       3078.854      -716.5088      -3022.203      -4310.410
      -6346.309      -7749.898      -4185.957       2350.168       5205.887
       5825.533       7267.092       6848.936       4178.074       813.6582
      -5001.246      -11560.63      -12540.33      -6261.740       2272.432
       5843.821       3856.604       4807.164       8601.961       5590.605
      -3852.344      -10458.93      -10903.75      -10071.88      -10290.52
      -8973.670      -3435.322       5099.840       10484.48       9666.412
       6772.752       5235.244       1642.645      -3237.326      -3279.755
       257.2979       1623.119       1598.563       2747.146       1860.629
      -370.1226      -277.6821      -286.0645      -3167.350      -7126.865
      -6815.525      -1857.248       2266.076       5758.270       8176.780
       4208.864      -3995.564      -7977.248      -5110.367      -791.6187
       1059.590       2885.832       9629.273       18004.57       18029.50
       8200.352      -1861.920      -5757.703      -8725.992      -13559.37
      -13261.59      -7306.411      -1982.844       4101.770       8991.402
       7283.999       3776.423      -359.5801      -5450.826      -7692.415
      -6243.086      -2297.640      -1928.824      -3554.758       1123.604
       5375.795       5581.532       5877.784       3815.791       509.6743
       363.2202       1737.274       1572.354       1709.620       1829.211
       2489.060       3885.045       1203.516      -3775.010      -2687.502
       1394.462       1477.130       1204.546      -918.6572      -2119.268
       1394.872       1759.468      -1797.189      -4139.938      -4210.551
      -2999.353       455.4375       6243.900       8326.223       3210.828
      -4422.525      -8184.228      -6344.304      -2180.486      -198.4312
       813.7441       4430.771       7777.452       5360.111      -1007.321
      -4170.976      -3983.585      -4941.845      -4861.379      -1305.920
       1194.108       2410.654       3537.633       1379.969      -2883.256
      -5921.955      -4961.907      -1095.508       2650.503       3421.116
       25.04004      -3110.106      -1740.311       2242.145       2255.258
      -393.5586      -860.1294      -1869.060      -2094.661      -564.2559
       596.3350       3210.214       3109.050      -1829.435      -2376.318
       1714.673       2538.559       953.7305       2611.006       2698.068
      -2105.063      -2510.812       1121.967       2374.835       403.1211
      -3367.549      -4030.167      -690.6333       2566.852       988.9761
      -2295.618      -1151.369      -438.5652      -901.8342       355.7310
       1037.828       121.6992      -3078.012      -2378.708       3496.723
       5813.122       3135.347      -23.79297       1147.627       1772.258
       713.8457       3878.627       3805.878      -801.9440      -554.9355
       2798.824      -190.8320      -6196.338      -7353.614      -4443.175
      -273.2559       2011.260       2772.513       3708.846       4699.775
       4114.010       1607.800      -706.3508      -912.0635       1719.476
       4908.907       3615.465      -1066.649      -3352.491      -3186.277
      -2035.337      -1966.816      -2150.614      -174.2354       2745.021
       2646.879       2287.018       3262.891       791.8650      -182.0977
      -562.7544      -2255.927       118.1338       1532.784      -980.4287
      -3856.410      -4378.572      -3251.442      -3840.715      -1826.001
       3058.438       3047.024      -27.16406      -1087.334      -2843.975
      -4910.104      -2611.475      -825.8584      -1168.182      -2426.753
      -4470.935      -1961.249       661.4312       243.3721       1673.691
       5141.742       6387.960       4153.000       2674.688       709.7329
      -306.5024       1805.924       1246.072      -483.3389      -371.4080
      -219.3608      -336.0547      -1753.820      -3779.449      -2710.327
       104.4097       1416.280       938.3029      -828.8029      -1139.858
       328.7737      -474.7002      -2225.294      -444.8672       3503.972
       4369.992       936.4482       1277.361       4129.325      -159.8555
      -6792.219      -7160.416      -3505.245      -2172.291      -3653.540
      -3543.469      -485.7393       1102.785       1705.114       1832.670
      -1322.250       813.9346       6005.207       3253.409      -609.2979
       276.9417       585.1659      -110.0063       1058.503       700.3102
      -961.9213       214.4031       1086.310      -858.8860      -492.3115
       2809.799       2609.653       84.14600       693.0439       1514.429
      -693.1289      -2665.360      -2074.397      -2063.877      -2400.734
      -770.1173      -11.89648       229.9004       434.0222       968.7914
       1126.654      -410.0140       21.89111      -307.6367      -2632.770
      -1873.687       592.2690       658.7627      -1349.615      -603.3384
       74.43652      -2757.769      -2380.557       1795.137       3604.229
       2601.531       2870.799       2263.547       420.9509       341.6420
       380.2805       287.7575       32.31250       252.0237       927.3833
      -87.95654      -1121.063      -998.8889      -1345.060      -802.1729
       898.0547       2324.068       1781.142       890.8840       1871.384
      -111.6167      -2370.479      -1915.377      -2534.807      -2303.430
      -1497.018      -267.0684       1045.249       875.2769      -2.221680
      -1534.770      -2171.500      -2164.713      -1059.449       957.8584
       2109.093       2100.273       865.0653       363.3921       975.2896
       1487.549       1869.607       2195.525       747.7792      -347.0200
       1564.119       2683.320       2421.381       943.3679      -1447.522
      -620.9340       505.1059      -67.61816      -890.4097      -2688.727
      -2258.635      -1593.520      -2458.253      -433.4167       1074.094
      -1091.049      -2859.680      -2277.979       489.7090       3164.418
       2505.376       661.8699      -106.9817      -784.9551      -1451.988
      -1288.110      -337.8156       629.4531       405.2325      -426.8064
       562.2600       1749.571       115.2520      -1875.326      -2109.908
      -2052.990      -1284.290      -191.7871       444.9702       1045.505
       1125.743       352.1064      -906.7090      -1738.643      -1597.896
      -111.8896       3004.432       5154.956       4337.705       3304.120
