     0.02500000      -136215.9       99069.83      -12345.00      -12345.00
      -29.99997       214.9250      -15.75000      -12345.00      -12345.00
       0.000000       11.79000      -12345.00      -12345.00      -12345.00
      -12345.00      -12345.00      -12345.00      -12345.00      -12345.00
      -12345.00      -12345.00      -12345.00      -12345.00      -12345.00
      -12345.00      -12345.00      -12345.00      -12345.00      -12345.00
      -12345.00      -31.32870      -68.47560       746.0000       0.000000
      -31.59500      -68.73200       0.000000       105100.0       0.000000
      -12345.00      -12345.00      -12345.00      -12345.00      -12345.00
      -12345.00      -12345.00      -12345.00      -12345.00      -12345.00
       38.28395       39.59989       219.4667      0.3442209      -12345.00
      -12345.00       1.965106       90.00000       90.00000      -12345.00
      -12345.00      -12345.00      -12345.00      -12345.00      -12345.00
      -12345.00      -12345.00      -12345.00      -12345.00      -12345.00
      2008        13        10        50        43
       150         6    -12345    -12345      9798
    -12345    -12345    -12345    -12345    -12345
         1         7        13    -12345    -12345
    -12345    -12345    -12345    -12345    -12345
    -12345    -12345    -12345    -12345    -12345
    -12345    -12345    -12345    -12345    -12345
         1         1         1         1         1
LAJA    -12345          
        -12345  -12345  
-12345  -12345  -12345  
-12345  -12345  -12345  
-12345  -12345  -12345  
-12345  -12345  -12345  
-12345  -12345  BHE     
ZL      -12345  -12345  
[...]
      -74.82214      -54.91658      -77.89131      -58.03571      -86.58200
      -69.22467      -92.41626      -63.84607      -80.53036      -57.77448
      -76.64240      -47.97980      -66.54740      -35.00108      -39.78835
      -6.934679      -19.01125       17.08535       7.026680       39.47850
       26.06671       48.63783       28.00191       56.23828       43.46686
       77.89856       72.00266       109.1750       100.4743       141.5154
       131.3481       155.5935       139.2122       163.8406       137.2705
       159.0085       137.7471       160.4844       144.4945       178.5055
       169.9050       203.6340       191.0720       223.1895       209.0181
       240.6642       226.4846       254.0020       234.6215       252.8558
       224.4235       240.9017       209.0209       221.3059       194.4457
       220.1484       206.5232       244.7088       242.7943       282.3681
       279.0189       316.7710       307.3995       333.3309       298.5392
       311.4368       279.1349       288.9986       248.9608       260.7706
       231.2988       243.6044       214.0214       238.6396       211.4740
       227.9255       201.5050       227.2665       199.9534       223.2880
       199.1279       214.4962       179.2381       193.4489       158.2960
       171.1241       142.3715       165.5980       138.3802       156.9175
       128.4676       147.2905       116.1841       126.2316       84.26570
       84.81308       39.84264       46.15917       8.368244       21.51518
      -1.686787       27.03928       8.968491       48.55177       45.76782
       75.35745       47.10085       66.15785       29.38588       28.34518
      -19.30387      -17.45142      -55.48322      -42.39523      -72.21088
      -51.28130      -65.17743      -23.03370      -29.60308     -0.3293753
      -12.48429       11.85664      -18.65492      -9.671906      -45.35999
      -38.63484      -74.85948      -69.32593      -101.4133      -80.70752
      -91.37953      -58.64613      -63.48109      -27.40130      -40.25227
      -17.46268      -45.82809      -31.29224      -56.25920      -46.13858
      -81.57605      -76.31747      -108.9041      -91.02823      -108.7083
      -79.25238      -92.49377      -54.93755      -60.89664      -39.10600
      -61.67668      -36.05643      -60.69307      -54.11588      -96.74295
      -100.3848      -150.5852      -155.2074      -198.1915      -191.2819
      -213.9185      -187.6039      -193.5667      -139.6948      -129.8653
      -81.84467      -74.69412      -27.67134      -44.50641      -26.22992
      -56.97318      -52.81781      -91.72525      -80.42807      -110.1439
      -92.23901      -112.1336      -90.29846      -114.4431      -91.41605
      -110.1744      -86.47809      -102.7862      -74.96875      -91.62839
      -73.24271      -100.0213      -87.45746      -120.2626      -93.73584
      -111.5233      -81.62708      -96.51923      -69.12430      -84.40724
      -45.10275      -52.00620      -17.43584      -29.44210      -9.850044
      -43.89590      -37.84317      -84.70316      -81.12189      -112.0461
      -97.17072      -113.4966      -80.62300      -88.82578      -52.41867
      -59.26320      -31.34842      -54.09380      -34.62357      -58.83478
      -46.83846      -81.59988      -82.99902      -120.9900      -110.4214
      -136.7982      -114.8130      -128.2353      -97.58701      -106.7081
      -75.69287      -75.94883      -37.11475      -44.86720      -18.04250
      -34.91371      -21.70024      -50.87984      -45.50348      -76.76022
      -63.54324      -86.78133      -67.46828      -88.93781      -68.11806
      -85.84082      -63.18633      -85.69983      -75.76505      -108.0331
      -98.14105      -135.4703      -126.5172      -151.4536      -134.9667
      -153.2613      -114.8736      -116.0696      -70.48549      -73.23093
      -43.27658      -55.61613      -25.59039      -43.78409      -18.31863
      -42.43002      -34.17819      -71.89583      -56.24225      -83.10175
      -68.61987      -84.04984      -56.52103      -81.12526      -58.63269
      -73.97989      -54.15453      -78.97028      -52.30092      -67.63937
      -43.16103      -57.62273      -24.15292      -31.94648      -1.294680
      -13.04234       17.78956       6.334930       32.23391       7.299202
       22.52611      -3.257448       13.30794      -14.45498       1.337418
      -25.34606      -4.947990      -21.53295       6.505938      -9.509094
       25.56168       18.84653       57.88760       45.84650       71.79803
       43.23764       53.53114       17.30808       30.00401       3.938583
       17.43859      -13.50060       12.39605      -4.063461       27.11089
       12.92972       47.71082       35.29729       56.68170       23.03040
       37.21362      0.5275517       13.73085      -20.04830      -6.369308
      -35.39419      -10.83379      -34.73144      -10.90696      -29.49926
       3.472309      -16.65176       5.673374      -20.44310      -2.295502
      -33.29756      -21.45049      -60.30725      -48.93190      -82.54553
      -63.90750      -92.79539      -65.65152      -84.16156      -54.98544
      -78.92764      -58.66562      -88.28333      -69.22098      -98.96588
      -79.24872      -112.2485      -92.77881      -115.0899      -91.57220
      -128.0679      -106.7466      -117.3972      -71.30493      -76.32769
      -36.84489      -13.43497      -10.55345       31.00247       178.6875
      -445.2158      -914.3467      -3698.285      -7703.086      -10247.18
      -11307.66      -5676.158       1714.008       14711.16       26077.64
       12941.23       6779.881       7319.379      -14284.16      -13687.37
       2514.204      -6140.744      -5464.896       10067.65       7174.791
      -3900.197      -3992.121      -3360.223       855.4453       11399.90
       7309.318      -7850.734      -9249.342      -6266.334      -9376.894
      -106.0508       11911.33       8357.254       850.8477      -2509.726
      -3018.305      -7123.520      -8751.021      -1503.221       2391.891
       8443.461       12912.86       2366.957      -1182.475       5820.915
       2341.878      -4475.947      -1799.196       676.5093      -2003.919
      -3394.719      -2952.732      -5219.701      -3340.451       6156.980
       10350.81       7405.244       5229.390       241.6680      -8540.982
      -12629.01      -6249.229       4859.986       8030.348       3047.997
      -1878.570       1042.211       7599.235       4278.709       19.53979
       2474.744      -3363.562      -8525.225      -2081.416      -4454.694
      -6107.717       3816.153       3883.816       1182.418       6229.405
       4100.872      -1796.906      -2058.767      -3376.475      -6083.808
      -5067.191      -6238.197      -5371.600       5545.590       12224.46
       10134.22       11945.14       9002.307      -1821.742      -6552.449
      -5366.310      -2766.842      -5078.934      -6918.153      -1133.881
      -900.2739      -3232.119       622.4570       2501.045       1962.597
       435.5500      -1258.504       2798.853       1924.559      -3321.890
      -3000.979      -3403.653      -1782.826       5661.916       9112.323
       4554.786      -980.9805      -3037.463      -4163.135      -2725.409
       2361.110       3332.476       686.4873       1641.967       398.1201
      -5069.113      -6144.464      -423.9219       4124.793       1605.135
      -1374.863      -2106.934      -5838.846      -6263.556      -2009.396
       704.7432       4394.365       5594.119       2092.748       2450.040
       5026.833       2124.482      -3014.738      -4425.455      -5724.170
      -6241.080      -502.5459       4573.631       4271.054       2994.895
       2301.787       4214.700       4479.533       1267.537       249.3140
      -1074.682      -3522.759      -4845.818      -6276.379      -6150.492
      -4284.846      -418.9229       4075.232       4469.672       1192.442
      -840.1316      -1140.243      -748.1169      -236.5758       273.5862
       25.99609      -2695.896      -5846.434      -5006.618      -2312.545
      -171.5801       2951.472       4478.280       3175.026       4316.881
       4190.795       2304.489       4044.882       2147.832       159.9600
       2482.136      -926.3965      -4249.068      -1306.013      -1095.139
      -3190.705      -2177.613      -144.3896       2105.788       1559.563
      -1739.779      -2903.660      -613.4136       2718.772       2956.696
       1786.930       295.5059      -3800.252      -3922.423      -1075.965
      -2631.564      -3282.467      -255.6064       21.33643       643.5479
       4535.210       4884.838       3895.755       3203.877      -1305.146
      -3752.382      -3637.502      -6998.085      -6881.513      -1798.110
      -1012.445       2025.350       6934.072       5111.410       3896.637
       4695.906       3029.549       4190.085       5121.858      -331.2422
      -6174.152      -7166.088      -4622.020      -898.4038      -227.2617
      -4333.230      -6342.631      -4814.684      -3253.818       2060.889
       6794.230       5203.309       4569.625       5685.198       923.8896
      -3257.812      -2808.310      -4566.701      -5924.485      -3708.564
      -267.8760       2189.525       1214.273       320.5762       446.3491
       1303.579       3688.011       3774.038       2419.477      -1632.625
      -6626.017      -6054.047      -3213.640      -917.6592      -106.1182
      -2384.075      -3456.091      -313.1709       2007.502       3922.678
       4874.775       2524.890       1347.409       839.7920       1893.503
       3539.765      -213.1050      -2327.861      -2050.481      -3649.282
      -2535.386      -1691.146      -2368.368      -270.0762       2529.141
       1013.093      -1899.186      -197.5762       1671.688       2847.694
       5227.586       1790.218      -5375.135      -6476.348      -3795.984
      -2281.513      -918.3543       14.04834      -745.6006      -1121.036
       775.5820       2185.701       3515.582       5202.541       1345.703
      -1738.297       1834.410       3979.894       2295.436       853.8923
      -313.6338      -2447.104      -4276.940      -2415.672       1439.843
       2125.828      -1724.437      -5530.150      -3126.189       908.0215
       1141.028       742.4810       1051.605       1760.150       2876.676
       2981.125       2162.005       2216.920       956.0542      -1626.130
      -2300.950      -1798.070      -2069.361      -2079.088      -778.4058
       885.9766       4005.178       4552.028      -13.74121      -1556.108
      -1209.452       286.5273       3384.361       2596.133       1305.103
       439.2881      -3492.211      -4006.315      -287.0481       85.20752
      -1927.543      -2270.715      -1651.901      -2000.366      -2973.527
      -1382.840       2179.864       4400.506       4936.558       3433.402
       1562.128       1828.799       1652.299      -1017.064      -1793.812
      -949.9561      -1683.572      -1341.491       176.3208       1052.267
       350.7512      -255.9873       1218.896       871.0674      -1349.137
      -1274.844      -2347.996      -3593.547      -55.30371       3480.185
       2876.445       2185.692       1599.563      -724.4888      -865.7798
       1272.249       2245.501       1911.479       98.00635      -2579.065
      -3114.909      -2466.062      -3894.541      -4292.774      -204.9590
       1591.332       419.7695       4550.535       6993.853       2994.885
       1011.969       559.1887      -1268.746      -1779.049      -1834.195
      -3768.791      -4798.801      -773.0469       4303.624       5754.528
       4425.426       1881.873      -249.4689      -420.2734       1420.908
       883.8887      -4676.947      -8011.895      -6524.752      -4027.293
       1386.549       6078.443       6851.688       5163.482       768.2568
       228.8125       4347.943       4494.276      -457.2949      -5012.730
      -5752.334      -2145.687       2329.014       3249.847       1518.472
      -1198.372      -4228.135      -4341.391      -2817.433      -2045.250
      -961.6338       1703.808       3152.689      -299.5679      -730.0591
       2327.777       939.2979       970.0645       3476.876       1359.911
       243.9858       2889.776      -65.85547      -3929.037      -2030.920
      -688.8823       991.6465       3500.182       1868.509      -1289.272
      -1859.876      -31.89990       1561.292       2182.671       904.0452
      -789.0303       1752.205       5099.688       7722.934       12358.79
       20939.00       37931.53       58471.64       68818.66       55879.39
       16174.06      -32099.38      -62708.58      -68775.31      -73106.72
      -100981.0      -136215.9      -132484.0      -74499.84       6658.766
       70407.47       94983.25       93094.09       93663.25       99069.83
       89522.04       51419.24       424.8125      -30727.18      -31566.05
      -13656.54      -4727.125      -19818.69      -42048.36      -38478.76
      -3596.887       21047.53       12217.93      -13190.34      -25780.02
      -14968.90       2817.081       8113.727      -9787.617      -36150.27
      -40381.73      -17247.74       13245.51       19682.95      -8054.492
      -30463.71      -19545.60       11023.97       45070.78       70920.61
       77603.31       60946.84       22737.63      -21275.75      -48614.39
      -55249.77      -47112.96      -28436.25      -7837.090       5775.408
       8423.352       7081.250       9855.682       12391.94       5440.406
      -8524.385      -12481.65      -7111.809      -7277.020      -6973.930
      -4362.207      -12541.74      -10854.79       16403.27       38322.95
       39844.69       31837.31       19821.25       8610.529       1415.285
      -6287.230      -9164.695      -3881.033      -2870.500      -16414.17
      -41572.36      -54324.84      -46382.76      -35070.10      -18177.86
       9002.797       32867.92       44878.66       41189.56       21820.25
       2131.264      -8077.891      -18111.97      -22396.47      -976.3125
       24424.69       26074.30       14958.83      -3501.164      -21340.49
      -20074.90       1680.234       27782.95       35268.61       16268.62
      -9965.824      -19475.86      -8397.473       5936.420       11276.07
       2390.156      -17964.63      -29337.39      -29979.38      -30508.69
      -28350.16      -17223.55      -833.7520       9505.984       12256.34
       5842.313      -3685.812       985.1328       19262.65       36099.31
       41380.02       34257.61       18866.03       4625.420      -1767.006
      -6308.973      -9026.285      -10029.70      -13823.00      -16175.38
      -15945.89      -12813.27      -5725.291       2179.148       6494.153
       5336.335       392.1816      -6053.139      -8354.285      -7851.707
      -10337.37      -11534.02      -13367.02      -20554.73      -20481.05
      -7453.676       8460.109       22057.32       25044.12       19624.61
       23899.72       30727.96       30482.35       29269.91       17520.30
      -7756.039      -26863.42      -30200.15      -28604.50      -23487.04
      -11638.78      -5896.447      -2806.731       5224.617       3918.709
      -1141.745       142.0327      -1029.020      -3130.680      -6839.502
      -9764.348      -6229.543      -1578.036       3237.381       6275.318
       5239.711       8883.160       16719.74       14070.51       5508.193
       4339.525       8187.436       9058.462      -199.0391      -13224.62
      -19298.48      -17144.42      -9701.725      -1745.960       2258.492
      -1394.868      -2725.316       7388.430       20241.90       26980.02
       19097.62       3078.925      -3679.830      -4563.428      -8693.352
      -12223.32      -10968.12      -7621.574      -4834.196      -2708.984
      -758.3445       494.5234      -1985.036      -5662.166      -2721.160
       1458.500      -1281.946      -813.6836       3476.019       2160.433
       1530.936       6425.215       13217.01       13865.99       2171.811
      -10559.11      -13060.04      -6380.226       5084.855       11498.98
       7040.009      -847.9785      -4333.430      -1248.895       1709.443
      -216.3198      -2060.431      -2244.957      -567.2413      -186.8965
      -182.1367       7316.566       17246.13       17783.71       6806.801
      -6717.320      -14397.79      -15931.35      -12830.19      -6224.742
      -5306.777      -13287.05      -16658.72      -5829.621       12292.04
       23727.05       23329.21       16327.30       5402.406      -5229.344
      -7833.648      -6407.226      -4621.773       2248.330       9159.574
       12272.54       17357.59       16372.80       912.1992      -13657.31
      -17375.83      -16818.23      -13484.55      -8394.258      -6989.783
      -7173.515      -3229.302       2453.180       9225.711       16704.90
       14561.41       3107.398      -6981.025      -10167.46      -5978.141
       504.7998       3258.970       3121.439       4340.195       6721.198
       5674.238       1276.129      -4014.217      -8691.896      -7568.928
      -2519.699       461.7949       4246.396       8921.355       7530.916
       4183.459       6081.071       4671.214      -110.6543      -1550.877
      -5668.062      -9714.555      -8987.224      -6574.312      -471.8506
       1885.514      -7135.363      -14048.16      -7999.527       3719.943
       10559.24       9051.459       3001.457      -4982.682      -10794.94
      -6609.500      -35.12109       2671.613       11575.16       18617.83
       15579.38       12715.95       8287.039      -155.2124      -2692.985
      -690.5347       552.6455      -530.7148      -6326.785      -10750.68
      -14954.72      -17686.64      -13608.62      -10137.53      -5844.567
       930.0078       6505.375       10976.34       9676.565       6220.468
       3667.673      -2244.855      -5263.688      -3990.439      -2378.468
       1445.531       6081.664       4057.893      -4090.459      -5372.561
       1129.688       5929.500       8000.398       8446.934       7834.426
       4239.342      -4217.246      -12342.10      -16345.27      -14588.11
      -6660.334       3464.734       9870.916       8779.415       2722.155
