     0.02500000      -98097.08       96676.97      -12345.00      -12345.00
      -29.99997       214.9250      -15.75000      -12345.00      -12345.00
       0.000000       11.79000      -12345.00      -12345.00      -12345.00
      -12345.00      -12345.00      -12345.00      -12345.00      -12345.00
      -12345.00      -12345.00      -12345.00      -12345.00      -12345.00
      -12345.00      -12345.00      -12345.00      -12345.00      -12345.00
      -12345.00      -31.32870      -68.47560       746.0000       0.000000
      -31.59500      -68.73200       0.000000       105100.0       0.000000
      -12345.00      -12345.00      -12345.00      -12345.00      -12345.00
      -12345.00      -12345.00      -12345.00      -12345.00      -12345.00
       38.28395       39.59989       219.4667      0.3442209      -12345.00
      -12345.00       1.722229       0.000000       90.00000      -12345.00
      -12345.00      -12345.00      -12345.00      -12345.00      -12345.00
      -12345.00      -12345.00      -12345.00      -12345.00      -12345.00
      2008        13        10        50        43
       150         6    -12345    -12345      9798
    -12345    -12345    -12345    -12345    -12345
         1         7        13    -12345    -12345
    -12345    -12345    -12345    -12345    -12345
    -12345    -12345    -12345    -12345    -12345
    -12345    -12345    -12345    -12345    -12345
         1         1         1         1         1
LAJA    -12345          
        -12345  -12345  
-12345  -12345  -12345  
-12345  -12345  -12345  
-12345  -12345  -12345  
-12345  -12345  -12345  
-12345  -12345  BHN     
ZL      -12345  -12345  
[...]
      -244.2947      -225.0599      -222.5085      -208.8740      -196.0361
      -186.9125      -190.0858      -182.9246      -189.9164      -190.9512
      -198.1354      -196.8979      -206.3187      -206.3661      -201.8964
      -177.8131      -162.3953      -140.9338      -131.7884      -128.1041
      -133.5970      -141.0352      -157.0787      -159.0237      -167.3994
      -168.1258      -158.3737      -138.6284      -123.3378      -98.53545
      -76.64703      -52.07690      -40.54190      -34.57661      -35.35135
      -46.16599      -54.88503      -53.94981      -58.22708      -62.34009
      -53.71828      -36.04414      -16.58824      -3.595734       26.30449
       60.39432       87.52905       101.5332       118.5945       123.9027
       130.1373       125.2927       117.9033       109.0156       109.5331
       104.8777       117.1451       126.9410       145.0613       158.5931
       172.3408       177.3152       193.1135       193.0735       190.7272
       180.8334       177.2084       171.6107       182.3855       193.9398
       222.2237       245.4286       269.9817       290.5940       315.5818
       327.7731       348.9600       348.5655       342.3183       321.5710
       307.7097       282.7866       279.0388       263.6648       260.8667
       253.1528       263.6520       262.1722       285.7630       301.5862
       327.6334       326.5126       330.5654       316.4478       317.5233
       295.4341       284.7559       251.9181       229.7967       194.1312
       184.6896       171.3191       184.3679       182.5307       209.7382
       223.0103       238.9224       225.4121       241.8816       222.0927
       207.7407       170.2513       153.9544       107.1417       90.15146
       55.54419       48.81761       23.28943       29.10895       23.87872
       50.63770       48.80214       72.81860       78.55908       102.7323
       92.96747       90.99596       55.41337       35.30166      -2.052078
      -12.45537      -49.80455      -57.00887      -78.97623      -71.94597
      -76.08835      -44.94996      -40.44094      -21.29639      -38.78204
      -49.64587      -86.57892      -101.0948      -140.1426      -145.3754
      -169.4852      -170.5168      -192.1820      -180.1429      -188.4591
      -166.8224      -173.3227      -145.6543      -145.5548      -128.3260
      -148.3315      -149.6680      -193.8646      -214.4359      -262.8846
      -282.3599      -324.6951      -329.6597      -347.0449      -312.3898
      -293.3847      -242.1089      -218.2604      -170.1579      -171.0100
      -160.3871      -188.4809      -187.8003      -221.9249      -224.3855
      -262.6956      -258.1937      -290.3329      -287.3491      -300.1360
      -267.6287      -265.1945      -218.7023      -203.2216      -164.3074
      -172.6531      -146.5766      -161.2257      -146.4753      -164.8061
      -147.1852      -160.5511      -137.8433      -152.9882      -127.8314
      -129.1913      -101.5428      -105.1710      -65.88708      -74.02887
      -55.11612      -75.19968      -68.32349      -104.3012      -101.1971
      -120.3814      -92.77034      -95.48599      -55.39828      -56.41268
      -14.78262      -6.141350       32.75375       39.68271       84.09412
       79.70453       103.3664       93.32239       123.3778       108.6906
       128.2982       104.9057       110.9282       85.63000       97.38138
       66.53218       81.83545       65.49017       89.46298       85.15164
       115.8041       110.2917       148.6175       147.0478       179.0511
       170.4173       206.4108       192.7603       213.8829       197.0413
       217.1371       191.7594       215.6591       195.3215       216.9159
       192.6935       211.8494       186.7097       195.0522       161.3546
       182.9535       162.2465       183.6055       167.4845       195.0283
       175.4132       209.1671       201.6223       225.4143       196.5388
       212.9951       179.5801       186.0059       148.4662       160.3608
       132.9727       154.7888       122.0174       138.6596       105.2479
       118.6268       86.08560       104.0584       73.41229       99.30719
       72.63150       97.48108       76.31207       112.8793       105.4383
       139.7714       112.9058       138.0362       104.3379       112.1030
       61.23021       65.53360       22.08753       36.60894      -5.073320
       12.44479      -21.06092       2.753838      -27.69284       12.91807
       2.049530       49.78445       34.66547       67.05154       34.20669
       50.79516       6.310980       22.12232      -25.01904      -19.97151
      -57.74367      -39.64970      -80.31149      -54.39325      -81.00056
      -55.41226      -78.01581      -47.34636      -75.97610      -48.56839
      -90.31509      -70.65973      -101.5786      -83.44897      -124.7823
      -107.9932      -147.6108      -120.0269      -141.2168      -99.31998
      -119.2809      -81.44333      -102.1689      -68.04095      -90.71722
      -62.21899      -102.9608      -91.09290      -143.4371      -146.2948
      -204.0941      -189.2405      -220.2797      -180.7503      -191.2087
      -134.8077      -131.9935      -63.07826      -62.04866      -10.96070
      -26.15829       2.920563      -57.19705      -52.87830      -114.9934
      -158.7999      -402.7510      -590.3447      -1714.192      -3218.929
      -2955.231      -3822.637      -186.9238       5305.064       3290.049
       8663.960       4474.891      -12350.43      -12148.15      -8861.395
      -11043.48      -12199.89      -3737.980       15930.64       18509.67
       16153.29       19677.44       9034.137       6643.522       5908.871
      -14097.42      -16464.41      -3933.504      -13316.31      -25158.93
      -13850.80      -928.0625       1844.367       12803.80       25056.19
       18943.90       3825.016      -6455.773      -3748.750       1632.133
      -4350.552       486.0664       14768.78       6853.691      -6480.600
      -6669.483      -5368.807      -1757.763       1720.037       1733.396
       4467.517      -1694.723      -13959.83      -6981.656       9993.961
       12597.39       7574.575       3741.838      -5564.438      -15274.26
      -12330.55      -4538.757       1212.842       6262.295       8298.988
       7639.571       2715.970      -5765.598      -7420.857      -3728.491
      -4656.144      -3331.833       3959.080       5460.215       6077.480
       8657.281       6839.324       11128.90       13233.29      -106.7031
      -11958.02      -15895.98      -15629.94      -8326.332      -387.7660
       529.2036      -275.7002       3306.980       7903.328       11732.38
       14882.77       10274.36      -1528.355      -13724.29      -17241.52
      -10618.22      -6730.639      -3139.259       4313.612       5388.473
       5346.898       6204.848       6511.938       9743.238       5706.681
      -3302.285      -7003.139      -10601.30      -10510.62      -3104.836
       5441.994       8350.392       4621.454       257.7104      -808.6035
      -2296.535      -6139.602      -5558.430      -2414.074      -4358.318
      -3808.411       495.5576       2915.996       7494.381       7607.897
       1382.473      -504.8945       1052.160       3403.975       5062.072
       4731.473       2823.643       1602.156       1620.482      -406.9160
      -3505.266      -4941.242      -8085.348      -10485.23      -9189.074
      -6164.066      -1565.695       1466.107       3147.677       5419.667
       4621.162       3438.876       4108.253       1851.152      -2383.196
      -2361.448      -835.8457      -2567.842      -3735.581      -551.2959
       2615.189       5067.223       8443.176       8546.589       3776.214
      -1157.628      -3776.693      -3423.595      -1909.187      -2157.920
      -1348.364       789.9136      -806.7891      -3487.592      -4922.742
      -5364.208      -2511.894       449.7883       461.2141       907.0681
      -294.6936      -1999.523       378.5176       3883.480       3247.067
       3537.514       4323.946      -826.0551      -1513.064       1889.239
      -129.2441       398.3230       1318.163      -2452.691      -3648.890
      -1271.259      -88.92346       87.87476       497.9497       245.4453
      -2070.599      -2907.241      -1847.647      -2163.593      -1528.030
      -402.3861      -365.4858       1196.846       1725.250       1134.203
       1019.255      -382.1567      -136.6860       2423.604      -106.6494
      -4183.267      -2464.446       1195.191       1846.709       2084.673
       4237.433       3766.300      -943.0557      -1939.566      -1371.026
      -2742.360      -575.6938       1724.873       1355.817       1622.787
      -721.6172      -4260.621      -3657.727      -1629.362      -2517.567
      -2911.382      -143.0137       2848.474       2453.314       1654.506
       4234.279       7026.478       3287.723      -2336.946      -3784.837
      -4188.487      -1690.930       756.7197      -2242.486      -2333.018
       1237.814       3635.017       4617.410       2533.475       369.9512
      -1132.903      -4559.153      -3452.619       1575.331       3446.633
       879.8682      -2600.087      -1906.173       2882.687       4318.333
      -210.6543      -3833.764      -3362.486      -3850.677      -2709.460
       1739.498       2965.052       1922.880       675.1438      -355.5466
       713.1328      -1255.106      -1046.721       3789.675       1840.686
      -3842.744      -3779.117      -1183.508       457.5073       702.5767
       976.3687       1742.684       1311.108       1255.006       1921.838
       409.3516       1041.690       1271.020      -1942.558      -869.6890
       2147.932       529.8594      -2884.211      -5743.826      -5786.926
      -3955.017      -1111.088       2708.022       4837.395       4898.888
       3066.906       1345.292       2655.983       1371.779      -3434.789
      -6035.319      -4325.791      -2218.542      -2048.780       1152.279
       4196.743       1834.446       924.3601       1417.215       451.2293
      -72.51074       388.0962       945.5435      -80.10742      -1002.057
      -1142.365      -5339.880      -6010.806      -288.4102       1476.973
       1924.721       5321.025       6930.646       4835.099       915.8372
      -676.8890      -499.0546       104.4873      -551.2139      -3214.561
      -4042.270      -4831.984      -7359.793      -5746.835      -422.8633
       4489.518       4436.358       2513.822       5288.316       7485.368
       3168.888      -3216.218      -5316.935      -3139.252      -3037.992
      -2932.932       669.2637       3114.990       2270.129       153.9165
       431.8750       2943.890       310.4873      -4793.283      -5468.264
      -2898.104       412.7393       1725.532       1147.577       2485.160
       1952.796      -641.9473      -2513.861      -2473.236      -822.2700
       1348.955       2777.688      -758.5859      -3336.387       19.50879
       1855.728       3925.143       4759.193       1031.482       26.05127
       1578.086       524.2941      -909.0788       76.60596      -38.40234
      -5905.395      -7562.873      -2144.647      -437.0504      -350.7100
       2675.652       4980.113       6062.210       5080.377       2802.610
       1983.507       1889.472       105.3691      -3783.377      -5483.669
      -3795.047      -4270.264      -4899.551      -3569.253      -1468.866
       857.2202       2285.209       60.57031      -5883.278      -7335.773
      -1580.086       3596.723       5968.090       8020.180       8119.447
       3472.889       446.6873       1297.002       1086.851      -678.3711
      -1990.201      -1037.142       1952.150       2569.117       780.5437
      -909.6963      -2602.959      -3504.684      -2251.349       859.7866
       2367.461      -1102.605      -2935.739      -2612.766      -5680.045
      -6584.766      -2649.061       130.2393       755.3330       1187.434
       4552.178       7495.607       5327.332       2890.255       1680.694
      -120.6904      -1373.711      -3862.876      -4297.268      -1378.124
       597.0618       741.8433       834.3877       1612.598       1688.047
       641.0801       1360.976       2662.884       128.1807      -4514.182
      -5233.477      -4081.928      -4277.589      -2649.774       861.0645
       3280.423       4212.312       1969.014      -1996.672      -3986.588
      -2421.211       514.3457       1886.486       4169.074       9571.352
       17360.09       28186.02       32651.88       23700.88       10117.75
       142.6504      -6626.766      -14175.36      -18471.35      -3790.281
       32782.66       71643.45       83760.55       54576.55      -8656.438
      -74827.84      -98097.08      -76219.84      -48875.21      -40399.88
      -47444.94      -48737.31      -39418.93      -25515.18      -3240.469
       28111.78       59837.66       74170.98       59618.96       21624.48
      -9284.542      -4675.078       18138.98       29818.54       13383.28
      -21466.55      -38507.38      -23912.46       3067.957       18606.80
       13084.59      -1859.188      -11551.54      -14041.21      -7166.201
       8254.355       16967.04       4077.055      -23735.61      -39741.55
      -44229.50      -57535.14      -60704.41      -27845.19       22585.16
       66198.41       92799.78       96676.97       82829.57       53125.89
       14465.61      -15254.83      -36893.05      -57556.45      -68100.78
      -59278.19      -31823.81       5169.324       20906.28      -341.5039
      -16366.83       3746.957       23125.76       12257.16      -7074.469
      -20106.27      -26031.79      -15961.09      -708.0439       1710.285
      -5099.234      -6741.582       6917.219       36846.25       67129.30
       72930.11       47521.34       11860.00      -10101.43      -10947.71
      -5281.734      -16443.56      -45566.11      -68982.22      -65547.35
      -40406.91      -12204.40       14968.97       33202.20       29676.70
       20589.94       17245.94       1858.359      -20474.72      -31320.49
      -35152.57      -38677.59      -36176.88      -13937.12       29587.31
       71254.53       93856.89       94070.84       68631.72       32658.74
       6722.656      -13723.52      -33739.27      -43630.78      -48214.17
      -55504.14      -46967.40      -26538.62      -17316.74      -7521.344
       12470.88       21938.55       7337.176      -11608.77      -18819.34
      -24915.62      -20187.88       11098.77       49353.39       67120.55
       51654.27       14580.13      -17991.66      -36433.36      -38546.02
      -19711.64       10257.30       32057.72       37895.52       28968.44
       9953.748      -4418.100      -4346.287      -6175.750      -19510.54
      -31934.30      -41290.64      -40600.23      -17316.06       11514.76
       21303.18       15715.78       14276.11       15193.88       8165.318
       1187.631      -2141.738      -11065.33      -18520.15      -12400.87
      -8547.895      -18956.92      -23303.12      -9291.586       11669.11
       33873.72       52206.05       52289.36       32204.47       7444.914
      -10397.88      -18506.58      -15100.85      -11078.92      -16439.95
      -20575.99      -13603.66      -3895.352       2117.416       8586.250
       9441.701       3722.861       1946.724      -1679.574      -11551.71
      -18502.17      -16130.12      -7805.345      -2804.760      -358.4805
       7980.598       19721.81       25371.05       26066.69       25695.18
       17548.96       502.3906      -16984.06      -23058.04      -15221.03
      -8030.465      -8189.443      -9409.098      -11520.32      -14316.95
      -9662.494       3965.062       14493.93       15178.32       10437.36
       1747.792      -4003.240       1942.844       6837.829      -2202.688
      -13319.35      -13620.80      -12112.46      -9689.855       2590.551
       11753.44       9496.443      -53.78125      -7579.619       4226.812
       22989.89       27344.86       20348.81       8392.131       2331.939
       7079.340       11520.45       7869.045      -5541.977      -19229.19
      -24268.68      -22655.12      -15759.47      -10336.09      -12200.39
      -14565.24      -11549.39      -2990.636       5144.100       4941.982
       3612.605       10062.79       11119.73      -2066.074      -13149.80
      -7287.180       9237.633       18737.49       14734.73       4952.968
      -2103.732      -623.9570       7426.059       13331.17       12623.25
       7122.201      -1355.043      -8690.018      -10012.37      -6697.783
      -3910.594      -8482.070      -20214.01      -20770.06      -8780.111
      -4717.274      -4197.389       5834.184       14410.60       13149.70
       12156.93       13355.46       9923.877      -1017.996      -16644.34
      -22997.27      -16592.18      -4258.613       10295.26       20055.46
       22283.62       19321.75       15080.58       12465.83       6718.631
      -6379.715      -19954.05      -21145.32      -12390.88      -3743.716
       1645.644       975.1201      -2863.725      -2081.648       4573.268
       9906.426       7293.731       2276.531       1251.698       563.5938
      -4627.184      -11053.96      -10535.16      -4479.685      -1032.615
       907.5703       6371.184       10463.06       7426.234       6717.035
       11164.73       11438.36       9058.674       4517.082      -4249.262
      -9566.715      -11002.19      -14318.35      -17471.72      -18065.19
      -18262.20      -16426.74      -8089.555       4255.586       13160.13
       17672.16       19167.52       16513.13       13546.54       14042.08
       11858.60       1729.789      -10891.23      -16936.05      -14740.34
      -9370.990      -4839.306       1811.117       10544.76       11449.27
       6060.621       4059.511       1830.673      -1690.463      -1898.794
      -3792.697      -7400.284      -5547.681      -2304.360      -3181.462
      -2305.570       1447.156       1192.499      -1301.898      -1342.367
       269.9238       3085.070       5975.121       6919.942       4819.391
      -704.0078      -5931.082      -9043.742      -12211.41      -10932.94
      -2986.684       3083.260       4066.385       6333.133       11305.81
