     0.02500000      -49579.77       70009.52      -12345.00      -12345.00
      -29.99997       214.9250      -15.75000      -12345.00      -12345.00
       0.000000       11.79000      -12345.00      -12345.00      -12345.00
      -12345.00      -12345.00      -12345.00      -12345.00      -12345.00
      -12345.00      -12345.00      -12345.00      -12345.00      -12345.00
      -12345.00      -12345.00      -12345.00      -12345.00      -12345.00
      -12345.00      -31.32870      -68.47560       746.0000       0.000000
      -31.59500      -68.73200       0.000000       105100.0       0.000000
      -12345.00      -12345.00      -12345.00      -12345.00      -12345.00
      -12345.00      -12345.00      -12345.00      -12345.00      -12345.00
       38.28395       39.59989       219.4667      0.3442209      -12345.00
      -12345.00      0.1172040       0.000000       0.000000      -12345.00
      -12345.00      -12345.00      -12345.00      -12345.00      -12345.00
      -12345.00      -12345.00      -12345.00      -12345.00      -12345.00
      2008        13        10        50        43
       150         6    -12345    -12345      9798
    -12345    -12345    -12345    -12345    -12345
         1         7        13    -12345    -12345
    -12345    -12345    -12345    -12345    -12345
    -12345    -12345    -12345    -12345    -12345
    -12345    -12345    -12345    -12345    -12345
         1         1         1         1         1
LAJA    -12345          
        -12345  -12345  
-12345  -12345  -12345  
-12345  -12345  -12345  
-12345  -12345  -12345  
-12345  -12345  -12345  
-12345  -12345  BHZ     
ZL      -12345  -12345  
[...]
      -138.1670      -120.1115      -124.3444      -115.6928      -131.7841
      -105.0924      -120.6586      -123.8513      -137.6293      -130.5386
      -164.6750      -155.9141      -165.8500      -155.4561      -173.9461
      -158.2654      -171.8389      -150.3696      -166.6190      -154.5236
      -159.9143      -139.9355      -165.1816      -151.6598      -163.9719
      -152.3804      -178.2389      -165.4322      -176.9798      -169.4838
      -188.3513      -167.0193      -176.5206      -165.4720      -187.0457
      -153.8900      -149.8499      -144.5441      -160.6254      -132.8744
      -153.9594      -151.1276      -158.0187      -140.4993      -181.8703
      -169.3114      -172.1874      -156.4542      -169.7112      -148.3101
      -154.9197      -131.9125      -148.3491      -134.5543      -138.5470
      -116.1987      -138.6852      -118.7437      -111.2892      -101.8564
      -129.4734      -106.0105      -120.6550      -117.2835      -129.9812
      -105.5482      -119.9921      -103.5257      -111.7779      -91.69199
      -107.6112      -90.03363      -99.64682      -61.40924      -66.62854
      -65.19437      -82.18536      -64.76526      -97.54565      -93.53137
      -100.8183      -81.16629      -97.26483      -69.26343      -81.62816
      -78.08978      -88.12727      -55.23540      -52.74819      -31.50470
      -45.60461      -26.88297      -44.15373      -40.62372      -63.63936
      -39.53343      -59.54388      -73.55176      -92.26299      -64.56250
      -92.08762      -73.35324      -69.04256      -39.95383      -46.07457
      -12.14986      -18.47229       4.311171      -3.407188      -3.129025
      -26.17359       4.943924      -16.18432       3.493362      0.4766846
       5.480690      -22.34238      0.3669052      -12.90236      0.6757908
      -9.055534       20.45266       13.27927       45.08376       39.89726
       65.94807       57.99170       85.18475       81.16208       98.69412
       72.52618       92.20959       88.55328       113.3766       98.09952
       129.1201       121.2415       134.6367       117.2623       148.4077
       127.9854       141.0010       133.0709       166.9418       158.1521
       184.8186       177.0410       202.6846       184.3976       207.4061
       197.4679       230.6668       216.2540       222.8395       221.1090
       268.8003       251.4716       278.0446       269.4465       270.9720
       248.8411       281.1616       266.0442       274.6339       255.7275
       281.6476       265.3385       298.9990       294.3672       317.6954
       317.7768       344.2788       331.3656       363.6440       342.4750
       349.9036       335.8287       369.0776       342.1807       356.9407
       341.6937       353.6201       337.5403       367.4648       358.0822
       385.1157       366.7208       393.4120       386.6685       410.9492
       389.7750       416.0214       407.3995       414.6506       395.6582
       427.8451       402.0449       401.5481       381.9781       410.2454
       389.8645       399.5330       381.7400       395.4375       375.5774
       393.4340       377.1147       392.7246       367.0176       378.9832
       377.4102       394.7181       359.1399       372.2102       360.0979
       365.3984       328.5449       343.7361       320.0028       304.6532
       269.7017       291.0182       270.0016       273.9089       257.9158
       281.3718       253.3635       261.8832       237.5917       257.0981
       240.0950       243.4066       227.3120       248.5639       213.9675
       205.9175       166.3783       154.2671       105.5830       112.4294
       76.30464       70.37488       57.56262       85.16756       57.47285
       75.13052       46.20776       52.17274       32.30106       28.52649
      -22.90408      -9.010086      -39.22336      -41.39410      -58.67697
      -39.64639      -87.86078      -95.20966      -124.9950      -128.7548
      -168.0160      -158.8406      -188.9635      -187.0765      -227.3583
      -233.9935      -277.2500      -273.3489      -312.7357      -305.9382
      -318.1504      -299.1366      -336.9596      -334.0752      -357.0872
      -350.2544      -380.4364      -376.1072      -434.6743      -456.8691
      -495.7495      -493.6252      -528.4553      -527.4845      -545.8044
      -515.8517      -524.5320      -508.2563      -526.2748      -510.7043
      -540.4391      -529.6899      -541.2124      -531.3933      -567.8900
      -561.6052      -579.7084      -577.2797      -598.6135      -579.4507
      -598.6804      -577.8237      -595.8992      -577.7654      -585.1831
      -557.8943      -570.4630      -542.3196      -550.8843      -529.2009
      -544.8875      -511.1501      -527.7142      -492.6193      -482.4326
      -462.5442      -485.6743      -454.3433      -460.9558      -437.1731
      -452.5930      -427.3149      -444.1807      -417.3586      -424.9835
      -393.4279      -398.2803      -368.8430      -378.1838      -326.9625
      -310.0426      -271.8071      -282.5538      -243.2385      -243.8990
      -210.9188      -211.0884      -184.6044      -195.6882      -163.0084
      -173.2112      -141.8362      -149.3415      -130.6382      -132.0107
      -82.61313      -85.08325      -52.50208      -43.81096       3.695145
       3.441360       51.16241       54.50891       79.06049       64.08984
       95.89743       89.20074       106.4950       91.23218       117.1369
       103.9553       132.4661       125.4952       162.2037       155.1190
       170.8903       172.9666       213.6039       199.2393       217.8788
       211.1141       234.8049       216.8727       239.2799       220.2004
       235.7877       224.7587       248.6632       234.6580       260.5562
       245.0824       256.7828       242.5692       263.8792       241.2209
       262.9277       237.4779       247.6107       230.4171       261.7545
       236.1660       256.0641       244.7151       265.0283       239.8904
       278.8059       260.8945       285.9348       270.7659       292.3134
       269.6566       288.8187       247.8234       253.7650       234.8566
       244.9670       210.6843       249.4070       231.3698       236.6288
       211.0035       246.4429       223.4609       243.1653       229.0769
       252.8995       215.5247       232.2218       202.2463       224.9915
       192.4147       191.1046       169.3125       198.4356       152.7880
       166.9763       152.9814       166.2438       130.0555       156.6952
       134.3353       131.6884       93.48914       115.9459       84.86884
       93.88718       59.76546       74.37727       46.90439       53.68198
       20.34181       47.29333       19.07647       21.56950      -2.447605
       23.83739      -21.85272      -18.68307      -42.39030      -31.63376
      -78.11685      -70.13828      -96.59679      -74.27661      -103.9137
      -89.24857      -125.1573      -108.0289      -141.8956      -122.8541
      -141.8331      -123.1012      -152.2258      -126.2323      -153.0073
      -138.2999      -169.1119      -145.6801      -182.0907      -169.6450
      -186.3773      -163.5554      -193.9865      -164.3982      -178.9190
      -142.4759      -170.6045      -154.2858      -174.3699      -143.2035
      -184.5676      -163.2948      -182.3027      -162.2751      -195.5658
      -151.3624      -164.6833      -147.7603      -166.7847      -121.2585
      -147.5078      -123.2825      -142.9318      -112.6657      -140.5250
      -123.4833      -157.3870      -121.3124      -145.3874      -122.0250
      -130.1756      -86.65585      -113.8822      -76.03964      -87.73599
      -53.96759      -79.57925      -38.72278      -59.51877      -47.40710
      -71.01912      -34.30536      -64.70012      -33.14745      -56.71274
      -24.13906      -30.23024       7.382864      -20.18291       23.78339
       7.538994       32.31370       6.897507       36.06757       2.876190
       33.92734       18.97232       47.37111       15.60283       42.69083
       21.50241       53.15552       42.29239       79.89221       62.74298
       105.4453       88.81143       111.7329       93.78534       114.6522
       76.34094       112.0705       95.35974       122.1561       116.0216
       158.7086       128.1302       154.9297       143.7293       177.6107
       147.3773       182.4699       162.7370       181.0523       156.9563
       192.5865       176.6672       220.6335       191.4553       218.5308
       202.2103       247.5017       215.1351       247.2372       228.6057
       257.5746       224.1636       262.7637       234.1581       264.8666
       228.8599       260.5901       231.6459       268.1656       237.7112
       280.7299       251.8722       270.4565       241.7510       292.6195
       253.6308       281.0885       256.0311       292.1548       243.3471
       274.1586       246.6553       278.1912       240.4700       275.5023
       236.4187       263.6843       220.1623       255.8691       229.8230
       258.7558       214.7756       251.7496       213.4783       238.3096
       205.8376       235.5693       183.7993       210.1108       176.1302
       208.6094       169.8223       204.7831       162.4066       197.9778
       163.9880       187.8631       144.2428       178.4520       134.5929
       156.6480       109.0691       129.4542       71.10205       101.2201
       70.56709       97.05348       59.89429       107.8610       75.99680
       104.7318       58.28961       78.59361       28.27252       48.01413
      -11.40356       8.417114      -36.34753      -14.98615      -63.49554
      -33.91263      -84.63806      -58.86600      -83.04916      -35.31836
      -76.07843      -34.05899      -63.62975      -40.06421      -84.02733
      -37.32089      -88.84308      -65.43243      -98.46640      -64.52728
      -114.3491      -82.39175      -122.5259      -76.91013      -113.9395
      -89.22363      -127.0781      -79.37497      -130.6734      -108.4442
      -137.0386      -93.21649      -130.7656      -96.18579      -134.8470
      -85.45810      -112.7253      -75.13199      -109.0799      -65.26065
      -102.1086      -60.26239      -81.22205      -40.15131      -98.18100
      -68.94000      -91.85828      -56.71759      -100.1554      -63.06686
      -102.2026      -67.80792      -100.6317      -57.18695      -85.24808
      -52.16551      -97.40427      -54.18814      -86.39554      -56.07645
      -93.23499      -55.05052      -96.73386      -61.69110      -97.33517
      -60.35651      -106.9475      -69.60309      -99.17932      -65.69696
      -106.9634      -68.14563      -113.8236      -76.23282      -109.8430
      -80.10464      -119.9799      -76.18396      -108.7096      -72.02335
      -102.7621      -70.17456      -114.7011      -70.67661      -113.7979
      -85.83383      -128.5495      -97.28540      -150.0273      -111.3808
      -149.8668      -118.8541      -159.9697      -127.9926      -164.8408
      -111.5358      -144.5150      -113.8651      -145.1146      -109.2056
      -154.0338      -109.4719      -143.4559      -124.5314      -172.3791
      -125.8647      -163.3447      -133.5396      -167.6303      -139.3034
      -187.9777      -133.4157      -161.4713      -134.0671      -183.4348
      -147.6924      -179.1859      -150.3571      -205.5989      -173.0645
      -209.6122      -177.7096      -214.0897      -158.9266      -185.0612
      -154.3174      -190.1434      -135.0714      -171.7057      -135.7930
      -180.7943      -148.3265      -196.0348      -159.7974      -197.2012
      -154.4290      -197.4683      -158.9382      -199.3413      -160.2988
      -201.3252      -157.4714      -184.5771      -140.2155      -174.2479
      -127.9515      -156.9469      -110.8118      -154.2918      -118.8918
      -159.1153      -120.2510      -167.4902      -136.0068      -164.6039
      -129.3006      -170.1523      -118.6854      -149.5700      -115.4782
      -148.5525      -100.7784      -139.7452      -112.6308      -139.6826
      -98.99768      -137.6036      -95.11346      -120.5897      -94.62988
      -131.8128      -87.47305      -122.2896      -89.27206      -114.4424
      -69.19202      -89.44597      -52.39568      -82.13216      -29.60347
      -68.50975      -47.35555      -72.66615      -28.88983      -71.66989
      -43.25595      -58.03763      -15.34644      -52.71874      -4.855715
      -19.02577       27.51187      -4.041222       33.04720       25.41711
       81.49878       11.44275       27.69401       38.40186      -165.5908
      -1407.498      -3340.484      -9921.055      -23731.13      -26239.27
      -30980.09      -25999.12       23049.97       26373.66       30072.36
       70009.52      -4451.398      -49579.77       48600.54       52306.27
      -44431.91      -31204.96       15056.98      -27684.27      -40427.10
       4348.035       19608.88       7995.055       2530.609       19300.13
       25424.55      -2120.141      -18585.19      -4460.270      -4975.762
      -23686.80       2319.258       28122.11      -1809.176      -7696.227
       19280.69       3517.102      -13384.43       6468.219       12651.57
      -3206.582      -12876.55       2547.641       19149.27       1266.555
      -20297.82      -8724.932       4411.795      -8928.592      -14188.20
       8248.295       13297.02      -209.5547       10045.68       20192.95
       5567.164      -11239.10      -8356.533      -2566.580      -10437.27
      -8051.789       1876.166       221.4570      -5236.811      -2571.586
       14336.95       8922.225      -7560.740       10658.04       9716.685
      -13875.47       2879.959       11260.53      -10201.54      -4661.643
      -5165.145      -18364.88      -4.695312       15433.75       11553.32
       8909.391      -4446.133      -18161.90      -2277.341       6616.727
      -3012.227       9439.915       11757.37      -12111.50      -13697.89
       2613.979       2585.290      -2378.034       3984.105       5417.713
      -3948.009      -7734.060       6295.830       10307.60      -3682.499
      -1855.919       5284.028       696.7504      -296.9799      -615.6313
       768.3223       634.7773      -5878.523      -1057.865       6607.762
       1784.008      -2868.795      -2269.613      -5441.113      -550.0537
       5492.548      -178.5515      -1506.751      -416.2676       2696.507
       3101.125      -3964.773       1739.916       7793.238      -56.28223
      -3233.128      -2199.901      -1361.480      -2579.100      -5354.428
      -4146.813       4021.428       9999.199       760.3516      -5489.830
      -5864.723      -6124.471       6624.771       12235.33       2339.251
       656.6201       2760.385      -4251.661      -5174.116      -80.37793
      -1816.535      -532.3857       4091.632       2140.001       1905.875
       1952.670      -2708.485      -1799.023       2899.615       3927.914
       1985.589      -239.3721      -1759.023      -3403.247      -1459.192
      -1295.310      -3324.158      -458.6208       818.9635      -628.6365
      -371.9814      -1141.356      -214.9302       2909.953       1795.838
       620.9805       4528.107       2340.259      -3372.903      -538.2266
      -2160.563      -5936.954      -639.6577      -1702.429      -2188.887
       8008.651       4244.290      -8265.336      -548.3340       3927.257
      -5289.261       619.7363       6214.980      -3538.350      -1319.707
       7484.653       3829.437      -470.8457       302.3945       674.2725
      -1377.989      -3861.860      -254.3994       5633.643       2418.939
      -6253.269      -5646.889       75.16406      -3835.858      -3301.790
       3929.729       321.7445      -381.6865       2110.920      -1443.117
      -224.4707       3061.117      -2597.338      -1512.352       9754.518
       4603.206      -4679.546       2272.773      -67.00781      -11329.48
      -4604.545      -1773.950      -3947.604       4150.515       47.61328
      -477.3926       11710.75       7070.617      -2664.245      -35.21582
      -4169.712      -3331.039       6262.862      -1725.566      -4668.927
       4658.074       1274.284       294.7378       3429.359      -6000.148
      -6931.271       6075.283       2741.696      -7159.488       1678.921
       6727.514      -2248.329      -5281.388       728.2837       4862.152
      -5533.111      -10842.10       1715.281       7811.006       3527.747
       280.3691       2123.468       4828.473       2048.479      -2178.156
      -3149.522      -269.6577      -431.4688      -4141.609      -7970.916
      -8193.390      -3722.927       1086.420       7441.480       6128.944
      -1273.371      -3654.147       7.834961       4646.168      -2507.687
      -3084.256       10190.91       3493.269      -8353.914       1860.642
       3363.513      -7705.984       234.0701       4173.869      -10537.20
      -6925.160       6258.595       2100.366      -2749.257       3637.479
       6435.170       1480.300       164.8330      -1376.062      -5765.734
      -2407.926      -1228.045      -1418.426       5115.875       1117.968
      -5336.618       4128.047       8397.576      -6051.359      -12912.16
       1235.682       8285.805      -1506.303      -2888.838       5740.536
       4705.907      -3900.849      -5938.394       795.0576       6020.666
      -22.83740      -3724.032       3217.836       5060.639       2247.041
      -1878.828      -6169.326      -3237.793      -168.1562      -4516.289
      -8254.946      -2239.668       8109.130       7835.200      -1996.528
      -3899.503       4171.632       2750.628      -7762.262      -2578.592
       8172.397       2259.336      -5338.008      -5278.686       2373.195
       5194.090      -3418.028      -302.1348       9168.704       4558.881
      -3091.781      -1638.057      -2275.656      -8364.717      -5574.979
       4177.146       4141.786       792.5820       1528.770       2999.046
       4161.620      -2252.455      -4195.499      -1785.931      -4343.069
       316.4893       4895.679       618.7861      -1527.512      -4752.782
      -1441.586       4382.330      -7275.881      -8045.566       9507.309
       12456.62       1086.460      -5416.130       269.2642       1591.790
