     0.02500000      -27982.44       35461.00      -12345.00      -12345.00
      -29.99502       216.1800      -17.82000      -12345.00      -12345.00
       0.000000       13.48000      -12345.00      -12345.00      -12345.00
      -12345.00      -12345.00      -12345.00      -12345.00      -12345.00
      -12345.00      -12345.00      -12345.00      -12345.00      -12345.00
      -12345.00      -12345.00      -12345.00      -12345.00      -12345.00
      -12345.00      -31.80160      -69.32410       2472.000       0.000000
      -31.59500      -68.73200       0.000000       105100.0       0.000000
      -12345.00      -12345.00      -12345.00      -12345.00      -12345.00
      -12345.00      -12345.00      -12345.00      -12345.00      -12345.00
       60.62604       247.6443       67.95387      0.5451122      -12345.00
      -12345.00    -0.03711256       0.000000       0.000000      -12345.00
      -12345.00      -12345.00      -12345.00      -12345.00      -12345.00
      -12345.00      -12345.00      -12345.00      -12345.00      -12345.00
      2008        13        10        50        45
       220         6    -12345    -12345      9848
    -12345    -12345    -12345    -12345    -12345
         1         7        13    -12345    -12345
    -12345    -12345    -12345    -12345    -12345
    -12345    -12345    -12345    -12345    -12345
    -12345    -12345    -12345    -12345    -12345
         1         1         1         1         1
LEON    -12345          
        -12345  -12345  
-12345  -12345  -12345  
-12345  -12345  -12345  
-12345  -12345  -12345  
-12345  -12345  -12345  
-12345  -12345  BHZ     
ZL      -12345  -12345  
[...]
       146.1321       164.7753       170.4297       188.4858       192.6528
       210.8099       217.5395       236.9443       242.0347       266.7700
       276.7610       293.4941       300.4845       325.4120       331.8274
       352.0134       360.9844       376.8738       382.7750       403.5864
       406.6041       422.3920       428.1011       440.9341       442.7949
       458.3884       457.3987       470.0577       474.1412       485.8766
       480.3188       488.8179       484.8883       489.4290       483.1882
       491.2922       485.4045       491.4991       482.7357       487.8206
       476.6836       477.9515       466.9207       470.8270       457.3755
       456.2744       440.8627       437.8472       422.2349       422.0698
       401.4985       397.1302       379.5415       375.0242       355.3538
       352.4875       331.5714       327.8635       308.5593       304.2202
       286.1543       282.5027       261.9853       258.0989       238.9708
       234.8762       214.1705       209.9988       191.0766       187.7294
       165.3829       159.9871       141.7206       137.0536       116.4951
       111.1788       90.65442       85.98151       69.18204       64.28159
       46.74860       42.16650       23.78933       19.31536     -0.3964310
      -8.213470      -24.59007      -27.88939      -45.95459      -48.68478
      -64.91925      -67.38763      -84.82291      -88.87048      -102.3714
      -105.4443      -119.3487      -122.3480      -134.9316      -135.1970
      -147.2394      -151.2404      -159.3953      -159.0230      -169.2369
      -170.4156      -179.9515      -183.0600      -189.5419      -190.7693
      -197.2162      -194.4730      -200.1715      -200.9671      -203.4104
      -198.7354      -202.4381      -199.3951      -200.9185      -193.5160
      -191.8719      -182.9361      -181.9171      -173.1272      -168.1901
      -160.0076      -156.6747      -146.4407      -143.0028      -131.5577
      -122.8929      -111.9889      -104.6206      -90.55051      -86.53001
      -76.88177      -69.48724      -59.70090      -52.92969      -41.11474
      -37.55916      -29.32903      -22.78347      -12.39450      -5.798643
       8.075516       12.55605       21.90838       28.22467       36.56644
       39.58197       48.23808       54.84325       61.58777       62.31308
       72.18674       76.15170       82.73416       84.07059       89.69385
       91.67300       99.09818       98.68646       104.5958       103.6760
       110.7266       111.9128       117.2919       116.0000       122.7793
       119.1252       120.5441       118.8832       125.7660       120.5156
       121.8156       118.6765       125.6374       122.0980       126.3948
       120.6352       122.6534       116.7432       119.9075       114.6599
       118.7687       111.6513       115.3357       110.3423       110.5753
       100.2551       103.7227       97.54315       97.25769       85.58484
       87.31216       79.39523       79.91586       68.29257       64.27003
       52.14549       51.83418       39.54679       36.41943       23.85944
       20.89182       6.538018     0.05908966      -14.76522      -19.07989
      -35.72998      -44.11349      -59.45459      -68.23227      -86.61179
      -98.54578      -116.6960      -129.1166      -146.7083      -158.3707
      -175.6141      -187.3184      -205.1417      -217.7325      -232.4562
      -242.7375      -260.1115      -270.5428      -282.4736      -287.6560
      -303.5621      -313.3951      -324.9436      -332.3528      -346.8678
      -351.5732      -359.5846      -364.3490      -370.7686      -369.8931
      -378.4875      -378.4391      -383.8584      -381.9481      -383.8912
      -380.7037      -382.8950      -377.9373      -379.1194      -368.9812
      -365.4207      -357.6710      -353.4954      -339.8844      -334.6345
      -323.3807      -316.8380      -303.9637      -296.9351      -281.3848
      -272.3593      -253.7976      -243.2855      -226.6688      -220.4604
      -204.6135      -196.2717      -179.3001      -168.4576      -153.9411
      -145.8037      -129.5810      -122.7903      -110.6058      -102.6505
      -90.32253      -84.07721      -74.93327      -69.85100      -61.06361
      -55.28781      -47.72485      -44.01186      -34.75128      -30.79083
      -26.77634      -22.37222      -14.43163      -9.724209      -1.806715
       2.640833       5.381311       6.576523       13.55623       15.27351
       16.99127       18.64413       21.47838       22.16431       24.47960
       25.26681       26.36401       26.51199       28.48434       31.48224
       30.32804       27.63226       29.14627       26.47964       25.91550
       27.74337       28.28461       27.37905       30.48833       27.25604
       29.96920       27.35260       27.94588       27.32213       30.61200
       27.75394       30.01537       24.65410       27.16945       20.91398
       19.30670       9.658173       12.49783       7.414651       5.227102
      -4.521093      -2.819481      -13.15284      -15.11891      -22.59464
      -22.03016      -32.32977      -33.21418      -42.24677      -42.68892
      -50.46088      -51.32309      -59.92444      -59.71492      -68.25793
      -69.74547      -75.90875      -73.41585      -80.21176      -81.22339
      -87.38104      -89.54404      -95.19342      -95.34613      -101.5768
      -102.6078      -109.8165      -108.9657      -113.8453      -110.4470
      -111.3470      -106.3613      -108.8473      -101.7303      -99.59598
      -93.79071      -96.43073      -85.22998      -82.12967      -72.24536
      -68.46332      -57.21973      -53.62758      -38.92235      -35.03903
      -19.39374      -15.72649      -1.458990       3.539162       18.03891
       20.31256       40.88446       45.81635       60.77426       62.76477
       74.95874       75.04559       90.79218       91.18866       105.3534
       105.7262       120.1870       116.2493       127.8051       128.2129
       139.7413       134.0240       147.0275       143.1656       152.9156
       150.1573       160.7552       156.0133       167.8024       161.9757
       170.8851       167.4626       176.9009       172.6602       186.4077
       178.6581       188.5615       184.9827       195.6274       192.9779
       206.3978       201.8965       215.6428       212.8816       223.0493
       220.4737       232.9365       229.6570       241.5977       240.2169
       253.8467       251.5823       261.2660       259.4760       271.3036
       268.7852       278.3385       272.6438       282.0890       279.5874
       285.8776       279.8379       288.2678       280.9756       286.2095
       279.2811       287.5203       279.8971       284.0720       274.4205
       279.6086       272.1802       275.4649       266.1977       271.1747
       261.3567       265.8989       253.8989       256.6927       248.7111
       252.6784       241.6425       244.6270       236.2418       237.2494
       226.7805       228.2490       216.7861       218.6737       207.4643
       207.2347       197.9088       199.3034       184.4163       185.2542
       173.5326       173.6246       162.1388       164.1335       148.7161
       149.3767       134.7645       134.6528       119.3519       119.7115
       105.8380       107.4555       93.98938       94.93573       80.36029
       83.33192       70.79578       71.08748       59.12946       63.49152
       51.26711       52.89735       40.59009       41.97238       28.76987
       32.71104       23.15360       27.93259       14.78281       18.36155
       9.833656       13.74652       6.170496       11.33824      0.3157387
       7.719589       1.386725       4.347801      -7.527077      -1.470131
      -10.41280      -4.568012      -13.25087      -5.929226      -16.86691
      -11.39349      -19.93496      -14.89421      -25.44630      -17.98364
      -27.12539      -18.81479      -27.76091      -25.72862      -39.31415
      -33.57707      -43.99291      -37.77573      -49.90514      -48.35513
      -58.75958      -53.75659      -66.25484      -62.10588      -72.06299
      -65.34818      -79.93332      -78.48471      -91.41010      -92.15894
      -105.6658      -101.1676      -119.5097      -118.7948      -127.9794
      -126.2922      -144.0089      -144.0819      -156.3095      -152.6166
      -166.9169      -167.2155      -181.6948      -182.0294      -198.1151
      -200.2685      -215.6014      -215.3239      -228.8775      -226.9164
      -239.7510      -240.3436      -254.7579      -255.7181      -267.2104
      -263.4238      -274.8433      -271.5929      -281.5726      -281.8425
      -293.3694      -290.9261      -298.3936      -292.5155      -304.9208
      -302.5638      -308.2192      -297.7957      -308.8361      -302.5806
      -308.6581      -298.6263      -305.1321      -295.4105      -302.8401
      -291.6481      -301.3214      -292.5129      -298.2504      -283.0390
      -292.0968      -280.1001      -287.5298      -275.8746      -280.0789
      -264.8766      -269.7961      -254.6145      -258.5250      -244.1758
      -246.4707      -229.6989      -230.7771      -211.9886      -212.5996
      -191.4484      -188.7612      -169.8952      -166.7603      -143.7843
      -136.6334      -113.3425      -108.8197      -86.10951      -77.74783
      -54.75948      -45.95097      -22.21005      -13.97898       10.98351
       20.86699       43.98026       51.05249       74.81284       82.24493
       102.3232       107.9919       127.6644       131.0124       148.1721
       145.7162       162.0876       163.9581       181.2245       176.7362
       190.4722       186.2965       197.9247       191.5477       199.6071
       189.8869       198.3374       187.6315       195.9916       186.5338
       193.5403       180.1243       185.6696       175.7283       179.3666
       165.9111       171.7746       160.4266       167.5202       154.0062
       156.8471       140.3445       145.1815       131.1508       137.8894
       125.1643       129.6254       113.1742       119.4091       104.8607
       109.1622       95.60873       99.24879       82.17107       84.83195
       68.40979       72.67986       54.86501       54.28848       36.03099
       36.75673       17.41267       17.11912      -2.578793      -2.214462
      -25.70242      -26.24971      -45.74144      -49.15114      -71.89691
      -72.49860      -93.76642      -91.69351      -114.7382      -118.2634
      -136.8058      -135.4476      -156.3030      -154.9036      -173.2524
      -174.8239      -194.1183      -191.5891      -207.1994      -205.9763
      -225.7005      -223.2303      -236.5414      -233.9102      -246.5919
      -241.7775      -255.4495      -250.5391      -259.3241      -252.1462
      -261.7083      -253.1007      -261.9938      -253.0515      -258.7465
      -251.9548      -257.9364      -244.4619      -251.3565      -237.9791
      -240.9614      -230.8213      -233.2521      -218.1090      -221.5878
      -209.4171      -209.3232      -193.0404      -192.8730      -178.1486
      -177.6171      -163.3617      -163.9425      -149.5803      -146.9304
      -131.3892      -128.5369      -112.7326      -106.6515      -89.92297
      -84.77272      -69.95477      -64.07153      -44.50406      -34.57932
      -18.33644      -10.34267       10.15990       19.05482       35.80942
       44.60242       62.43668       70.60916       89.48294       97.69809
       117.1206       125.8628       143.3522       149.8942       167.5609
       176.6107       195.9091       199.2814       217.9605       224.8763
       242.9027       247.6780       267.8472       271.8535       285.7753
       288.5892       308.3550       307.8623       323.6340       325.5477
       338.8246       338.7391       351.7899       348.5425       363.1112
       361.2590       369.8237       368.1868       377.5341       371.9556
       382.8735       378.5889       382.6074       377.3824       382.0312
       374.7549       379.9315       372.1836       372.7471       366.1487
       366.1868       355.5955       357.2749       348.4631       345.2653
       334.0000       331.6151       321.2446       317.0935       305.6243
       301.7244       288.9382       283.4169       272.3363       265.4540
       252.7786       246.0914       235.6913       232.1352       217.5892
       211.9767       202.7828       199.0552       187.9446       183.1814
       176.4315       170.0793       141.1501       61.49915      -129.8091
      -378.8103      -560.8206      -780.3076      -1383.232      -2168.492
      -2766.049      -3844.146      -5138.496      -5655.531      -6494.375
      -7603.957      -9685.473      -12969.07      -12667.26      -5969.431
       1681.938       4713.680       15987.11       33055.73       35461.00
       30081.23       12795.78      -3805.944       959.1172      -9025.578
      -27982.44      -14962.88       2040.375      -6510.519      -9087.364
       3526.582       11372.09       4221.096      -4672.945       3656.004
       4534.064      -2391.180      -443.1548       2636.054       1538.379
      -1497.827      -851.7715      -4569.395      -8360.184      -7820.797
      -7292.080      -8105.438      -5681.650       2367.270       9621.434
       16238.58       12473.56       12127.05       11979.19       1704.002
      -6852.129      -13259.58      -9359.150      -1943.295       5316.407
       5943.066       155.8190       1061.104      -1196.957      -4364.090
       398.0898      -3315.112      -6500.633       111.8081      -605.6213
      -1560.465      -330.7544       235.9609      -2359.360      -5309.387
       394.6230       5733.426       5967.514       4565.220       5476.674
       3921.777      -406.8696       1671.610       1199.990      -3565.031
      -3541.104      -6531.608      -6867.695      -910.8134      -221.3164
       513.0557       2196.924       986.9531       269.4824       3204.768
       2448.395      -3769.850      -3961.355      -1714.897      -1433.989
       864.5515       1400.320      -754.1890       554.3386       1377.470
      -2672.751      -2793.680       1949.159       476.2739      -1728.918
      -1073.968      -3467.576      -3236.374       332.6326       728.0275
       108.5017       888.0923       1689.504       202.5942       779.8350
       5698.002       222.9272      -4799.004       3591.860       6162.614
      -156.3916      -2464.256      -1892.463      -3894.885      -3215.618
      -2723.368      -1895.305       6217.049       4152.829      -1422.009
       1282.977       875.6504      -3453.782      -6059.253      -1982.923
      -1749.880      -3019.966      -676.9283      -609.7432       172.5624
       718.6506      -241.2715       890.7700       3763.369       329.1907
      -2780.905       2301.969       1443.452      -1195.714       2599.503
       453.8271      -2650.047      -1084.910      -733.9619      -1520.139
      -2072.292      -507.2820       195.8735       317.0100       1333.120
      -417.5793      -1719.158      -281.4808       781.7953       317.8601
       348.9646       1650.735      -8.017700      -409.3896       2814.765
       2910.131       1836.566       1003.840       211.5938       2268.966
       1372.032      -3013.760      -1048.450       446.7354      -2979.701
      -2432.048       1567.812       3495.635      -181.0547      -2670.863
      -703.1271      -339.4685       512.8901      -362.9229      -2238.517
       103.1389      -835.8206      -512.1523       3673.625       2339.171
       184.4622       1483.912      -470.6448      -1181.931       3146.830
       2193.379      -770.9858      -259.3110       1563.046       667.6992
      -1957.007      -990.3890       319.9966      -307.7631      -247.4352
       17.01660       364.3666       980.1420      -521.7070      -16.03296
       1316.518       373.4553       350.5374       1652.172       493.7078
      -1319.013      -260.7495      -1044.557      -3685.566      -3865.788
      -365.4214       2666.608       409.4766       583.3145       5723.835
       466.1484      -3964.900       2796.179       1127.029      -2612.080
       1469.932       803.3613      -2376.309      -2169.308      -3447.523
      -2752.909       1501.250      -362.8691      -1068.666       4471.422
       2110.247      -1101.186       2629.394       2235.490      -3032.887
      -4764.819      -364.5376       2748.581      -815.3267      -1485.307
       1893.442       239.2910      -3570.670      -2667.882      -1310.429
      -3382.281      -2430.290       640.3213       1578.303       564.5039
      -1583.036      -2959.211      -536.5913       2944.645       1367.275
      -1440.947      -1576.781      -628.1016       2011.729       3774.631
       2328.619       376.1697       793.1055       2071.997       1777.803
      -362.6165      -994.5415      -519.9951      -2847.966      -3043.491
      -561.4326       1289.147       1631.488      -60.01270       1521.868
       3058.608      -2069.762      -5274.649      -1702.945       1274.507
      -534.8901      -1606.294       1194.725       2540.806       463.7739
       749.8755       2709.800       1424.212      -520.7437       712.4780
       2728.454      -1174.541      -1541.313       2130.142       627.6141
      -96.64230      -37.40234       560.5459       1263.460      -1075.225
      -1562.251      -147.1431      -833.2085      -1740.507      -1159.181
      -1115.262       1163.139       2808.800       91.13135       909.5596
       3346.488       276.0291      -726.3367       1273.808       638.2568
      -2257.052      -2856.664       2457.631       2882.047      -824.3718
       11.56982       2513.369       1101.375      -3507.988      -2955.312
       280.9032      -63.91809      -375.9336       1491.708       1116.114
       90.46826       2025.062       1702.350      -208.1724       1662.381
       2989.835       1034.095      -905.9807      -378.3574       2908.742
       2271.002      -484.1233       870.6956       683.1865      -2259.724
      -2030.802       505.1523       544.7751      -446.8433      -765.2273
       936.0233       817.8652      -1773.750      -870.4419       1398.314
       1577.660      -242.2368      -2088.421      -1396.005       640.7461
