     0.02500000      -68332.78       59280.11      -12345.00      -12345.00
      -29.99502       216.1800      -17.82000      -12345.00      -12345.00
       0.000000       13.48000      -12345.00      -12345.00      -12345.00
      -12345.00      -12345.00      -12345.00      -12345.00      -12345.00
      -12345.00      -12345.00      -12345.00      -12345.00      -12345.00
      -12345.00      -12345.00      -12345.00      -12345.00      -12345.00
      -12345.00      -31.80160      -69.32410       2472.000       0.000000
      -31.59500      -68.73200       0.000000       105100.0       0.000000
      -12345.00      -12345.00      -12345.00      -12345.00      -12345.00
      -12345.00      -12345.00      -12345.00      -12345.00      -12345.00
       60.62604       247.6443       67.95387      0.5451122      -12345.00
      -12345.00    -0.02427393       90.00000       90.00000      -12345.00
      -12345.00      -12345.00      -12345.00      -12345.00      -12345.00
      -12345.00      -12345.00      -12345.00      -12345.00      -12345.00
      2008        13        10        50        45
       220         6    -12345    -12345      9848
    -12345    -12345    -12345    -12345    -12345
         1         7        13    -12345    -12345
    -12345    -12345    -12345    -12345    -12345
    -12345    -12345    -12345    -12345    -12345
    -12345    -12345    -12345    -12345    -12345
         1         1         1         1         1
LEON    -12345          
        -12345  -12345  
-12345  -12345  -12345  
-12345  -12345  -12345  
-12345  -12345  -12345  
-12345  -12345  -12345  
-12345  -12345  BHE     
ZL      -12345  -12345  
[...]
      -230.3158      -204.0617      -199.4670      -173.0432      -164.0802
      -137.5537      -131.7631      -104.9540      -93.33727      -61.97212
      -55.20469      -26.16694      -15.29649       9.612549       20.85893
       53.00282       61.13428       87.07233       95.37891       118.6693
       127.0770       155.9895       160.1104       184.1217       188.2845
       211.9285       218.0033       241.2518       239.1222       262.3483
       265.7259       283.3954       281.3452       299.4319       297.0417
       316.3175       312.9503       324.9691       319.2017       333.8763
       325.9019       335.1700       328.9294       342.3214       336.4033
       345.4190       332.7247       338.9207       327.0885       334.3610
       322.6343       325.4366       313.7615       320.6882       304.8102
       306.2520       289.1063       290.5323       275.9744       275.8021
       257.2230       262.6927       247.4300       248.0140       232.0029
       234.4878       218.4954       218.8591       199.9106       202.8884
       187.4930       186.3155       167.2381       172.4038       150.2328
       150.9373       134.0417       133.1180       111.8737       119.0101
       102.5347       104.2656       83.71936       91.78854       75.87378
       77.80733       62.92342       68.31638       49.72638       57.65863
       40.41344       40.78236       23.45334       27.77993       9.158249
       12.13804      -5.473587      -4.013542      -20.50925      -16.04556
      -34.99821      -31.60950      -48.43420      -45.55736      -61.56412
      -55.05118      -66.17587      -61.77615      -80.15665      -74.32309
      -88.96005      -83.56192      -95.86542      -88.92795      -100.6424
      -90.90216      -99.56311      -89.90375      -98.23230      -87.31680
      -95.30414      -84.70471      -92.45117      -80.07675      -86.77209
      -77.52652      -85.14548      -70.77055      -75.05600      -63.30008
      -66.40640      -51.87114      -56.62656      -36.88809      -37.63876
      -25.95505      -31.02894      -12.84819      -11.81444       5.388596
       2.467743       21.95177       22.81515       42.63574       42.08917
       59.37384       55.68936       77.99925       76.70767       93.06683
       91.79837       110.2030       107.0499       126.6035       122.5166
       135.3112       129.7440       147.2555       143.0206       156.5632
       149.1960       164.8730       157.7513       172.5190       165.3837
       178.7447       174.1601       184.7613       175.7122       190.7420
       187.3107       198.9115       191.4896       202.5802       192.3216
       202.3461       196.4545       209.4109       199.8644       206.9666
       196.4110       204.4023       190.6754       196.2510       183.3739
       189.0796       176.9285       182.5646       164.8802       168.0551
       152.6042       154.9279       138.5882       141.8033       126.3924
       127.3105       111.0790       109.7056       85.44073       90.51480
       73.15359       66.57823       51.08087       52.76127       32.96741
       32.18811       14.28918       13.45850      -2.478037      0.4722252
      -18.76552      -17.23502      -30.38295      -26.75360      -43.02698
      -43.40884      -57.22148      -48.42226      -61.48309      -55.04706
      -66.14227      -65.21620      -78.62846      -70.91061      -83.34615
      -75.49333      -85.52756      -78.27509      -87.61316      -78.34595
      -85.95056      -79.02222      -91.11542      -85.22107      -93.60345
      -84.12637      -90.27832      -80.39090      -92.37433      -85.63629
      -93.32996      -87.57788      -95.60883      -88.36578      -99.65781
      -96.02164      -105.8020      -101.0302      -108.7351      -102.5433
      -114.4911      -108.4466      -119.8503      -117.3377      -127.2222
      -127.1212      -140.7397      -136.5202      -151.3132      -150.8099
      -155.3496      -153.6136      -167.1347      -162.9814      -173.2505
      -172.6077      -182.0905      -170.0298      -158.6821      -98.13394
      -20.13425       52.28058       87.87024       195.9950       394.7922
       662.9890       955.1104       1159.958       1433.239       2162.453
       2534.481       2990.463       5171.998       6489.892       4219.144
      -312.4521      -3837.994      -5469.561      -7197.447      -8937.715
      -12320.75      -4515.525       10855.08       5697.307      -2109.073
      -1199.055      -2459.746       2296.927       1654.817      -6500.276
      -2898.790       8348.397       2372.673      -9050.719      -562.1191
       12337.33       5047.723      -16083.40      -12303.59       3560.123
      -2352.893      -6330.237       1396.234       10629.35       13422.78
       7429.388       3980.892       4351.434       3522.270      -4965.402
      -12944.71      -8114.701      -1558.253       1151.181       941.8467
       1339.891       7265.257       3701.261      -2067.656      -6181.521
      -6793.141       932.7881       2874.593       2963.240      -1813.895
      -5625.138      -4134.984       2693.323       2329.195      -4180.474
       961.7886      -1178.345      -1533.669       3605.475       1166.029
       5005.674       6844.899      -3730.231      -6386.384       6729.793
       7890.634      -4667.795      -3469.377      -1293.833      -6005.896
      -1961.933       5602.382       4782.343      -163.5244       2288.404
       8546.617       2846.595      -4478.188       1343.762      -427.1953
      -3528.648      -984.9297      -5014.219      -2034.481       2095.615
      -2315.986      -4579.036      -3664.915       2628.504       8225.506
       4499.438       1049.088       2651.498       2240.438      -2164.840
      -3350.928      -1140.792       55.83301      -2877.918      -7590.743
      -1417.340       7061.807       2406.441      -760.3564      -1513.396
      -5132.667      -1213.020       621.4307      -2851.990       145.6597
       1262.298      -4246.329      -252.9121       7740.686       2458.207
      -3804.602      -1168.906      -1493.854      -2610.089       1103.943
       2511.889       3186.701       3041.941      -2310.265      -2268.493
       4430.096      -96.43945      -5084.275       398.7764       1173.912
      -2249.361      -1623.486       2449.863       1803.888      -4.270264
       1403.977       1023.703       792.8524       1012.310      -339.8931
      -2322.696      -1475.354      -1332.312      -1783.945      -1854.328
      -3272.255       277.2988       2521.150      -1452.647      -1808.011
       1002.556       204.5859       255.6125       767.6001      -2317.104
      -2283.762       2087.822       2631.145       116.1460       992.8595
       522.3730      -2666.697      -3676.164      -602.4409       2671.805
       50.20728      -1391.156       1007.772       2535.218       67.45410
      -4455.774      -133.1875       4049.690      -2047.199      -954.0596
       6809.195       2530.227      -2846.996       1184.938       3025.942
      -248.3328      -1547.338      -741.2100      -2632.020      -2532.139
      -1418.745      -288.8555       4321.508       3092.333      -1893.646
      -2328.354      -1153.806       300.3345       536.8545      -848.5215
      -235.0161      -528.3132      -191.3740       1273.852      -734.2163
      -267.2061       1508.898       1434.127       3531.343       3868.291
       1014.699       441.7563      -1370.563      -2195.633      -894.9590
      -2190.489      -1213.531      -125.5010      -2506.165      -1435.489
       2366.005       1886.528      -1265.029      -3045.798       1924.033
       4292.760      -2143.979      -2682.859       2016.775       31.93799
      -3937.329       183.0054       3225.809      -1560.997      -1177.705
       5193.521       2124.917      -3248.671       2450.570       4877.378
       128.8685      -1193.425       576.6265       3324.865       957.8794
      -3466.956      -1263.361       893.0806      -2660.172      -1778.290
       3391.494       2216.936       1477.577       3314.060       3295.600
       1715.258      -2625.843      -2500.150       2610.606       1328.005
      -3340.777      -685.8232       2962.671      -2218.518      -4594.093
       1757.216       3444.398       1903.579       1219.731      -1896.294
      -924.2139       2906.111       3752.468       1904.639      -1303.365
      -1633.110      -1478.039      -589.2571       1815.198      -194.6714
      -2509.828      -322.1487       838.5293      -1562.496      -783.7109
       1685.810      -1286.716      -2480.616       1784.558       3017.224
      -810.5557      -3189.652      -490.1489       2430.359       310.0938
      -2267.526      -1516.964      -238.8610       525.5276      -96.19385
       407.4680       746.0088      -421.5474       1808.456       3087.553
       292.6606      -1163.249      -875.0420       2031.161       1543.839
      -2650.362      -665.6589      -52.07178      -2297.896      -299.0356
       2336.710       460.1958      -2743.870      -156.4131       2526.637
       1003.806      -1055.660      -2712.629      -2420.046      -605.8604
      -903.7871      -2844.539      -428.4208       505.6463      -330.4050
       350.5957       741.9648       2540.756      -163.7637      -2715.666
       1384.708       2542.006      -3200.712      -3671.708       3212.387
       2749.101      -3584.443      -1116.864       1740.617      -1636.176
      -273.5968       310.0132       1622.150       3247.771      -1497.861
      -2320.780      -1654.662      -970.5601       1894.705      -179.2821
      -1074.628       2715.893       2959.513      -3658.076      -5676.412
       1387.830       553.1230      -3851.763       487.3667       3897.037
      -190.6763      -2464.525       1304.610       2494.957       154.2554
      -732.2712      -673.2334      -1070.183      -2095.831      -3049.048
      -565.4233       1350.791       484.3779      -2679.778      -4631.481
       1210.742       2949.015       32.40381       1624.418       2439.622
       1520.746      -75.15820       369.7407       2237.380      -15.53198
      -1022.367       561.3208       626.8506       2928.503       3489.307
       2641.376       964.9531      -2522.493      -1158.329       637.7442
       21.68909      -141.0571      -678.8105      -412.7769       1638.604
       2135.649      -524.5754      -1346.459      -568.0493      -2306.594
      -919.8711       2693.727       809.9331      -2284.478      -1220.259
       738.9717       883.0059       2283.152       1178.326      -1500.706
       747.8413       2332.333       1565.282      -333.7881      -1948.342
      -509.3115       1526.603       2932.069       1886.329      -1891.374
      -4010.165      -565.9639       2621.939       1079.646       1466.352
       530.2004      -823.9814       2214.495       772.6729      -4704.871
      -2420.604       4141.459       2542.083      -2569.158      -1209.679
       3853.146       2049.537      -1725.535       802.6758      -229.5322
      -2824.541       1147.980       1772.153      -615.6835       662.9888
      -964.0947      -2267.614       934.3998       711.2617      -2237.812
      -986.5879      -557.5967      -2298.085       40.83026       853.0781
      -819.5787      -618.7902       216.7152      -543.1364      -232.8145
       1039.423      -1040.462      -897.0820       655.9436       870.4341
       1719.035       1365.808       1275.558       1437.108      -467.1982
      -4007.355      -5352.022      -1885.602       3429.459       1098.425
      -4283.058       2447.711       6396.294      -263.8335      -1449.732
       17.96338       231.7871       1985.304       1659.342      -2573.929
      -3494.708       1815.205       3432.885      -852.0718      -3414.546
      -437.4277       1806.062       1911.318      -152.1768      -3236.795
      -1731.507      -641.3594      -93.30542       442.5024       128.8882
      -1076.744      -3437.904      -1372.516       2536.815       702.6045
      -2537.573      -808.2516       665.1162       789.9919       450.4983
      -1436.574      -859.1987       2299.033       1333.310      -3566.363
      -4611.703      -4508.766      -5933.420      -4979.617      -4548.762
      -8168.764      -9285.418      -8270.213      -10269.46      -7762.129
      -6535.824      -14496.16      -18938.01      -17424.07      -15774.73
      -18918.55      -27076.03      -18083.35       3051.441      -673.7578
      -20238.62      -11443.17       20161.16       21978.29      -4639.691
      -13536.53       4491.500       31944.03       48516.22       52019.80
       55008.97       56924.88       57979.17       59280.11       55826.25
       50490.72       36730.73      -3886.094      -51131.05      -68332.78
      -64791.62      -61047.39      -53660.20      -30103.11      -911.6602
       12497.72       14610.15       9500.021       6203.496       8249.146
      -953.3901      -7136.754       8164.660       23885.24       12186.98
      -17641.55      -19620.73      -5960.195      -24649.23      -31202.72
      -3128.955       9208.342       2210.721      -1955.906      -4310.918
      -13542.54      -9076.207       9892.277       8971.570       4792.875
       18819.11       28348.34       10767.42      -9271.412      -565.0371
       11078.00       9772.776      -1090.641      -13664.86      -13840.76
      -9462.565      -4813.582      -3104.705      -4327.505      -2704.910
       3899.668       18643.88       21344.87       2167.717      -7136.079
       725.3970      -101.5479      -4403.742      -469.3252       3514.660
       4323.059       3986.534       2700.488      -6153.355      -13626.76
      -7215.720       851.3525       2332.314       3480.897       2331.078
       3068.754       12256.39       13611.88       1934.932      -9461.324
      -8382.258       5156.885       6792.418      -6305.176      -12758.34
      -10107.80      -8955.918      -7700.597      -4510.644      -5497.895
      -4642.424      -1126.727       6692.535       14091.91       7337.090
       2962.543       12668.81       12044.85      -1045.384      -2049.010
       2947.114       2494.903       1951.162      -1900.055      -7170.668
      -883.1265       2550.920      -5036.406      -4975.816      -6302.250
      -6900.185       2391.200      -1909.764      -13365.32      -3635.757
       6043.536       790.3750       6558.107       8267.683       974.4648
       6552.020       10274.86       7667.693       4270.322      -3220.570
      -2535.555       7118.031       5801.615      -3678.739      -4668.828
       2170.837       4242.777      -2819.534      -1587.918       8976.794
       6435.593      -2820.150      -5802.466      -3992.582      -74.72070
      -7355.779      -13729.44      -4833.928       1256.939      -1967.893
      -6114.383      -9455.832      -7388.421       875.1969       1680.414
      -1389.292       2743.057       8954.000       7454.612      -2753.760
      -1791.463       6749.284       2611.801      -1251.170       3431.832
       7143.027       4310.436      -5864.416      -10757.60      -3610.825
      -892.5977      -4538.292      -437.9065       1417.449      -961.3203
       6810.184       13470.01       5946.619      -1892.021       307.0635
       2140.123      -3563.637      -7512.570      -4075.178       560.7480
       5341.548       5709.793       876.2549      -1786.783      -6461.369
      -6600.717       1872.075       3715.525      -1284.292      -2008.776
       130.1104       984.5791      -1577.798      -3862.483       2543.655
       4350.069      -3303.001      -3461.782      -999.9336      -1096.887
      -2064.088      -8387.379      -10392.37      -6498.087      -5835.999
      -4490.010      -1021.010      -68.57544      -366.3262       2996.740
       7890.430       12602.70       11459.69       417.6597      -2339.717
       2189.244      -2625.930      -3323.685       1795.406       2615.457
       4710.028       2549.696      -1625.215      -187.1040      -1236.574
      -4388.503      -3631.976      -1426.046       760.8662       3349.924
       2816.367       787.0215       2871.385       6529.155       2068.683
      -5681.172      -3862.609       1024.530      -1227.939      -3734.350
      -619.1985       1428.946       60.52637      -3898.156      -7520.741
      -1502.115       6838.604       5008.477      -1773.136      -3783.805
       1778.511       3611.028       814.4688       914.4819      -991.0781
      -2245.354      -1081.677      -1343.870      -2861.683       90.75659
       1843.721      -5200.405      -5353.248       4822.990       7404.808
      -716.5176      -4504.228      -192.8140       397.9316      -2997.419
      -1215.949       4746.497       3634.410      -3469.429      -2116.994
       3742.338       4667.874       5629.949       2490.289       334.9033
       4150.014       3592.983       690.5708       265.6758       3951.967
       5033.944       2305.778       1.687500      -6816.566      -9532.129
      -3017.707       1333.370      -1644.938      -6640.768      -3768.506
       5433.462       6169.977      -3320.734      -5925.271      -422.7026
      -646.4346      -4609.543      -3317.259       3860.764       3212.723
      -3077.852       1727.945       5966.385       5786.677       5725.392
      -718.0845      -2390.139       4754.965       6945.022       1237.224
      -1929.159      -2247.451       2695.984       8520.795       2983.949
      -6055.168      -8702.496      -4538.448      -2067.453      -3311.345
      -513.5391       4005.754       3744.557      -611.8408      -4511.840
      -4538.845      -8.618164       2714.815      -1019.421      -765.6260
       5074.883       3493.141      -179.6833       1600.797       139.4961
      -3251.518      -2092.617       975.2133       782.4580      -2431.045
      -2565.949      -1138.707       257.1205       644.7783       336.4482
       4081.295       5279.061       160.7405       749.4912       2296.614
      -2242.354      -2622.044      -4095.332      -4943.704      -701.6091
      -1760.081       52.30518       3950.580      -1328.709      -1597.530
       4495.503       1091.787      -4814.158      -5103.396      -2258.975
