     0.02500000      -77135.54       51587.80      -12345.00      -12345.00
      -29.99502       216.1800      -17.82000      -12345.00      -12345.00
       0.000000       13.48000      -12345.00      -12345.00      -12345.00
      -12345.00      -12345.00      -12345.00      -12345.00      -12345.00
      -12345.00      -12345.00      -12345.00      -12345.00      -12345.00
      -12345.00      -12345.00      -12345.00      -12345.00      -12345.00
      -12345.00      -31.80160      -69.32410       2472.000       0.000000
      -31.59500      -68.73200       0.000000       105100.0       0.000000
      -12345.00      -12345.00      -12345.00      -12345.00      -12345.00
      -12345.00      -12345.00      -12345.00      -12345.00      -12345.00
       60.62604       247.6443       67.95387      0.5451122      -12345.00
      -12345.00   -0.006316980       0.000000       90.00000      -12345.00
      -12345.00      -12345.00      -12345.00      -12345.00      -12345.00
      -12345.00      -12345.00      -12345.00      -12345.00      -12345.00
      2008        13        10        50        45
       220         6    -12345    -12345      9848
    -12345    -12345    -12345    -12345    -12345
         1         7        13    -12345    -12345
    -12345    -12345    -12345    -12345    -12345
    -12345    -12345    -12345    -12345    -12345
    -12345    -12345    -12345    -12345    -12345
         1         1         1         1         1
LEON    -12345          
        -12345  -12345  
-12345  -12345  -12345  
-12345  -12345  -12345  
-12345  -12345  -12345  
-12345  -12345  -12345  
-12345  -12345  BHN     
ZL      -12345  -12345  
[...]
       82.89557       97.29623       88.13550       102.2170       91.14801
       106.6928       98.76221       107.5104       95.96381       110.5540
       98.94037       108.3586       97.26208       105.5395       97.14673
       108.0260       93.74060       99.85889       90.87204       98.18213
       86.98285       92.85614       77.95299       84.37099       73.04640
       78.10629       63.95795       68.49976       53.18825       57.87720
       41.64093       42.22581       26.51190       31.14912       14.97203
       17.30765      0.1911983     -0.3774796      -17.91258      -15.47986
      -35.52763      -34.11394      -53.96063      -54.41559      -73.13141
      -72.63763      -95.81396      -98.14734      -118.0513      -115.8188
      -136.7486      -138.5170      -159.0585      -156.5344      -175.4481
      -169.6987      -184.0035      -177.2623      -196.3930      -189.7404
      -203.7181      -195.5618      -208.5474      -197.0021      -209.2982
      -195.5052      -204.7859      -192.7347      -198.6357      -181.3765
      -186.3567      -168.0392      -171.4045      -154.5544      -161.4410
      -144.9549      -147.5666      -128.4102      -132.0066      -111.6962
      -114.9798      -94.61786      -98.05203      -75.53430      -76.37151
      -55.57596      -61.02947      -40.90871      -42.01266      -20.81553
      -22.76974     -0.4692154     -0.3116684       23.30861       24.94763
       48.90866       50.09433       71.18100       73.13492       96.42352
       97.23965       117.1895       116.6687       137.1171       137.4919
       156.6003       157.7041       178.8882       179.1796       200.2408
       200.1706       218.4333       218.6684       238.4354       234.1086
       248.2281       246.4615       258.8234       252.3091       270.7928
       264.9432       279.2398       273.0071       283.0494       271.8108
       283.9084       274.7999       288.4832       279.9824       289.6046
       279.6183       290.8429       280.4200       285.0294       271.0873
       280.4159       272.1473       281.1608       271.8013       282.1840
       270.9157       278.7266       269.2981       279.4086       267.1136
       276.2019       264.5071       273.0796       262.4684       272.3662
       262.4797       274.7984       263.1931       271.1320       258.1839
       269.6329       260.8685       273.8110       265.0013       276.3673
       264.1573       273.0806       262.4233       270.4770       255.8263
       265.9319       255.0410       261.6990       245.2200       250.0389
       230.1921       234.6373       220.2015       225.5450       205.3308
       209.1042       190.6039       192.2256       167.1882       169.0134
       152.1772       154.7113       130.6807       129.7213       106.5461
       106.4681       81.29059       80.87598       59.19170       59.07373
       35.78353       33.32323       6.401996       3.360062      -21.69086
      -21.63716      -47.82797      -53.24013      -79.16742      -78.27014
      -103.9220      -110.7739      -135.9232      -133.6320      -159.2478
      -162.1224      -187.2173      -191.1119      -217.6814      -220.2891
      -243.4402      -241.3943      -263.9727      -266.5931      -288.8439
      -285.7795      -310.9971      -309.2687      -330.6410      -330.8436
      -351.6348      -350.7494      -376.4473      -374.8917      -396.0375
      -396.6851      -415.4312      -408.4163      -426.2665      -421.4225
      -440.7102      -436.9594      -453.3527      -445.9973      -460.5270
      -455.4304      -468.3357      -460.7476      -472.4072      -465.4626
      -479.8091      -467.8802      -478.0068      -467.3673      -475.1506
      -463.4404      -473.1190      -460.9309      -472.3011      -459.6097
      -464.9694      -451.0247      -456.0197      -437.7778      -445.1837
      -427.9731      -431.5885      -412.9762      -416.3193      -399.4768
      -402.9215      -385.1603      -390.3755      -374.3782      -377.3356
      -360.8761      -364.1313      -345.4771      -347.1765      -332.5428
      -336.5996      -317.4491      -314.7334      -287.9897      -261.3819
      -205.4301      -193.9491      -183.3751      -113.1096       69.50275
       161.8077       222.5879       442.1876       603.8350       390.4961
       379.0483       731.5759       901.2463       313.9395      -1299.142
      -2375.298      -1209.908      -697.1719      -3219.799      -2536.525
       4568.707       5422.311       2310.398       3442.524      -758.9346
      -1883.517      -2338.391      -7228.818      -4535.095      -2210.686
       805.0283      -1921.773      -5564.904       4937.821       5467.224
      -2664.630       1121.598       5249.823       1434.884       183.5060
       647.6868      -1371.217       2036.648       4004.436      -2402.655
      -5821.189      -1838.457      -197.9060       135.7170       1214.628
      -634.1348       1450.087       5429.739       5044.108       1824.136
       1921.644       3302.962      -1315.963      -8346.959      -6040.834
       1847.858       1098.543      -808.3922       15.65088       1087.154
       829.9714       981.4576       1298.451      -1890.475      -1326.554
       1977.865       1629.315      -2125.104      -1672.407       4995.397
       4805.647      -2069.975      -3373.338      -3295.821      -3976.464
      -1184.056       1367.845       1558.347      -862.9927      -90.21191
       3635.918       4988.990       7340.284       6173.120      -888.2207
      -3263.535      -1456.060      -836.1638      -1291.935       1077.441
       3574.269       1132.050       1587.917       3315.337       337.8135
      -3057.732      -6572.314      -7976.395      -4786.574      -2706.753
      -1434.153       2951.950       5423.684       2452.590      -1075.438
      -1150.146       1417.710       1739.853      -2004.206      -1116.140
       1354.478      -470.8130      -1196.245      -327.9326       3495.695
       5919.117      -412.3887      -1588.115       3778.067       1577.590
      -1987.823      -1482.300      -1609.322      -1878.521       523.7480
       2508.844       3470.828       3589.517      -280.0145      -750.3667
       2115.999       640.1470      -1407.707      -523.0352       2789.132
       1867.344       133.0652       1765.038      -1336.932      -2171.294
      -2320.642      -3203.352      -154.8469       934.8511      -769.0247
      -2105.482       694.4365       3212.708       1832.541       71.36572
       18.78760       2253.560       2405.617       762.3115      -1316.305
      -1930.805      -199.3398      -2993.807      -2950.047       2565.516
       2782.809       2220.112       1914.412       281.4717       2919.752
       3565.606       1.494385      -675.8418      -485.1025      -742.8135
      -1456.913      -2242.480      -993.7025       316.2848       143.7010
      -557.1738       880.9233       2712.052       102.5372      -1175.086
       1307.806       1201.386       637.2613       225.9539      -21.42358
       278.3408      -2220.777      -2604.820      -1359.780      -636.2003
       187.2886      -726.9304       952.5837       1098.976      -2229.275
      -1334.746      -2106.042      -1404.674       946.2017      -2680.875
      -1762.796       1634.016       2078.689       2476.366       1358.694
       2014.440       1940.624      -1838.621      -2763.660      -979.4141
      -2008.047      -1997.180       90.55090       84.69617      -109.5786
       642.0703       1153.502       1033.785      -325.2018      -907.8010
       143.4047       338.7231      -1660.893      -2164.577      -549.0283
      -2041.725      -4181.927      -714.9316       3280.070       914.8666
      -659.4600       2838.793       2783.107      -1032.383      -1091.077
       1306.215       365.5864      -1948.590      -1325.589       176.3745
      -1355.274      -893.8252       1586.835      -2025.894      -2934.841
      -621.0547      -2493.702      -350.5699       1014.027      -1908.455
       325.3687       3770.724      -32.08081      -1770.171       2422.595
       1013.699      -1606.386      -508.7927       456.6052       885.4780
      -1679.410      -1919.989       925.6970       1127.298      -703.3516
      -591.3782       1410.016       397.6206      -1986.604      -3860.813
      -2079.027       1705.830      -358.6494      -1888.821       753.3378
       1062.546      -366.0203      -441.8613      -445.3566      -395.5862
       796.9548       637.2017      -2145.213      -1485.453       1665.548
       712.0859      -958.2268      -1232.928      -965.3677       1359.821
       1719.866      -200.9896       526.1250       675.8257      -1709.307
      -1401.493       2110.976       2811.121      -1111.469      -2046.915
       121.9053      -1392.883      -3145.981      -628.8710       47.93079
      -918.9658       1436.189       2847.229       910.4276      -585.6875
       750.9287       1957.364       1044.356      -1056.473      -1835.517
       476.6375       262.8689      -1623.509       348.3110       2865.357
       1665.840      -775.2607       356.0510       1690.962       575.4707
      -743.8291      -1913.665      -1998.903      -756.3872       1635.716
       232.1423      -465.0908       2232.872      -54.25146      -1644.094
      -1131.912      -2503.042      -2044.521       2087.626       4061.044
      -1278.358      -4063.675      -160.9249       750.6670      -927.2686
       1477.339       3674.509       2268.148       2008.545       2188.856
       555.8838       1777.989       2493.423       166.5322      -1627.997
      -2315.773       843.4397       812.5669      -2651.382      -128.0237
       1321.417      -1547.522      -3245.691      -1013.653       1426.486
       603.7065       750.5137       377.3459      -378.6420      -423.2402
      -744.5381      -651.7876      -518.8970       177.3904      -310.8845
      -566.7778       401.2461       1684.172       2040.192       1469.991
       2228.741       1656.436       61.29810       953.0413      -18.54565
      -2287.904       1113.185       2324.297      -794.2097      -513.2427
      -484.2256      -1466.762      -1111.921      -281.4603       273.0974
       234.3945       598.4194       1871.841       1161.674       600.9736
       2285.340       2074.943       105.4248      -1871.849      -1683.263
      -1692.984      -2334.524       918.9363       1910.989      -1027.665
      -31.22852       1101.206      -476.0952       1246.547       1932.589
       927.8638       1533.331       795.9282       793.3496       785.9102
      -699.3273      -255.2051       452.5490       209.5151      -486.2244
      -1299.776       1106.419       1751.237      -668.4941       1037.102
       3139.046       1448.580      -497.5234       636.2195       995.9292
      -1862.230      -2050.211      -1426.375      -1921.029      -955.1100
       160.6084       1698.425       1115.336      -1160.448       247.5562
       2419.246       1002.003      -823.6314      -42.82544       854.3076
       795.7832       1297.309       1516.857       594.4431      -842.9854
      -898.0903      -1199.176      -1042.458      -1304.823      -2275.866
       597.8308       1143.267      -698.2938      -217.1252       1305.669
       1491.849      -1969.626      -2457.607       272.6875       1558.438
       2075.646       604.9397      -321.4840       260.7382       561.5376
      -636.1729      -3090.487      -1772.398       728.0430      -35.35669
      -533.2861      -182.7607       537.5952       1879.153      -431.4990
      -1991.737       858.7910       2779.709       1386.703      -737.6411
      -506.9335      -744.1011       720.1895      -100.2607      -3176.568
       443.0145       632.3286      -1640.261      -645.9751       764.8608
       3162.547       1007.703      -733.9966       10.18701      -2378.334
      -3063.416      -2093.798      -2163.646      -1615.179      -1395.054
       900.8462       3172.938      -366.2834      -1666.395       91.31683
      -248.7017       1022.439      -516.3379      -4331.879      -4893.177
      -3146.468      -572.2627      -2143.183      -3811.524      -1958.369
       135.4902       3009.141       1036.646      -3030.251      -1471.287
      -1846.555      -6494.486      -9673.141      -12062.12      -14807.68
      -14892.29      -13667.95      -13033.24      -11569.62      -9343.961
      -2296.699       7446.559       9435.555       4797.758       7565.941
       19861.31       25376.37       20129.94       25615.47       44009.50
       51587.80       49093.34       46377.36       38115.97       18678.70
      -12200.38      -40766.58      -42781.89      -38015.81      -62695.41
      -77135.54      -41965.88      -2955.188      -6528.102      -24546.90
      -17262.82      -147.0117       7509.809       10322.32       7797.250
       7900.969       20258.84       31667.44       29965.07       22153.66
       9439.377      -6400.447      -6148.022       2551.328      -3640.246
      -11368.84      -5922.664       3449.437       1309.834      -8887.797
      -5253.141       7404.977       5154.104      -5477.219      -1399.290
       6837.972       176.3848      -7141.880      -3086.844       8815.832
       14120.58       1474.675      -6088.580      -1656.910      -802.9961
      -9499.922      -20625.19      -14390.84      -5155.791      -5502.191
      -1271.305       6648.121       14024.01       13825.93       12579.13
       21467.72       23538.07       12046.43       322.2324      -2935.068
      -1398.467      -3856.496      -10040.51      -10544.62      -4760.240
      -8074.738      -16535.17      -16110.60      -12306.33      -10503.46
      -7382.269      -2644.666       1131.834       5164.254       6391.792
       5157.082       6049.250       5267.359       4847.395       13081.81
       20093.14       13167.77       4393.668       3405.586       996.7227
      -6528.312      -10703.26      -7830.602      -3878.840      -2502.365
      -3458.639      -1797.506       4052.448       7033.706       995.0088
      -4169.441       1829.598       6256.227       8416.516       12434.28
       8669.874       3177.495       2283.987      -2320.828      -10589.35
      -13279.06      -7729.106      -2202.640      -2178.351       176.8738
       2304.230      -2208.207      -5024.688      -7011.377      -7525.889
      -1392.021       3601.197       2229.031      -4644.028      -6665.234
       2300.025       8129.146       7557.863       9630.107       8702.272
       1194.324      -7794.508      -9112.497       2345.986       9184.248
       1394.068      -4389.924       1375.633       7412.590       7103.551
       8492.502       9623.488       5515.969       476.5469      -4996.543
      -7429.898      -10833.71      -14527.83      -7540.690       161.3462
       1022.775       108.8801      -1363.216      -760.5244       1913.451
      -2218.764      -9024.184      -4619.262       7945.906       13645.14
       5209.594      -1629.573       1721.623       2985.084      -2209.460
      -6700.229      -1452.363       5172.535       5100.356       1349.264
      -4894.496      -5837.729      -1231.625      -1300.895      -3952.000
      -543.2524       3029.473       1270.705      -1003.240       1060.599
       1589.000      -3414.381      -2802.796       1069.324       2109.412
      -11.77930      -3320.342      -1517.579       1948.866       1951.502
       1948.836       8018.373       12007.90       7114.129       2303.518
      -19.18750      -4218.117      -8407.764      -5494.312      -4076.891
      -6744.846      -5190.271      -2947.129      -1885.408      -4076.377
      -3991.303       2620.152       8395.154       11375.59       8350.002
       744.2080       585.3584       4052.039       691.3398      -3478.630
      -4121.438      -5049.436      -6075.336      -5505.835      -2986.955
      -1381.590      -4126.831      -2241.013       4038.027       479.1396
      -4883.363      -63.66943       2615.303       518.8733       1440.382
      -648.6318      -4870.449      -5869.236      -4879.352      -2278.135
      -309.0107       1634.371       5381.381       8153.144       4191.770
      -945.3057       431.8853       282.5146      -4355.069      -2957.197
       3848.954       5351.041       2260.774       114.1147      -1317.715
      -1622.056      -1507.605      -1554.413      -1054.625      -547.5908
       1230.211       2378.297       3042.359       1821.511      -3954.369
      -6228.720      -3282.111      -4404.517      -4619.271       1327.602
       3820.152       2049.993       1014.425       4213.323       5825.585
       1006.214      -1448.957       1491.383      -190.9336      -8847.570
      -10623.05      -5368.190      -3314.500      -337.4043       3589.600
       4551.415       5500.803       5163.314       4660.070       8515.104
       10372.24       5202.610      -1602.050      -2233.001      -1210.811
      -7527.232      -11086.84      -3690.630       6047.975       4106.777
      -5319.998      -4907.771       1547.154       3034.862       1155.895
      -2454.556      -5257.757      -1108.652       3596.338       1747.143
       1902.891       7245.947       4542.291      -2284.284       398.2734
       5840.151       5270.434      -254.2554      -1902.781       1540.393
      -1143.826      -6236.436      -4500.026       163.9131       3730.175
       4358.135       1050.006      -287.6489       804.2803      -2117.412
      -7062.440      -6490.188      -994.3008       1956.044       267.7998
      -361.3916       3132.045       4269.287       1865.741       2635.721
       3000.563       1006.392       911.5576       1691.494      -739.2271
      -2066.316      -714.0562      -1490.083       877.1091       1609.005
      -2761.593      -1029.963       2300.840      -300.7720      -1639.682
      -316.1375      -533.9307      -1881.396      -5543.631      -7552.378
      -3792.528       612.9971       854.8047       291.2305       4333.732
       8082.082       6210.750       1387.346      -778.8066       1259.333
       1335.792      -155.0342       1307.512       1534.263      -1713.902
      -462.3462       2289.394      -105.8792      -1421.476      -219.7100
