     0.02500000      -16566.79       18326.98      -12345.00      -12345.00
      -29.99001       227.9100      -28.64000      -12345.00      -12345.00
       0.000000       21.57000      -12345.00      -12345.00      -12345.00
      -12345.00      -12345.00      -12345.00      -12345.00      -12345.00
      -12345.00      -12345.00      -12345.00      -12345.00      -12345.00
      -12345.00      -12345.00      -12345.00      -12345.00      -12345.00
      -12345.00      -30.16080      -67.83630       1442.000       0.000000
      -31.59500      -68.73200       0.000000       105100.0       0.000000
      -12345.00      -12345.00      -12345.00      -12345.00      -12345.00
      -12345.00      -12345.00      -12345.00      -12345.00      -12345.00
       180.6059       28.53998       208.0825       1.623824      -12345.00
      -12345.00      0.2086298       90.00000       90.00000      -12345.00
      -12345.00      -12345.00      -12345.00      -12345.00      -12345.00
      -12345.00      -12345.00      -12345.00      -12345.00      -12345.00
      2008        13        10        50        56
        40         6    -12345    -12345     10317
    -12345    -12345    -12345    -12345    -12345
         1         7        13    -12345    -12345
    -12345    -12345    -12345    -12345    -12345
    -12345    -12345    -12345    -12345    -12345
    -12345    -12345    -12345    -12345    -12345
         1         1         1         1         1
LUNA    -12345          
        -12345  -12345  
-12345  -12345  -12345  
-12345  -12345  -12345  
-12345  -12345  -12345  
-12345  -12345  -12345  
-12345  -12345  BHE     
ZL      -12345  -12345  
[...]
      -592.9941       342.5640      -1147.299      -939.4946       1611.135
      -1139.144      -1345.212       1134.234      -97.63562       481.7009
       779.9497      -1959.636      -693.8088       1675.070      -86.82690
       214.8761       513.8002      -616.1781      -106.3440      -1620.323
      -687.9208       705.6796      -773.3867       1858.046       1643.889
      -974.3347      -17.37125      -63.15430       378.8308       1350.137
       673.8950       637.8723       1296.922       528.3931      -995.7878
      -1530.216      -71.66821       533.8564      -1845.748      -2037.755
      -184.2766       629.4767       264.2565      -55.48950       445.4031
       506.1333       1640.341       2845.282       1382.249      -808.4192
       220.5757       944.1025      -539.3516      -658.9435      -620.9230
       540.0516       424.4932      -1343.442      -321.7405       742.8085
      -106.7148       698.2218       1152.607      -315.7900       1106.943
       2301.655       45.20911      -738.6254      -268.2627      -73.96069
       309.4807       259.4377       701.5053       464.5537      -788.2205
      -1343.255       427.5645       1641.311      -436.8136      -440.2817
       1369.529       1508.354       773.8356       75.64551      -312.6653
      -884.8635      -1094.486       306.4705       564.6858       388.2510
       1414.399       714.8032       546.2544       1084.898       89.54529
      -513.2349      -492.0977      -624.6266      -739.8804       1207.083
       1355.734      -755.5752      -51.95312      -3.149414      -839.9335
      -433.9849       380.1006       1812.052       1118.957      -314.8654
       760.5997       431.9484       131.9635       834.5797      -141.0134
      -204.3549      -239.4521       1234.994       2496.272       460.1038
      -833.4324      -323.5979       590.0793       724.6804      -415.6533
       411.0396       1545.191      -587.6827      -1208.960       771.8345
       753.1005       1.165833      -173.3784      -613.2261       347.0068
       1496.374       1396.318       1655.339       512.6208      -1383.063
      -324.2062       259.8268      -718.3538       614.1375       745.6049
      -676.9746       1067.637       1028.389      -464.8435       1329.300
       407.6709      -775.4977       13.99081      -293.3735       471.1868
       183.5743      -506.6246       785.9716       419.2581      -885.8290
      -366.3735       1202.245       607.4092      -1714.797      -670.7642
       836.6206       544.7842       1519.966       2128.899      -133.6716
      -1753.368       87.30225       1255.166      -514.9041      -589.5598
       1481.243       424.7377      -818.3501      -245.0900      -256.7254
      -225.8464       417.4143       1266.872       713.8418      -469.4475
      -472.7095      -577.6512      -528.3469       1.692627      -966.0243
      -895.6978       1371.445       471.4884      -474.8480       414.2222
      -148.3717      -579.3262       665.3813       1418.788      -273.1816
      -1413.791      -293.7037       104.7126      -427.6766       161.0310
       695.6210      -55.13776      -91.47754       781.7688       1005.414
      -775.6003      -1948.351      -27.41943      -72.71338      -2208.256
      -1537.253       240.8450       1192.945       588.1484      -815.8748
      -844.0275      -404.2855       321.6805       306.6074      -827.5272
      -192.0056       1283.200       112.1793      -755.1816       1102.538
       279.8364      -667.7957      -125.0032      -518.3184      -877.5824
      -634.5670      -348.0938      -878.6705      -312.7662      -80.82312
      -620.6028      -98.05725      -597.5350      -532.1459      -191.4668
      -1223.053      -917.3912       36.71099      -20.10077      -31.04443
       485.6662       414.2861      -558.8575      -1005.057       138.2043
       849.2784      -594.1251      -621.6486      -10.64502      -1098.175
      -800.1345       67.70972      -726.9609      -731.2048       819.7278
       453.8884      -1163.346      -913.6694      -1514.489      -1462.357
       826.5326      -408.0087      -888.1775       675.4514      -1257.334
      -1198.908       326.7828       223.6384       473.7876       496.4463
      -713.0435      -1468.819       149.8041       216.6541      -1439.956
       128.7846       713.4028      -743.3218      -837.2192      -1080.226
      -526.6373       387.8306      -448.2026      -1343.381      -716.7809
       648.4227       432.2366      -959.4441      -1333.337      -807.3058
       2.228638       731.3846       390.7910      -700.7468      -652.9272
       867.3872       18.93237      -1725.723      -308.7899       260.7099
      -123.6560       381.8167       332.5879       130.9434      -1244.800
      -766.2507       1095.451       71.02930      -224.2225       542.2430
      -91.45972      -594.3112      -23.86719      -42.03027      -1061.285
      -322.4778       112.0662      -1066.714      -735.7728      -165.0992
      -317.4706       609.2681       692.5503       561.5780       601.1804
      -272.7687       164.8954       673.0767      -1064.506      -297.2563
       2618.052      -400.0225      -2861.720       1255.529       2088.306
      -493.9216       384.8726       1082.600      -929.0882      -563.5542
       607.0243      -672.7341      -46.16455       741.5254      -872.7197
      -1303.659      -466.5760       271.1007      -150.7389      -392.8940
       391.5925       286.7949       385.3442       596.5740      -565.2026
       36.14636       825.4165      -488.6008      -1140.592      -525.2435
       251.3422      -458.9813      -999.9993       630.0361       2024.347
       1009.846      -902.4506      -941.0984       521.6091       963.0471
       201.3237      -900.0745      -1738.758      -442.2795       1107.409
       451.6572      -665.6887      -1220.401      -332.2826       705.3398
      -1401.099      -1995.985       1524.480       2584.860      -769.7261
      -1850.871       1177.556       1481.936      -785.1202      -593.3665
       811.8716       936.9021      -490.3481      -1867.083      -342.5411
       940.9106      -110.9038      -55.30762       375.3213       648.6333
       775.4507      -12.43680      -176.4644       17.75098       490.5018
       237.0464      -609.2997      -166.5327      -498.1356      -794.5234
       356.0132       443.2437      -569.0417      -999.6665       788.4653
       2436.772       893.8010      -131.1204      -60.71814       600.7014
       284.9380      -1085.951      -412.4871      -400.8452       54.67139
       1808.560       678.3350      -800.4282      -7.683807     -0.6992188
       173.5872       386.9976       693.1152       1284.358       119.4558
       280.8091      -287.5498      -2076.451       391.1123       2758.366
       1170.579       99.67328       10.47693      -790.5439       459.2319
       2007.117       605.7157      -365.6101       338.0957       828.8755
       950.7590       737.3801       556.0564      -86.32751      -756.5776
       272.4070       780.4707      -345.2864      -58.41919       937.3558
       293.8184       527.6289       1041.311      -83.29675      -530.2227
       388.4009       1769.073       973.6080      -936.5000       384.7424
       1197.862       274.0225       515.2026       504.5066       1159.090
       1272.985      -249.2690      -428.3582      -929.2977      -370.7104
       1571.322       999.2510       936.5637       1307.592      -85.61353
      -1163.700      -7.053223       2093.037       1336.307      -353.9981
      -560.5239       571.7000       503.1699      -817.2651       848.4645
       518.2148      -1656.810      -363.8186       35.10071      -1040.539
       487.5649       2274.962       758.5055      -497.2867       544.9745
       710.0815      -767.4917      -1327.854       520.5420       904.7805
      -76.06055       907.1846       376.9814      -1098.448      -1059.944
      -380.7789       529.6040      -425.4248      -1567.292      -210.4554
      -104.3018      -727.4160      -472.0157      -761.0841      -74.06616
       1141.828       498.4023      -890.4455      -64.12555       417.6506
      -987.2119      -845.7354      -408.8909       188.2410       1282.869
       196.2599      -762.8887      -167.2542      -283.5054      -546.0441
      -133.6324       73.30566      -367.0859      -732.3462      -1258.469
      -1224.045       362.5002       928.2747      -572.5834      -862.0686
       1035.301       740.1924      -927.9521      -1439.437      -1641.239
      -502.5919       350.7953       469.7306      -123.2285      -1720.959
      -1296.190       227.3188       750.6522       639.3583       7.820557
      -677.0690       194.4783       909.5022      -848.1770      -869.1453
       474.1767      -157.4970       84.29938       37.01904      -1020.600
       847.0686       1576.022      -1010.801      -1421.752      -314.0054
      -74.94434       991.4924       1623.804       442.7146      -10.59595
       308.5917      -45.09167       293.5520       53.42383      -1216.848
      -132.8782       740.9376      -234.2300       516.1044       765.9095
      -794.1161       266.6343       1315.328      -399.9590      -1272.701
      -280.2759       1755.289       1647.540       430.0703       530.6309
      -1264.857      -1532.348       1460.556       1420.742      -366.3462
      -465.7139      -611.4121      -1154.476      -41.44067       1065.431
      -110.3544      -232.4692       833.5352       737.8528       162.2400
       465.0867       1350.163       206.5278      -2012.235      -948.3875
       1420.844       830.2429       339.8262       824.0281       913.7838
       401.1096      -1339.718      -709.5772      -60.33197      -744.8345
       642.4818       923.4327      -11.62062      -101.4293       319.3929
       433.4285      -31.46094       144.3958       63.94635      -275.7517
       164.8071       332.4519       142.2995     -0.9465332      -240.1706
      -271.1262      -313.7090       59.44720       346.4529      -776.5722
      -484.3472       816.8285      -196.7844      -540.7676      -519.3605
      -825.2267       80.14294      -445.4242      -730.5463       74.77856
       192.5952       358.4673      -27.48584      -400.4556      -908.7534
      -975.1589      -806.7948      -400.7592       732.9396      -587.2493
      -1339.383      -169.2686      -880.6195      -659.5348       740.3105
       521.4987       404.0310      -555.0018      -593.2492       429.1865
      -1269.100      -1680.311      -512.1191      -769.5360      -732.3108
       180.5068      -302.4023      -1461.689      -615.3313       722.5583
       911.1079      -758.3135      -2254.178      -247.5381       1139.370
      -650.6727      -557.8523       41.07178      -1416.850      -909.9357
       294.2399      -96.17847      -453.3762      -81.50708      -403.9131
      -1509.002      -223.7737       773.8109      -266.4972       276.2482
       271.6008      -1415.299      -368.9080       459.8638      -1554.412
      -1227.092       71.16516      -78.95996       1099.666       1143.096
      -1046.813      -1396.419      -1754.891      -1872.221       865.1410
       604.4033      -1206.652       246.0054       1385.930       1139.225
       219.6038      -443.9570       349.4023       1195.207      -67.86377
      -1890.558      -1193.498      -521.6064       297.0161       1381.792
       890.2737       348.6638      -854.2375      -1389.310      -470.3171
      -779.8990      -483.4736       2350.925       2631.103       1455.440
       1242.737      -1149.321      -1879.468      -690.3779       1255.463
       2731.573       490.5671      -974.8083      -206.1701      -310.0981
       494.6465       2471.643       1873.737       201.3218       660.0146
       1752.976       563.1738      -1975.566      -980.5068       1944.027
       617.5067      -1175.318       444.3735       523.4795       481.1123
       2411.571       238.1665      -1400.526       1724.086       937.6895
      -406.3086       1693.824       1066.153      -379.3215       406.3721
       1611.833       782.4438      -2249.683      -1942.876       875.1143
       2058.567       3260.188       1970.868      -103.4014       1716.197
       2562.829       379.7007       702.1343       1719.556       35.02979
      -1345.934      -2157.427      -3612.883      -6743.375      -10282.46
      -12359.90      -13533.02      -13833.41      -11480.65      -3288.684
       5564.789       8733.914       10488.04       13138.41       15911.17
       15829.94       9455.933       4846.878       2271.707      -4258.691
      -8464.858      -6324.745      -296.9082       4951.535       9030.617
       13687.43       17300.37       18326.98       11470.05      -3568.287
      -9863.406      -68.51172       6082.295      -2930.531      -10730.66
      -8032.424      -8412.945      -11400.84      -9618.965      -10081.95
      -6767.767       3177.383       1020.771      -4065.170       5050.219
       11464.48       3980.500      -5582.948      -4546.936       2759.529
       5562.369       2062.059      -2360.909       60.56396       141.4607
      -2733.939       3246.961       7424.137       3019.979      -5877.348
      -10818.99      -4007.169      -369.1221      -4202.359      -4674.231
      -4237.166       3178.504       13098.99       3376.605      -14168.63
      -13308.81      -2468.824       1418.191       7563.141       18179.09
       16777.21       6086.654      -1237.588       2444.391       11280.30
       6915.641      -6762.344      -12160.13      -9728.738      -8233.960
      -3434.084       1725.131      -2408.119      -7932.143      -895.5527
       6061.002      -6612.432      -12940.11       1374.274       6924.167
      -827.6240      -3534.804       898.8833       2794.028      -1603.027
      -8950.031      -11346.61      -1423.082       8809.311       6406.244
       2594.680       8174.695       16244.05       16361.96       7575.387
      -5862.059      -16566.79      -14436.41      -6596.396      -2115.937
       1165.642       572.0410       3805.328       8065.107       4241.641
       6032.861       11881.70       3713.453      -6243.670      -1986.707
      -3910.793      -9320.698      -3599.244      -4451.521      -6682.266
      -4908.158      -5196.368       2976.697       5720.060      -1463.146
       1651.504       7288.328       5757.318       4979.645       6902.661
       3078.473      -3848.854      -762.5938       4492.952       1804.553
      -4068.438      -9762.170      -9251.488       2084.871       12772.41
       11767.06       4597.410      -6767.100      -10667.26       947.4482
       3572.170       472.3867       7616.996       10275.73       1312.213
      -9787.600      -9401.418      -2562.131      -319.1484      -824.9545
      -272.0925       1299.859      -2501.504      -8108.223      -6682.691
      -4249.896      -9277.172      -4800.332       11173.64       8766.496
      -3916.731       1329.525       7427.416      -3223.951      -6687.384
      -1770.256      -4079.044      -1717.227       5818.455       4190.957
      -2280.721      -3749.452      -1251.965       4413.279       6151.723
       4405.059       9166.285       7383.101      -3437.506      -3346.162
       1740.755      -3608.279      -6439.712       1143.664       7368.431
       4055.936      -5939.998      -5609.025       739.1230      -7531.273
      -14693.25      -4692.439       6085.066       6621.438      -278.6965
      -3289.834       3000.760       3398.218      -3398.092      -2260.247
       2960.449       3609.953       2854.019      -584.1797      -2566.069
      -346.3638      -2632.581      -1370.159       2591.452      -311.6348
       1517.402       6148.890       3783.691      -2602.357      -4781.114
      -2882.631      -4957.469      -977.9238       4661.897      -4202.592
      -9526.644      -2565.300       2955.977       4572.268       5391.373
       4171.364      -3324.781      -8253.470      -2088.410       4038.746
       2947.817       2923.271       6084.689       2810.021      -2673.493
      -2167.691      -4329.527      -10037.23      -6545.140       1249.969
       1894.993       2266.974       4329.654       1052.107      -3624.838
      -5330.976      -3972.616       1236.545       3329.390      -1349.967
      -2325.693      -988.4209      -2316.392      -803.6465       3299.326
       2907.177      -2218.811      -3125.408      -2463.469      -2051.766
       1628.260       3814.695       4137.697       6919.131       7971.768
       2382.096      -2326.543       81.46558       338.6289      -3282.422
      -4950.354      -6571.117      -938.9912       3439.974      -2180.276
      -2158.760       138.1545      -1349.560      -604.4551       1873.196
       3370.941       1069.285      -2174.425       534.7515       3700.627
      -485.3208      -1972.472       636.1597      -683.4551      -2802.882
      -1106.237       1985.899       1479.065      -175.1420      -744.4565
       879.9204       1690.867       220.8706       1592.595       462.5923
      -1437.289       1732.098      -2040.397      -5277.895       2847.864
       3920.686      -3876.408      -4375.570       4572.141       8652.347
       2814.825      -2127.655      -4208.821      -3513.343       1137.142
       3624.692       1888.509       375.4768       237.6841      -1554.972
      -730.8789       2418.844       1008.408       1302.042       2712.145
      -1008.767      -2698.797       1709.238       4787.838       1623.096
      -3150.109      -4171.916      -1750.587      -2674.078      -4069.635
       188.8818       3377.355       1297.851      -305.1387       4364.970
       5900.029      -87.76624      -506.6709       34.36206      -2086.798
       1009.004      -192.1689      -1735.117       3057.449       789.6719
      -4052.443      -3510.770      -1756.823       1585.699       2371.959
       329.5696       1017.555       336.8799      -1936.925       1117.676
       7758.866       4831.258      -4973.610      -3812.544       1735.360
      -620.9338      -1318.623       421.7803      -2676.638      -1650.229
       4655.981       4699.532      -76.92175      -190.9434       2116.041
