     0.02500000      -16168.13       14042.29      -12345.00      -12345.00
      -29.99001       227.9100      -28.64000      -12345.00      -12345.00
       0.000000       21.57000      -12345.00      -12345.00      -12345.00
      -12345.00      -12345.00      -12345.00      -12345.00      -12345.00
      -12345.00      -12345.00      -12345.00      -12345.00      -12345.00
      -12345.00      -12345.00      -12345.00      -12345.00      -12345.00
      -12345.00      -30.16080      -67.83630       1442.000       0.000000
      -31.59500      -68.73200       0.000000       105100.0       0.000000
      -12345.00      -12345.00      -12345.00      -12345.00      -12345.00
      -12345.00      -12345.00      -12345.00      -12345.00      -12345.00
       180.6059       28.53998       208.0825       1.623824      -12345.00
      -12345.00    -0.07587505       0.000000       0.000000      -12345.00
      -12345.00      -12345.00      -12345.00      -12345.00      -12345.00
      -12345.00      -12345.00      -12345.00      -12345.00      -12345.00
      2008        13        10        50        56
        40         6    -12345    -12345     10317
    -12345    -12345    -12345    -12345    -12345
         1         7        13    -12345    -12345
    -12345    -12345    -12345    -12345    -12345
    -12345    -12345    -12345    -12345    -12345
    -12345    -12345    -12345    -12345    -12345
         1         1         1         1         1
LUNA    -12345          
        -12345  -12345  
-12345  -12345  -12345  
-12345  -12345  -12345  
-12345  -12345  -12345  
-12345  -12345  -12345  
-12345  -12345  BHZ     
ZL      -12345  -12345  
[...]
       2431.442       5242.475      -3148.098      -5232.356      -53.54492
       929.5161       1170.853       1805.958       526.4313       217.1021
      -65.50226      -272.7896       1571.485      -292.5830      -2689.057
      -8.204224      -156.0464      -1659.944      -673.2249       982.7679
       902.9995      -2370.837      -797.1772       3142.133       88.36255
      -1208.567       2075.536       1448.662      -523.2274       133.3330
      -472.9165      -2887.209      -890.7448       405.6956      -1574.635
       359.1295       1506.368      -1053.193      -2288.826      -1037.083
       1814.001       2025.578      -1489.000      -1870.179      -1082.834
      -1050.031       2654.392       980.5952      -3115.064       91.97046
       983.7931      -375.7061       223.3945       687.1671       578.5815
       687.8622       690.5720      -1015.783      -127.3105      -1914.501
      -4886.876       1439.495       3586.650      -906.6123       1973.758
       2263.357      -3276.943      -2940.977      -686.8904      -90.14966
      -390.7539       900.6860       2557.485       129.7275       632.2112
       1188.797      -2460.073      -1849.720       1021.080       386.7234
      -1002.113      -100.7285       2001.547       626.2148      -1913.929
      -1301.104      -592.2505      -700.9666      -970.9297      -443.1904
       2460.558       2013.229      -2854.045      -1110.331       1942.372
      -2013.284      -1674.942       1024.115      -71.43359       2370.209
       3352.577      -1834.423      -2780.816       200.5327       1686.444
       2927.802      -773.0244      -3715.583      -641.8838      -930.3013
       614.5044       2857.786      -1883.095      -2377.503       1714.239
       1751.717       402.8240      -574.6309       841.0590       874.4512
      -2529.133      -927.9919       216.9163      -235.3799       1915.554
       1398.479      -19.83032      -770.5361      -1799.698      -2104.927
       428.2051       3364.561       2008.729      -431.6816      -2312.110
      -3343.399      -330.2129       3300.523       1888.230      -827.6919
       690.2317       1429.355      -1495.919      -1167.421       1732.117
       294.9609      -1869.322       317.8423       52.88818      -1586.228
      -91.30420       1009.033       1079.060       432.0507       366.0855
       274.5106       38.20068       900.4773       228.0264      -1097.807
      -324.4235       237.4028       1484.617       1059.615      -956.9863
       913.1034       748.1335      -1144.415       220.7332       741.9955
       429.9601       579.8203      -899.7207       51.95801       1781.432
      -359.5160      -914.8423       238.3198       213.6870       1677.863
       2044.076      -863.0610      -739.0952       1104.420      -197.6351
       102.6047       423.9821      -999.7446       355.9670       903.1621
       905.1863       589.3728      -1937.983       295.9204       1724.349
      -513.8707       426.3782      -282.8950       601.0387       1299.004
      -1510.773      -1239.081      -833.4692       1516.675       2613.408
      -1287.825      -148.4575       1967.711      -731.4141      -1146.401
      0.6586914       1434.143       1564.759      -1080.342      -313.7739
       136.1238      -747.6919      -91.46170      -272.8812       239.2285
       1440.851       1149.408      -592.1572      -1734.983      -549.8689
       1293.941       267.8276      -2360.411      -105.0811       3129.657
      -105.6230      -1843.284      -511.4460      -586.6206       1845.336
       2184.956      -959.7303      -463.1891      -99.33331      -2.392456
       701.4507      -1875.561      -288.1758       4275.697       969.9004
      -3606.153      -1603.178      -112.5063      -1104.031       21.31396
       1850.255       1359.925       64.56982      -689.9027      -934.9513
       334.9109       812.8588      -376.3303       956.4988       2064.238
      -1289.418      -1467.807       838.5437      -500.4551      -234.7378
       226.1259      -849.1000      -16.22754       482.0964       1042.918
      -14.76123      -1904.273       1172.135       1273.405      -1172.350
       1052.883       702.4077      -922.0425      -273.0234      -375.6407
       66.86621       1306.180       1612.146      -950.9773      -2131.043
       438.5073       1532.090       885.1382      -520.1653      -1615.596
      -231.6567       683.4749       740.2134       766.9983       808.0184
       498.2268      -1135.534      -922.2197      -1168.490      -690.6206
       1544.611       231.9930       136.3684       1483.331      -20.81470
      -373.8830      -119.8608       146.5195       2209.392       1336.512
      -1075.787      -1192.795      -1193.321      -1516.530      -207.8267
      -14.04199      -2148.795      -1299.294       594.5129       1190.662
       523.9285      -248.0205       1573.760       1294.229      -1100.283
      -2124.050      -771.2549       1730.611       881.2871      -1242.848
       81.83887      -103.9180      -1810.591      -854.7314      -593.4819
       1064.737       2009.548      -905.7271      -80.96655       1626.967
      -204.0918      -2305.257      -1342.769       2334.023      -103.1616
      -2659.380      -492.4257      -306.4487       2609.077       2655.562
      -1237.756      -1025.420      -1795.464      -1994.424      -363.1406
       25.04272       1295.429       1112.914      -544.3018      -1650.670
      -953.2893       1151.255      -5.644287      -82.79138       1324.814
      -727.4255      -1196.907       582.3359       1064.620       233.0400
      -1157.951      -1851.595      -1540.655      -347.4318       765.5422
       498.7157       345.7544      -777.0138      -1524.065       1233.561
       1314.404      -1408.633      -28.59998       885.2227      -220.6372
       561.9209      -984.1696      -1512.421       1885.224       1587.861
      -995.5648      -56.23175       682.8503      -491.8168      -226.6416
      -1134.552      -916.3413       1276.530       146.3265       253.1147
       633.7507      -1681.562      -895.2428      -522.2159      -605.1836
       2708.783       1103.549      -1960.937       1416.071       2889.904
       28.12354      -1705.287      -1660.669      -468.1297       709.2793
      -559.5117      -1559.054      -1072.265       1160.135       3332.283
       130.5742      -1350.168      -1383.646      -2254.026       942.3033
       485.0084      -842.7458       1586.883       500.5662      -829.1492
      -136.7100      -1757.129      -716.2612       2942.533       797.4089
      -1442.220       467.9922      -1067.475      -2141.651       1848.316
       1581.531      -1392.330      -331.7581       776.3583       741.7146
      -662.2615      -343.9421       534.8514      -1030.029       58.15845
       121.0229      -1537.291       232.0273       1509.040       940.8459
       226.1357      -1955.517      -2763.405      -1077.096      -2.206299
       932.8987       758.1064      -608.4006      -367.7163      -1069.924
      -1361.419       1066.843       86.21625      -358.2256       330.0842
      -1000.727       1306.314       587.4595      -2031.424       333.1533
       1758.345       643.0349      -880.1404      -463.1812       492.2803
      -864.5605      -3117.612      -2033.763       1979.686       1138.202
       36.82617       1775.180       22.38623      -511.5107      -981.0449
      -2348.561       1339.564       2853.682       113.1919      -1229.251
      -2147.719      -94.51465       1418.764      -730.6264      -526.8442
       727.7551       659.2322      -601.5547      -1013.523      -153.4055
       467.7097       1343.139       1141.700       1387.664       1041.983
      -2060.025      -2679.355      -640.7330      -32.98633       1092.786
       589.1045      -1580.901      -1517.613      -1594.232      -250.4170
       2505.268       2201.179       559.8867      -631.8569      -1376.902
      -33.14160       1302.626       183.3640      -971.2046      -656.1812
       222.7095       1253.006       1476.422       794.3285      -35.49487
      -1185.447      -80.48120       1053.685      -195.4553      -354.1055
       588.2286       732.7139      -1269.296      -1645.925       1431.384
       2291.583       449.1836       879.6174       1111.916      -2213.701
      -1205.931       1998.613      -75.45166       745.9238       2251.636
      -485.8999      -1341.841      -1888.939      -176.2744       3651.987
       1275.800      -1545.712       541.5295       188.9976      -2561.210
      -1232.847       3048.181       1902.060      -2701.012      -1366.415
      -387.9238      -1418.090       2647.973       2770.110      -439.6924
       1603.600       1506.834      -930.5972      -1399.997      -2345.931
      -428.7676       3305.250       1040.346      -2263.809      -880.1453
       940.3540       874.5315       366.1743       1481.771       793.4248
      -1634.001      -840.2712       636.6160       1457.489       587.2563
      -764.4578       1090.823       456.5643       99.24219       1831.889
      -1262.130      -895.2539       2829.970       1396.215       782.3428
      -560.4155      -2072.795      -131.6362      -644.7900       847.1963
       1998.633      -848.9741      -54.06836       1713.134       1235.027
       1360.042       1893.643       139.7207      -1669.586      -912.1439
      -1120.191       200.7090       2877.049       99.95752      -1517.070
       2100.021       1771.675       851.5178       1134.790      -2304.280
      -2089.355      -76.92676       903.0796       3118.114       594.7168
      -1771.329      -337.8213      -33.35278       401.8485       528.1506
       123.5957       588.6069       1669.497       1316.832      -1223.232
      -1165.543      -424.0750      -1004.540       130.7671       476.8961
       126.0955      -241.2936      -424.5889       465.8262       524.3755
       1463.948       1139.997      -1140.959       240.9832       1576.327
      -66.51904       1121.797       702.2925      -1971.484      -935.7974
      -1884.881      -563.2979       1928.090      -2257.029      -889.0010
       2641.185      -328.9211       375.4893       2391.766       1664.333
       1422.161      -880.3984      -1535.285      -1373.512      -3504.884
      -530.4434       1589.714      -957.9024       262.9120      -11.33643
      -1942.842      -364.1626       966.8774       2031.936       675.6914
      -3679.871      -4540.547      -1864.534      -292.5435       633.5381
       2186.992       1255.150      -35.83032       997.9492      -442.1777
      -3588.990      -2878.853       218.5679       1700.497       2577.336
       3566.292       681.6279      -3483.348      -2814.245      -450.0105
       598.5469       1312.459       1652.899       1199.690      -1239.070
      -3502.388      -3172.108      -1084.364       1277.042      -22.91406
      -3053.445      -1853.053       532.8389       2876.948       3930.383
       430.4958      -1076.299      -402.7905      -2586.273      -2684.382
      -1607.492      -300.5625       1330.446      -1836.906      -2344.771
       547.6250       969.4592       918.5854      -913.3197      -935.3846
       76.66943      -1586.901      -844.7844       597.4482       1375.911
       1063.780      -1352.030       396.1528       2246.064       546.4956
      -1985.824      -3102.681       32.48129       224.0049      -471.2588
       3456.262       2861.538       390.0984      -123.5576      -3470.494
      -3590.755      -304.3174      -770.0590       197.4636       1104.522
      -716.3555       2038.446       825.9648      -3748.769       314.0430
       3282.467       2552.382       1039.049      -1643.167      -710.7722
      -1074.462      -1684.980       132.0015      -636.3647      -1039.900
      -486.6309      -1376.375       2001.265       5519.093       1489.005
      -3617.284      -3918.579      -1454.565      -1418.773      -2087.100
      -2845.655      -3950.914      -3314.329      -589.0605       4040.627
       7173.059       11904.45       14042.29       5718.511       1390.808
       2117.945      -5229.621      -11667.32      -10456.21      -7174.279
      -8735.582      -12364.24      -8218.504      -4243.121      -2996.629
       948.3809       3974.260       8211.414       11502.64       10141.34
       6980.337       1392.289      -6006.465      -10645.46      -6938.539
       1146.269       782.7227      -7899.391      -10803.29      -2103.658
       6980.070       4270.428      -451.3008       4824.432       9665.984
       10753.20       11692.21       6810.926       3457.156       7312.742
       13554.08       13210.01       2074.573      -3229.084      -6204.031
      -16168.13      -10474.14       3305.691       1951.079      -1347.584
      -1392.254      -5040.562      -7508.162      -3813.484       3697.311
       5688.370       4757.492       5574.333       4319.937      -1117.938
      -11171.33      -14917.96      -9219.509      -4640.225       3632.152
       9112.161      -1857.687      -6604.924       1754.574       4484.301
       2718.932      -3361.451      -11559.60      -6947.505       3686.622
       3708.552      -2175.508      -4693.549      -713.5762       4831.700
       4898.185      -1491.134      -1106.166       7739.412       8586.838
       4983.520       4784.188       8438.957       8543.361      -942.1270
      -5638.709      -3696.471      -191.2686       1225.842      -3898.058
      -3112.530      -944.5156      -1113.631       3987.604       1313.613
      -4424.188      -4593.313      -3745.883      -552.8954       152.5547
       132.2739      -288.4053      -3993.503      -3028.894      -59.82617
      -2983.147      -559.4639       4193.394      -993.9341      -1048.484
       2165.972       1674.658       3513.759       2242.484       2717.283
       5016.055       2321.855       2266.137       4669.595       3716.542
      -87.33325       123.2524       2356.250      -779.8213      -2143.515
      -3495.510      -5593.845       88.01074       3555.587       1829.824
       2967.722      -1994.404      -8129.003      -266.8472       3461.978
      -2631.303      -4016.324      -7352.418      -11259.77      -6750.083
       1512.916       5742.848       1575.239       2761.742       6408.965
      -741.1724      -2373.572       466.9321       107.1201       2260.600
       3687.254       4250.609       4555.253       3079.681       2936.627
       762.6484      -4811.310      -4517.176       268.3813       3119.306
      -948.0225      -5850.283       883.0312       4508.702      -951.7051
       3399.463       5318.834      -472.9019       2389.765       510.8496
      -6429.396      -1271.256       6299.198       3949.893      -1941.633
      -2038.807       2188.199       3359.968      -677.1523      -3987.160
      -4366.266      -5211.242      -6750.042      -6437.660      -148.5098
       9224.588       7238.529      -2998.932      -3000.113       705.6118
       795.1455       4713.493       4794.668       296.2832       2292.812
       3739.225       426.0171      -993.4297      -3015.124      -3412.826
       3130.560       4170.229       562.4545       577.1980      -556.4688
       2664.715       3381.128       1430.363       604.9927      -2621.429
      -1351.314      -3385.187      -2197.216       5296.952       213.6074
      -5744.342      -3886.753      -3016.507      -429.4355      -380.0605
      -1979.703      -281.3315       1387.024       3953.618       2254.596
      -757.7122       1167.200       1149.056      -2113.832      -2343.923
       2631.903       3242.951       119.7407       2015.329       3837.642
       3622.884       2001.735       204.9482      -1984.295      -4986.000
      -1998.411       1759.425      -56.95496       360.4773       178.8494
      -1702.235       892.3435       1295.253      -4201.593      -5600.280
      -1593.940      -1553.356      -2601.436      -1262.070       797.0742
       2983.348       3987.575       3031.458      -122.8577      -1776.756
      -214.9105       336.7341      -737.2430      -48.97754      -28.78711
      -2985.202      -5652.612      -2124.391       1852.781       248.1865
       1137.030       997.1426      -3448.864      -2901.084      -1438.697
      -598.6797       3559.189       1472.265      -3634.531       1935.975
       5171.257      -1235.729      -1797.566       426.6113       292.9751
       2090.597       306.2305      -3875.195      -3663.975      -1835.729
      -1435.820      -4364.348      -4598.243       1545.230       817.7037
      -953.5806       3492.325       991.9521      -3709.553      -1925.202
       856.7163       1527.875       142.1338       3223.536       7119.305
       1777.846      -1358.485       167.0112      -1425.297      -3212.278
      -2304.898       1017.073      -492.0958      -1247.126       1622.004
       50.94971      -558.7795      -153.3188      -752.9648      -1853.191
      -4099.502      -3931.481      -2084.042       1819.442       3782.915
      -747.5317      -2891.661      -1033.990       703.7988       1020.089
      -4253.363      -6554.523      -722.5747       2239.441       2799.146
       4102.292       2540.746       1519.238       676.7996      -1440.833
      -85.17432       1088.777       2065.643       4053.128       1575.655
      -105.2761       806.6772       1160.602       2372.323      -416.3516
      -4859.418      -2655.917       409.7421       547.6672      -292.3109
      -869.2139       1431.907       2787.096      -1440.058      -6066.207
      -3896.664      -1389.402      -3423.899      -3138.281      -1731.510
      -845.6289       2956.202       2723.790       181.4961       1910.049
       2360.007       956.5771       1868.318       3265.502       1913.540
      -296.9307      -3068.136      -1695.281       3600.560       2551.944
      -384.4744      -121.1072      -600.9009      -1618.432      -1080.662
       1462.677       1511.745      -502.7168       1509.498       2590.209
      -1797.181      -1820.673       1807.217      -561.0344      -1188.045
       2196.225       977.4877      -530.2059      -327.2427       240.6152
       1625.478       552.9001      -463.0371      -2063.209      -3489.849
