     0.02500000      -30324.24       30253.75      -12345.00      -12345.00
      -29.99001       227.9100      -28.64000      -12345.00      -12345.00
       0.000000       21.57000      -12345.00      -12345.00      -12345.00
      -12345.00      -12345.00      -12345.00      -12345.00      -12345.00
      -12345.00      -12345.00      -12345.00      -12345.00      -12345.00
      -12345.00      -12345.00      -12345.00      -12345.00      -12345.00
      -12345.00      -30.16080      -67.83630       1442.000       0.000000
      -31.59500      -68.73200       0.000000       105100.0       0.000000
      -12345.00      -12345.00      -12345.00      -12345.00      -12345.00
      -12345.00      -12345.00      -12345.00      -12345.00      -12345.00
       180.6059       28.53998       208.0825       1.623824      -12345.00
      -12345.00     -0.3586499       0.000000       90.00000      -12345.00
      -12345.00      -12345.00      -12345.00      -12345.00      -12345.00
      -12345.00      -12345.00      -12345.00      -12345.00      -12345.00
      2008        13        10        50        56
        40         6    -12345    -12345     10317
    -12345    -12345    -12345    -12345    -12345
         1         7        13    -12345    -12345
    -12345    -12345    -12345    -12345    -12345
    -12345    -12345    -12345    -12345    -12345
    -12345    -12345    -12345    -12345    -12345
         1         1         1         1         1
LUNA    -12345          
        -12345  -12345  
-12345  -12345  -12345  
-12345  -12345  -12345  
-12345  -12345  -12345  
-12345  -12345  -12345  
-12345  -12345  BHN     
ZL      -12345  -12345  
[...]
       649.0398       1558.018       668.6771      -74.06702      -267.7261
      -1231.095       287.9778       817.2585      -1477.995      -857.6187
       25.76044      -482.0555       176.4932      -1234.397      -1434.779
       1879.707      -145.9844      -2825.845      -583.6420       142.0074
      -32.65430       105.5417      -503.5024      -129.6274      -711.7627
      -2543.381      -1431.119       2057.650       2040.026      -1616.067
      -1796.457       1699.663       879.3652      -3406.053      -418.9263
       2733.916      -2459.163      -3113.192       1366.183       1123.772
      -848.0947       286.1887       1522.506       156.3086      -1797.021
      -1490.453       620.2593       186.6143      -732.2756      -408.1304
      -702.3174      -906.0793      -1399.698       32.97290       1722.447
      -1015.272      -1371.329       2255.173       1080.326      -2534.519
      -1246.290       139.2865      -439.8174       1119.953       954.1065
      -160.3458       144.7407      -551.0530      -1062.695       899.8812
       1149.276      -1432.333      -1866.197      -176.5599       120.7245
      -676.8892       671.9460       1278.207       572.2364      -121.8574
       293.5107       1706.386      -58.47363      -2337.380      -1074.719
       563.2355       459.0049       713.2350       109.6812      -314.2798
       1045.716       834.7997       224.0970       251.7196       605.9733
       526.3276      -1225.139      -1237.851       105.8910       349.4748
       92.78760       354.2104       942.4191      -11.63208      -755.3111
       276.7034      -451.6077      -1238.933       850.4800       2561.668
       1694.318      -1067.907      -318.4814       1197.016      -2233.713
      -780.7075       2796.280       19.78271      -591.2280       1040.333
       1645.557       762.7168      -1510.487      -859.7720       676.3638
       270.8593      -286.5198       508.6484       1725.492       999.5765
      -287.8932      -228.7407      -650.3164      -1188.840      -136.3306
       2117.536       1328.480      -1094.150      -485.6851      -191.3295
      -882.3881      -151.6132      -354.4629       626.3381       1877.409
      -465.9794      -706.7878       45.05859       1573.260       2428.465
      -803.9467      -730.3936       2231.358       1624.001       318.0999
       234.1716      -1170.084      -1258.365      -148.2441       1446.788
       1550.177      -652.2964      -1215.524      -1133.567      -1202.595
       384.1724       1905.142       958.1860       638.5508      -288.9604
      -2096.625       276.2886       942.9275      -1883.944       163.7002
       1856.505      -883.6584      -155.4131       2001.547       466.0167
      -581.0371       792.9065       1617.200      -220.8522      -1383.102
       1264.200       923.1995      -1148.578      -182.7578      -930.9458
      -1226.228       636.9103       3.984741      -532.6570       497.3913
       317.9342      -423.7917      -29.89941       570.2404       453.3081
       481.0284      -619.8099      -493.5310       757.6998       305.9070
       44.61316       263.4617       290.9075      -145.4531      -544.1985
       759.4275       807.7081      -323.6559       522.1165       454.3525
       530.3682       1163.200      -588.8315      -1592.023       444.0685
       891.6519      -1135.071      -979.3578      -97.94275       283.3751
       673.4230      -598.4103      -637.7085       1802.739       1495.431
      -1105.514      -739.9942      -210.6541      -470.3522      -21.47998
      -610.4949       654.4658       2134.618       997.6304      -28.24402
       96.41455       1314.925      -265.2939      -2370.788       554.4457
       1134.330      -980.2784      -65.51764       616.9858      -726.8530
      -1876.473      -360.0955       1802.025      -235.2028      -1595.796
       1855.216       1357.112      -1107.612       277.7632       744.3843
       18.35425       24.58838       609.1982       1273.709       817.7300
      -1867.021      -2461.700       951.0376       1382.119      -963.6008
      -130.9668       1092.171       396.5293       973.0076       1062.196
      -512.2594      -924.9698       290.0522      -60.83887      -1303.287
       296.7031       161.3435      -1046.374       693.7539       197.3176
      -80.85779       1146.096      -450.6190      -359.0396       1605.571
       850.9709      -1058.818      -1239.873       446.6240       677.6713
      -623.9812      -108.5089       150.2173      -945.1038      -277.4768
       1059.013       201.9905      -435.8784       86.89258      -725.3093
      -1223.398       79.99902       388.8188      -282.8130      -650.7799
      -664.7340      -435.8611       130.0298       1458.336       197.8173
      -799.5345       1049.960      -160.6240      -2517.414      -614.2487
       603.4463      -963.5845      -941.3322      -360.7026      -602.6597
      -1105.755      -287.2896       776.1300      -162.5547      -1462.648
      -1269.007       433.5933       1200.413      -681.9800      -2000.244
      -446.9935       679.2487       489.0415      -354.4399      -1217.802
      -851.2072       345.5002       1318.985      -407.2017      -2395.352
      -1321.847      -912.0643      -986.6906       195.2236       103.6765
       603.0831       1330.966      -744.1914      -1369.268       174.2294
      -333.1951      -154.7854       1256.118      -677.8579      -1800.962
       5.453125      -1617.269      -1890.723       556.6948      -862.2946
      -321.2034       1385.864      -677.7759      -782.8945      -384.9424
      -2372.480      -1177.424       1822.656       785.9541      -1496.067
      -625.9146       711.1199       87.65137       287.2421       935.0361
      -1240.255      -1894.286       434.8027       564.8937      -304.3159
      -333.1744      -90.64816      -194.5199     -0.5908203       889.9370
       857.8659      -71.26801      -78.95483       730.7401       195.8000
      -1001.722      -382.4067       481.5581      -633.7118      -578.2008
       116.5534       151.6880      -118.5576      -1296.854       286.7759
       2362.794       700.3032      -546.9468      -395.4310      -619.3438
       363.7710       1443.883       924.5468      -9.633545      -720.8850
      -642.2693       370.8425       1022.745       842.2746       441.9553
      -223.8842      -775.7896       776.5671       1087.763      -707.3104
      -58.91919       993.4075      -879.1071      -702.6406       2305.238
       751.8127      -1633.965      -222.0454      -628.0786      -1439.321
       1601.957       2412.979      -237.9248      -452.9031       278.5919
       494.6541      -375.9180      -1362.529       1064.599       1137.067
      -1492.871      -751.7750       26.88477       945.9556       2346.183
       538.4047      -685.0082       815.6428       246.1619      -697.2252
       952.4072       137.9880      -1667.861       123.9615       1233.774
      -575.2866      -1385.201       303.6260       937.6263       206.8309
      -190.0642       484.8858       883.6161      -895.9161      -244.9360
       1471.149       648.4143       280.9666       507.4056       703.2455
      -346.0012      -1066.220       766.8271       1019.088      -151.7298
      -117.4401      -542.1642       357.1494       524.7672      -208.8090
       902.4756      -99.99194      -1088.414      -24.95581       616.5457
       276.4038       230.2036       1304.094       987.2962      -91.23938
      -608.7392       3.211914       1136.646       743.9628      -609.3402
      -754.0704       1248.953       13.74219      -1411.685       993.4249
       509.9109      -534.5751       48.92395      -147.7610      -1100.999
      -1805.343      -425.5942       793.0850       1535.609       1984.275
       1577.180       918.4432      -134.6133       542.2114      -232.3262
      -1787.784       795.5640       1962.040       567.7335       33.76807
      -1063.602      -784.5542      -678.2875      -1413.246       778.8984
       1892.832      -180.7218      -627.5781       619.3027       1644.138
       1529.614       383.7346      -214.2483      -661.1807      -504.8481
      -14.56519       107.7876       885.3694       1080.533      -755.8613
      -2476.341      -1553.068       360.9039       785.9634       326.6543
       1761.112       2970.865      -48.53137      -1451.299       908.4822
      -57.15332      -1375.752       66.20264      -287.5740      -1039.962
       760.7339       1542.408      -1396.320      -2337.988       668.8365
       310.6138      -1979.435       535.2266       3074.302       1123.458
      -989.6708      -297.4602      -416.8545      -2039.870      -344.2966
       564.8752      -1174.579       219.9329       399.2334      -1864.815
      -911.5518      -44.41431      -929.4667      -972.3093       246.3091
       1767.177       1115.055      -737.8772      -826.0554      -206.3560
       1095.319       1552.420      -442.5518      -1091.235      -1630.454
      -2803.609      -497.6187       1468.791      -366.0469      -574.0315
       1163.798       596.5536      -1074.545      -202.8521       2464.240
       1403.868      -613.5371      -488.8032      -1035.062      -1531.982
      -451.6877       1193.922      -172.5469      -2873.522      -1161.476
       1676.703       1384.413      -45.22754      -826.3301      -1220.961
      -736.9785       575.5457       1139.867       944.2383      -540.0457
      -1703.943      -316.7993      -1069.040      -2323.211       346.9045
       1922.874       156.1033      -1121.490       1118.308       3014.715
       915.1094      -768.7994      -380.8816      -598.1093      -39.57715
       838.4673      -1235.391      -1248.548       176.2833      -239.0718
       954.6414       1509.257      -113.1242      -291.1201       293.2156
       211.3953      -406.9363      -346.7607       1462.732       1985.049
       450.1886      -538.5420      -227.6400      -126.8970      -702.7078
       205.2290       716.6832      -428.5211      -480.7888      -215.5840
      -155.0427      -12.19409      -509.5335       226.5557       781.0168
       641.8020       1126.490      -237.3208      -1576.950      -884.9222
      -438.5792      -199.8172      -83.03799      -232.2122       28.68188
       783.8306       250.3659      -637.4214       499.1890       1772.145
       1245.467       817.6160      -431.8931      -1722.309      -268.4497
       267.3794      -131.6587       1308.630       305.2290      -2381.517
      -1458.910       325.3325      -636.4346      -799.3677       1512.101
       1448.514      -340.9705      -308.4165      -44.30396       1465.221
       885.9712      -1466.893      -129.1312       309.9082      -1762.161
      -1512.736       464.3312       282.4590      -1396.824      -298.2927
       1310.050       518.2041       365.5854       1623.338       855.0500
      -1342.691      -1173.517       191.0537      -103.9849      -1291.376
       552.0591       2492.709      -269.2966      -1208.973      -82.42725
      -1329.060      -1287.232       508.4868       1056.714       1839.935
       644.3408      -2619.843      -2215.052      -605.2889       246.2432
       1197.673       82.57422       1504.491       2881.806      -863.2778
      -2574.427      -942.0881      -1424.450      -648.0552       1836.257
       803.2399      -36.25415      -784.2124      -1344.619       3356.928
       3649.442      -1261.598      -1362.516      -1145.374      -2386.276
      -1719.041      -57.76416       1528.009       189.8003      -326.8868
       686.3874      -70.51172       482.4404       810.2751       481.5925
       1162.907      -40.51477      -1171.969       513.0577       1300.369
      -1043.367      -2992.820      -1084.972       1416.419      -90.63428
      -1176.538       304.2489       757.1357      -1271.642      -1268.126
       2360.388       2631.753       845.7676       1837.020       1246.602
      -2052.006      -2867.090      -1220.056      -560.5490      -261.9099
      -623.6513      -140.9952       383.6199      -309.1068      -27.24512
       513.0879       1187.626       613.4047      -294.8583       384.0732
       69.21680      -514.5271       59.22327      -477.2959      -699.8824
       269.3298      -978.4321      -1692.469      -1557.572      -4784.611
      -8579.967      -6553.146      -928.4824       2093.586       6672.203
       13699.53       12592.66       9509.367       12130.13       7368.426
      -3614.473      -6259.549       409.4570       6170.180       5593.441
       6026.029       9135.209       10795.66       10411.93       6506.946
       488.4136      -824.4805       4860.633       12123.55       12426.73
      -1042.320      -21994.41      -30324.24      -20395.48      -8924.441
      -8867.070      -14683.97      -14208.47      -11622.91      -17793.29
      -23936.31      -16963.18      -2081.410       9992.309       18427.57
       17192.95       5902.451       3408.528       1430.668      -10686.06
      -4578.404       9814.353       2021.910       2941.340       20957.34
       14229.73      -6113.402      -2386.086       13018.22       8184.431
      -4969.850      -1056.702       4300.160      -3189.230      -10649.27
      -9884.734       3496.852       13726.16       15.87109      -11977.70
      -6196.511      -817.3323       348.8242      -1529.332      -9345.039
      -18808.58      -13082.56       11651.19       30253.75       27099.64
       8473.824      -8228.467      -5199.595       2409.274       1014.253
       1396.508      -5133.121      -9048.574       10371.67       24781.63
       12541.01      -3985.283      -8445.404      -7543.755      -3701.986
       2572.837       1847.750      -5350.832      -7534.678      -3745.156
       1148.326       2297.911       1596.216       2273.156       1994.846
      -205.6191      -5478.416      -7510.287      -7476.078      -8838.682
      -1883.253       2.429688      -8760.764      -5387.873       3661.012
       9936.289       13973.64       5265.930      -6680.955      -8431.435
      -1021.819       756.1580      -2287.043       3606.019       2281.177
      -7459.058      -72.27930       10349.98       2371.327      -2156.042
       3200.523       8580.270       12628.50       566.0312      -15280.94
      -12552.24      -4221.994       2002.467       9545.958       6482.551
      -1650.819       335.7090      -1564.184      -12183.37      -9595.209
       667.4424       3390.932       7866.441       3993.044      -3656.512
       5804.317       5593.340      -12224.34      -7552.971       13681.82
       11122.22      -541.7827      -2166.703      -1445.112       1728.443
      -4089.090      -13414.60      -9961.912      -838.8633       7075.414
       12652.31       8473.947      -4033.102      -4907.614       439.7764
       2029.239       2502.532      -1898.637      -2030.035      -2366.703
      -2435.807       4637.324       992.2021      -4881.635      -588.7900
       3144.338       6526.019       7210.510      -2226.390      -6473.138
       2726.990       2608.836      -9745.594      -12559.16      -8330.729
      -3903.850       4412.669       6135.291      -382.6279      -2365.709
       3149.471       6084.155       288.7207       1626.580       9281.010
       1734.589      -7535.083       1783.197       8347.359       2671.357
       3392.952       2725.591      -2927.814      -885.3633      -2346.193
      -5654.163      -440.4180      -2957.688      -13422.47      -11211.08
       991.4004       5730.304       3232.113       1704.067       689.9888
      -269.8003      -2041.736      -647.0813       1335.747       709.1680
       7117.523       9941.742      -2539.828      -12963.62      -8610.375
      -706.9845      -989.0977       1033.051       7703.648       4637.833
      -5298.873      -8813.678      -1432.363       4602.018       4340.588
       7848.164       5901.096      -1795.727      -5994.307      -10806.61
      -10523.17      -2093.265       5134.387       5403.354       787.0693
      -830.7188       2834.182       6926.874       2451.360      -6304.559
       872.9922       13146.54       7233.035      -236.6552       838.5029
      -2527.119      -7253.848      -7190.387      -3743.270       941.8057
       2891.225      -111.9229      -1923.408       2390.094       8505.919
       6761.282      -2100.186      -3415.611      -3193.762      -8043.141
      -6972.910      -4476.558      -2532.467       3977.986       7081.529
       8182.543       5042.891      -2800.588      -1246.854       3524.629
       661.1021      -1616.339       2564.159       3490.060      -750.9250
       2101.125      -1298.656      -14600.03      -9632.165       4336.384
       3836.667       1246.076       2321.384      -1018.671      -3069.204
      -2300.750      -2401.928      -3326.047      -2224.955       103.5002
      -622.8867      -2819.519      -6231.475      -3927.891       4781.670
       8963.453       4447.007      -1302.365      -754.7793       862.7031
       1550.211       2681.099      -707.0532      -2917.899       1017.296
       2980.278       2175.297       391.9519      -1232.254       1865.993
       1502.965      -6204.268      -6661.648       1163.441       2894.766
      -916.0083       189.2559      -460.5371      -7474.586      -8995.365
      -3450.058       4737.626       4314.855      -2010.202       2720.982
       6633.207      -1838.600      -5935.185       1887.184       2577.481
      -1946.006       2388.978       1858.243      -5338.854      -3891.526
       2965.343       4484.731       2614.424       1711.087       4513.254
       4784.822      -1555.760      -867.6733       2994.371       1200.875
       2083.009       733.7576      -1814.651      -993.0654      -5350.916
      -4828.673       2501.591       2578.589      -844.7979      -1925.329
      -645.0615       1411.229      -584.4512      -6273.094      -7791.305
      -1589.586       4018.292       1160.839      -1754.403      -575.1865
      -2152.426      -547.1797       5389.250       5054.474       973.3013
      -852.9595      -113.4878       965.1548       565.2661       1724.191
       3449.808       2539.965      -542.9030      -1612.033       1524.750
