     0.02500000      -32022.79       27311.27      -12345.00      -12345.00
      -29.99999       224.8750      -25.45000      -12345.00      -12345.00
       0.000000       18.95000      -12345.00      -12345.00      -12345.00
      -12345.00      -12345.00      -12345.00      -12345.00      -12345.00
      -12345.00      -12345.00      -12345.00      -12345.00      -12345.00
      -12345.00      -12345.00      -12345.00      -12345.00      -12345.00
      -12345.00      -30.68660      -67.50870       990.0000       0.000000
      -31.59500      -68.73200       0.000000       105100.0       0.000000
      -12345.00      -12345.00      -12345.00      -12345.00      -12345.00
      -12345.00      -12345.00      -12345.00      -12345.00      -12345.00
       154.1182       49.51098       228.8814       1.385695      -12345.00
      -12345.00     0.02377622       0.000000       90.00000      -12345.00
      -12345.00      -12345.00      -12345.00      -12345.00      -12345.00
      -12345.00      -12345.00      -12345.00      -12345.00      -12345.00
      2008        13        10        50        52
       850         6    -12345    -12345     10196
    -12345    -12345    -12345    -12345    -12345
         1         7        13    -12345    -12345
    -12345    -12345    -12345    -12345    -12345
    -12345    -12345    -12345    -12345    -12345
    -12345    -12345    -12345    -12345    -12345
         1         1         1         1         1
MAJA    -12345          
        -12345  -12345  
-12345  -12345  -12345  
-12345  -12345  -12345  
-12345  -12345  -12345  
-12345  -12345  -12345  
-12345  -12345  BHN     
ZL      -12345  -12345  
[...]
      -40.07616      -22.18173      -53.89394      -29.97572      -57.73737
      -38.98965      -70.08951      -45.02145      -74.85442      -54.16508
      -81.43213      -58.28911      -89.43158      -64.94345      -91.11142
      -65.80685      -98.81462      -74.34091      -100.9814      -77.21890
      -106.9366      -77.40155      -107.1107      -81.46747      -105.8761
      -76.45975      -105.6984      -77.59940      -105.7113      -72.22772
      -98.79483      -69.10471      -92.62183      -62.04784      -91.27802
      -57.98125      -82.45444      -50.31516      -75.40152      -42.86829
      -71.07257      -50.50360      -107.4587      -139.9902      -246.3101
      -183.8350      -266.4590       1.480164       432.7150       50.48332
      -56.65985       199.3591      -103.2051       172.7934       122.1687
      -233.1479      -87.10077      -294.4807      -1.278687       801.8698
      -350.9706      -435.8169      -358.2290      -643.9647       476.7578
       446.9429       348.0201       238.0402      -263.4338       157.6482
       541.5004       777.8702      0.1583252      -280.8112       83.06470
      -464.0433      -339.3381       162.8398       6.326172      -497.6151
      -489.1328       1310.162       719.6719       187.0781       1056.501
      -72.83899      -51.57080      -72.82031      -1226.761      -440.4410
       217.3176       839.5771       794.1614      -408.3209      -97.69104
      -483.7693      -694.6779       780.3081      -225.7222      -604.2869
       782.4768      -202.2891      -714.9211       1568.019       996.3418
      -397.2952      -487.6609      -677.0320       483.3401      -28.62354
      -1002.429      -185.4202       614.9824       968.4385       241.8299
       312.1261      -93.18579       292.0279       222.1517      -421.1309
       950.6914      -50.05347      -1289.122      -516.1619       589.1160
       1385.329      -203.8967       65.41162      -349.7910      -2768.995
       309.4697       2391.815       460.8462       287.1267      -1226.515
      -1350.111       1279.598       2216.676      -426.0698      -2659.718
      -544.5713       2131.674       1633.905      -2621.838      -2265.922
       2225.448      -103.9304       564.2769       1516.981      -2272.860
      -269.8174       2440.070       290.5127      -1230.914      -350.1519
      -175.7271       547.0773       1241.461      -1262.897      -1973.482
      -290.6523       974.1909       2761.680       284.9746      -2178.621
      -547.6533       15.82922       750.5413      -42.27539      -1784.742
      -1034.457       1793.313       1259.891      -183.6930      -67.20459
      -1654.922      -784.2134       1917.436       924.5291      -1180.750
      -1044.808       650.2615       1324.003       245.9231       289.6971
      -139.7324      -1230.285      -90.73880      -437.8353       564.0924
       803.5190      -371.3958       1898.197      -246.8545      -3284.479
       319.8452       2342.788      -855.0967      -2116.126       278.7208
       989.9457      -196.0691       734.9644       1791.540      -1040.652
      -733.9934      -806.1423      -1755.109       655.7250       24.83984
       597.2578       1391.898      -878.4536       557.1804       919.0349
      -967.8107      -326.0742      -605.9631      -1314.408       116.0144
       1090.782       1297.000       158.1073       121.6512       65.19043
      -697.6768       218.5604      -227.5265      -455.2362      -731.5920
      -357.1732       673.6106       634.6558       2142.950       473.9746
      -1274.474       309.8239       148.5872      -1227.845      -1006.208
       992.8906       1157.064      -680.0596      -561.7013       971.0521
       568.2576      -326.3408      -455.6973      -1436.555       556.2192
       2089.110      -21.49292      -545.8303      -146.4606       12.56567
       1516.990       274.5486      -1868.336      -566.1815       1087.121
      -241.8152      -432.0768       611.1774       64.69629       1556.460
       1957.674      -1131.230      -1545.771      -364.0085      -563.3827
      -213.8916       506.0712       623.6018       470.0656       431.5613
       1005.115       333.3868      -765.5969      -275.7781       454.3770
      -995.3794      -1790.337       910.3062       1421.077       263.2814
       352.1642      -758.1497       144.1567       1343.626      -489.2205
      -799.5729       651.1499      -106.9785      -506.5120      -187.6520
       293.6765      -221.0955       279.3722       996.3965      -927.1437
      -50.99585      -515.1401      -1261.833       497.7085      -256.2295
      -580.3317      -555.6061       220.0212       390.6366      -713.2684
      -424.3689       214.1020      -269.6407      -443.9775       1625.118
       248.3184      -2953.843      -708.8711       2105.739       1117.004
      -781.7612      -1167.341      -99.76501       427.7351      -74.12256
      -1125.244      -1686.395       678.7451       2171.306       69.51099
      -1943.234       912.3765       745.8760      -2364.484      -789.4078
       622.6685      -900.3735      -1402.697       428.5989       1136.462
      -216.4569      -1008.986       17.58350      -415.5178      -1270.112
       145.5021      -319.8909      -387.6415       559.1562       72.84149
       555.1938      -631.5684      -2184.415       195.4958       1615.354
       612.5835      -369.9751      -1249.934      -466.5462       762.7988
      -671.9670      -1158.865      -193.1921      -852.3991      -398.5530
       1348.552       1129.513       159.7969      -275.0757      -661.2257
      -384.8585       446.9371       232.3357       745.0545       279.8740
      -185.0828       516.0128      -53.91016      -843.3984      -1735.082
       588.5563       1476.605      -1695.590       426.5159       1656.533
      -327.1345       228.6007      -369.6146      -302.9004       702.3730
       1396.768       2367.199      -52.53320      -2142.756       163.3716
       1508.745      -814.2263      -871.8950      -560.5941      -910.0657
       81.21484       1084.071       1871.667       788.6587       1135.535
       268.8054      -1087.518       1890.091       821.2944      -2418.466
      -914.0944       877.2354       110.8789       1047.563       954.2296
      -1226.907       1125.626       1954.850      -444.1172       1489.795
       570.2876      -2172.137       776.0618       2045.917      -673.6133
      -1069.712      -886.3942      -384.6906       623.1779      -410.2693
       529.2793       1905.336       974.2249      -55.30646      -265.6765
       998.6697       1185.685      -467.4600      -1668.515      -752.9954
      -111.1770      -249.2729       914.1079       181.4475      -986.0010
       1066.093       1.134399      -1694.567       1440.089       1098.917
      -1450.224       279.5342       954.1321       122.3906      -908.7642
      -922.2920       881.9346       1519.893      -145.7477      -1112.777
       302.2319       530.3486      -1582.867      -2928.213       1049.581
       2884.319      -41.21710       339.1719      -967.3672      -473.3276
       2211.888      -624.2344      -1400.839      -311.0387      -1360.224
       842.1714       1615.126      -399.5356      -699.5303      -1710.627
      -2048.283       1030.484       2392.875      -536.7455      -1147.705
       1022.202       1624.042       494.0190      -1954.698      -1620.739
       267.3239       1097.891      -1027.237      -2350.489       546.7977
      -170.3732      -1269.462       976.4624       1256.008       2348.828
       729.7393      -2822.298      -1595.922      -277.6294       225.3271
       416.9839      -1544.418      -1640.232       849.5892       1107.755
      -599.5378       167.7611       471.6013      -1072.374       1203.618
       3465.407       229.9102      -2770.652      -184.2903       1009.101
      -3378.294      -1202.524       3059.042      -43.03345      -1786.734
       291.4734       417.3289       1064.647       1462.960      -1394.374
      -1092.342       398.7805       441.3965       629.1167       3.710449
      -1188.053      -317.9639       1627.394      -916.3901      -998.9277
       1135.054      -1323.699       253.8599       3334.218      -2385.279
      -3848.405       2249.417       3177.379       490.5857       1065.683
      -422.8511      -2734.185       930.6261       1599.600      -1639.937
      -788.9106       1615.905       230.2628      -283.2188       2175.424
      -569.4385      -3316.262       935.9448       2534.609       1111.067
       1080.729      -1600.032      -1391.446       1147.661       950.3624
       682.2812      -1479.717      -2193.958       2166.778       797.8406
      -1173.714       2303.436       1454.697      -1993.824      -407.4822
       400.8345      -1960.077       387.1578       1092.621      -1966.284
       606.8311       3359.694      -687.3727      -1415.582       1094.606
      -580.6927      -170.8384       1949.882       379.1855      -2569.341
       927.7606       1855.111      -1760.650       43.60083      -357.8701
      -308.1264       576.9931      -424.3746       684.8713       62.42563
      -302.6510       195.9076       150.1482       868.8162       1102.224
      -804.6965      -1358.649      -273.9595      -47.88965       2067.705
       1484.637      -3957.217      -2673.348       2779.560       1980.130
      -603.9681      -795.6080       192.5934      -185.1946      -1091.103
       1190.279       225.8467      -1697.029       584.9631       35.79553
       344.2886       1094.573      -2515.596      -1499.644       1174.683
       752.8120      -701.7798      -1889.409      -41.48193       2216.573
       1896.355      -1249.702      -639.8657       2541.350      -1123.040
      -2520.947       724.2891      -1449.864      -2664.516       606.2168
       2569.259       1261.116      -2730.958      -1865.390       1471.505
       1199.612      -348.8173       359.5728       551.1011      -1244.368
      -471.4276      -629.1901      -425.1926      -350.0280      -967.3673
       415.2080       111.6377       594.7578       1022.827       365.0238
       74.40918      -1996.712      -1704.562       2224.699       161.5205
      -2533.926      -145.6631       579.0736      -479.7544       589.9741
       1938.413       118.7925      -1746.939      -832.5127       1344.235
       498.5020      -3494.453      -2752.682       3815.346       2222.516
      -3527.293      -1509.365       709.5225       2254.817       608.1328
      -2427.472      -643.0337       849.7832       1353.268      -183.3721
      -2097.192      -1579.315       266.7002       3579.772       1696.124
      -1554.504      -285.9116       973.8940      -491.7297      -1697.106
      -42.58398       1383.130       3027.309       972.6172      -1329.212
      -1118.835      -3514.844      -958.9570       2338.435      -203.0386
      -153.1069       3106.561       1255.561      -2097.699      -262.2184
       529.5908      -1520.060      -459.3782       95.02588      -955.6704
       667.5068       1089.770      -1345.295       118.2734       1324.064
      -2547.378      -1530.610       2024.780       1750.342       1524.061
      -956.8120      -2183.695       30.85986       1246.667       876.5724
      -4.016357       952.2228       470.4067      -2204.604      -919.3428
       2190.060       1179.211      -1649.000      -1314.999       725.7184
       639.3157       91.13184       1284.923       1231.520      -433.0361
      -143.8654       115.0222      -1526.734       60.34717       872.3455
       812.9460       706.1431      -1060.926       1348.658       795.3229
      -1200.062      -51.36719      -484.4177      -1078.449      -795.4414
       2221.391       2474.925      -1018.720       1042.752       2531.626
      -1754.608      -2516.056       752.5669       1375.724      -158.2030
       234.7886      -607.2397      -1789.267       315.9097       2574.642
       2236.158      -752.2097      -1516.057       3250.088       3351.301
      -3248.237      -3274.218      -373.4150      -702.9824      -959.5210
      -2638.903      -874.4321      -131.3047      -5088.987      -3528.571
       3635.594       7669.379       6599.740       5159.508       8737.322
       8298.354       539.3750      -6098.506      -7237.753      -3775.540
      -1624.965      -4404.168      -2226.953       11159.55       14298.64
       3025.265       862.9043       4264.158       2857.086       3287.954
       3351.035      -9066.469      -21382.30      -8902.867       9480.691
       7932.329       859.7188       11198.68       19678.77      -6295.383
      -30730.62      -12454.38       13852.55       15779.97       12048.74
       10203.33      -2240.141      -23184.31      -32022.79      -12914.54
       8654.119       9030.008       11147.57       17507.00       5079.270
      -15357.06      -19618.71      -13462.37      -5576.332       8316.656
       15710.89       1454.859      -18266.63      -11958.16       2461.449
       4145.164       9011.238       12140.63       1313.174      -6200.004
      -5958.746      -14127.53      -5474.496       18489.71       16096.37
      -6013.156      -14754.91       2928.543       17468.51       1911.113
      -23026.13      -16214.55       16820.51       22604.29      -3482.680
      -19435.67      -8906.012       9955.480       15157.62      -6965.195
      -28550.05      -8660.859       23108.96       25681.02       5410.035
      -14903.27      -16160.39      -7211.514       4674.588       14526.16
      -3841.090      -12882.61       16609.23       23207.44       963.1602
      -15875.03      -16531.29       1983.062       9862.953      -4826.219
      -17068.96      -1910.469       22911.79       19332.89      -5439.316
      -20987.52      -14460.25       8238.824       16381.57      -6333.023
      -24056.52      -9998.109       17932.11       24738.45      -5416.230
      -26924.99       4055.312       27311.27      -1926.752      -16736.62
       4610.699       3643.550      -9875.982       2672.290       8193.246
      -7791.070      -15187.42      -588.3555       15456.10       9874.090
       1833.547      -407.3564      -1698.933      -941.0643      -750.5215
      -99.04297      -6375.784      -4362.021       5825.102       4766.991
       818.9336      -4418.233      -7228.053       6331.531       20418.50
       3355.391      -17719.34      -7610.646       10252.66       5574.730
      -16134.01      -12803.03       2938.894      -2836.047      -4066.352
       6534.346       227.3965      -6363.451       9200.086       14506.08
       3928.824      -223.2559      -2694.456      -3727.172       4534.841
       46.98047      -6517.437       4440.811       3551.599       206.1689
      -2636.001      -5764.520       1794.018      -4110.646      -3976.395
       11910.46       2618.326      -10423.20       4356.445       9693.834
       2707.090      -5778.783      -12112.93       728.3262       7622.122
       148.5320      -1269.816      -901.2852      -4526.963       3651.352
       10997.40       5305.480      -4026.354      -3619.877       2965.031
      -4945.502      -10504.10      -6576.576       2660.310       5316.282
      -2158.164      -1935.827      -851.2334      -195.1016       5094.762
       9551.041       4883.623      -6466.274      -3725.871       8572.410
       5133.316      -5400.832      -2780.301       5236.894      -3501.443
      -9152.027       5957.718       5618.371      -9332.078      -8836.953
       3056.553       5304.706       4321.037       5474.755      -4900.340
      -4590.568       3413.258      -5949.988      -6002.708       6673.261
       3846.936      -3056.892      -3696.568       2408.366       3784.716
      -1863.607       7247.469       6658.842      -4249.324      -1979.453
      -2893.525      -1682.465       3492.692      -3737.314      -8666.339
       2027.830       11962.05       8377.812      -954.7754      -4191.650
      -5374.535       1370.699       6666.172      -6377.721      -10937.08
      -1311.727       8074.055       6870.977       390.0977      -1543.107
      -5801.062      -1778.225       2546.266       801.6504       6340.342
       4940.969      -9870.033      -10229.04       3666.124       5743.993
      -728.1558      -3972.348       3673.842       10541.48      -1669.828
      -12742.56      -267.6094       12852.36       3610.236      -8911.812
      -6213.138       4666.921       1624.004      -5380.213       5652.539
       7729.826      -6356.388      -8009.793       830.9136       3148.176
       978.2935       1449.956       2918.356      -1421.508      -9445.277
      -10501.29       2356.736       9917.963      -2203.490       25.14844
       9656.885       1609.525      -999.4504       1262.590      -4459.705
      -9519.744      -3185.395       8824.114       7269.009       1674.911
       2652.502      -2688.986      -8594.931      -2219.529       8839.750
       5889.072      -4158.529      -2093.880       3352.406      -2568.270
      -9086.472      -2548.049       4513.805       3001.802      -146.3110
       525.8362      -366.0146      -256.1582       5099.290       1190.378
      -3418.013       385.6055       3109.299       3247.535       938.0459
      -4733.199      -5100.181       5635.562       8021.063      -966.3110
      -2848.996       4676.087       1936.104      -5884.193      -1250.649
      -499.7773      -4140.506       2450.271      -1794.308      -10429.44
       4712.688       11269.13      -1090.484      -4125.992      -844.4126
      -894.3105       1669.814       1961.479      -6377.149      -7525.132
       2613.551       7193.502       2862.750       2737.073       2869.997
      -1297.950       46.42285       3124.357      -1478.137      -5253.317
      -1923.280       213.0327      -1023.864      -93.23926       2429.112
       1277.372       848.8903       786.0735      -1307.323       1097.724
       2812.841      -5169.566      -8665.345      -1478.200       4339.000
       5107.244       2097.228       211.1982       58.25085      -398.2084
      -692.9150       1800.781       1497.208      -1678.833       34.97754
      -1495.965      -5375.477       199.2349       3422.525      -4456.671
