     0.02500000      -34791.26       30644.73      -12345.00      -12345.00
      -29.99999       224.8750      -25.45000      -12345.00      -12345.00
       0.000000       18.95000      -12345.00      -12345.00      -12345.00
      -12345.00      -12345.00      -12345.00      -12345.00      -12345.00
      -12345.00      -12345.00      -12345.00      -12345.00      -12345.00
      -12345.00      -12345.00      -12345.00      -12345.00      -12345.00
      -12345.00      -30.68660      -67.50870       990.0000       0.000000
      -31.59500      -68.73200       0.000000       105100.0       0.000000
      -12345.00      -12345.00      -12345.00      -12345.00      -12345.00
      -12345.00      -12345.00      -12345.00      -12345.00      -12345.00
       154.1182       49.51098       228.8814       1.385695      -12345.00
      -12345.00     -0.1200128       90.00000       90.00000      -12345.00
      -12345.00      -12345.00      -12345.00      -12345.00      -12345.00
      -12345.00      -12345.00      -12345.00      -12345.00      -12345.00
      2008        13        10        50        52
       850         6    -12345    -12345     10196
    -12345    -12345    -12345    -12345    -12345
         1         7        13    -12345    -12345
    -12345    -12345    -12345    -12345    -12345
    -12345    -12345    -12345    -12345    -12345
    -12345    -12345    -12345    -12345    -12345
         1         1         1         1         1
MAJA    -12345          
        -12345  -12345  
-12345  -12345  -12345  
-12345  -12345  -12345  
-12345  -12345  -12345  
-12345  -12345  -12345  
-12345  -12345  BHE     
ZL      -12345  -12345  
[...]
       147.2448       143.8481       146.1685       143.9664       148.7102
       141.6069       144.2956       138.1647       140.7817       135.1255
       133.0695       127.7786       132.2488       124.8217       123.9454
       117.0031       105.2521       71.95799       15.97955      -75.76732
      -77.20164      -97.06165       70.27441       496.9772       351.2767
       116.9005       24.04480       35.90729       312.7184      -13.54613
      -144.1667       97.59430       133.8997       223.9915       78.43860
      -430.0388      -440.7493      -502.6820      -86.76892       463.7868
      -4.544983       256.8860       290.3154       758.7300       443.6272
      -886.9154       361.3434       388.6475      -138.4383       539.9529
      -114.1404      -467.2214      -1123.877      -649.6711       246.8706
      -929.4152       39.97095       978.8213       934.1843       1507.652
       329.5193       335.0054      -182.7051      -1987.488      -553.1330
       27.80804      -396.7764       1032.275      -230.7410      -560.0210
       1022.930      -1864.095      -1595.934       1325.278      -416.3884
       497.9707       1950.047      -158.4308       373.8990       360.1677
      -1466.180      -1361.075       610.7310       1910.635      -598.6570
      -1163.491      -178.6091      -423.9767       544.8571      -285.4663
      -902.4384       126.7275       1712.229       1387.405      -651.1557
      -309.9092       126.7947       1017.755       167.7249      -1516.209
      -222.2178      -1012.684      -589.4678       1970.373      -592.2153
      -2165.511      -92.18896       1160.036       2640.482       1175.436
      -1908.589      -1609.575       525.8533       1143.227       1054.406
       519.7085      -2220.376      -575.7626       804.4264      -768.9615
       883.3801      -1713.827      -1133.583       2580.490       61.19702
       71.91211       885.0000       176.8008      -353.2670       351.8145
       1067.840      -1624.463      -1669.865      -99.93323       241.8262
       522.9609      -133.2476       332.9059       115.0923       629.4625
       436.1665      -2005.906      -164.3047       1964.840       1019.512
      -1092.440      -1767.607       583.6799       1374.380       573.8728
      -1076.398      -2096.790       120.0125       796.8347       495.5864
       1754.883       701.0728      -1025.138       122.2710       917.1680
      -259.1689      -743.3806      -768.0024      -893.9653       650.3470
       964.6895      -973.4702       1139.655       2229.262      -555.0203
      -792.9067      -671.7622      -1313.003       102.4136       1364.175
      -356.0327      -1978.929       612.2476       3025.028       371.1503
      -523.3151      -54.46533      -854.3911      -944.8809      -1905.591
      -268.0574       795.6348       896.4062       2366.732       829.3831
      -311.1299      -1039.866      -1775.296      -616.3430      -962.1078
      -955.1147       1619.376       1833.956       541.8453       185.0380
      -697.8992       140.5059      -849.5100      -1137.153       158.7054
      -981.4728      -55.06079       1112.971       483.9164      -357.5089
      -28.37866       697.4041      -310.7178      -971.6179      -1483.542
      -424.6210       902.8350      -27.87671       361.9390       1070.700
       168.5991      -417.6193      -345.7524      -1257.050      -1714.342
       665.7273       1251.087      -2.098755      -207.4385      -1580.516
       121.6381       1128.013      -1063.033       454.8828       579.2515
      -1073.140       37.54974       435.7435      -176.0187      -118.9077
       389.3790       815.0286      -919.0605      -2222.707      -678.7651
       481.1302       7.978516       56.64453       451.4834       1055.395
       561.4321      -1150.341       912.1073       1044.972      -2292.890
      -406.5192       999.0161      -738.6769      -897.3354       166.6763
      -1112.058      -1089.375       2663.710       541.9163      -1511.081
       1405.235       1166.690      -82.68164      -816.9994      -648.3552
       761.7654      -472.3225      -1106.620      -751.3147      -1792.292
       221.6343       996.2314      -160.3845       752.3445       758.2914
       88.93750      -220.3237      -646.5825      -1787.727      -724.0457
       1089.988       184.6687      -245.7352      -767.4896      -237.1597
       1142.287       151.8948      -1401.333      -276.8895       754.8856
      -646.0215       186.1992       1730.233       545.1465      -1068.456
      -1018.590      -111.4564      -948.5975      -134.8430       1972.507
      -13.34723      -766.8804       566.8389      -513.1375      -1472.056
      -860.0059       826.4971       1100.065      -887.9854      -83.01050
       1553.175      -406.6406      -1314.527      -1108.331      -633.6709
       997.0563       513.2755      -282.9365      -197.7316      -715.6501
       497.7776       1046.286       403.2039      -291.9932      -1282.069
      -1190.524      -866.0034       1032.429       2069.980       25.93042
       111.3531       723.6995      -859.5640      -1079.404       90.78772
       989.0612       54.97241      -1882.333       253.6980       1086.728
      -960.3870       1054.896       1251.912      -159.8198       1239.908
      -869.7793      -3157.973       244.7827       2697.405      -617.7986
      -1429.925       1901.786       1311.251      -144.0302      -219.7405
      -1120.910      -209.3801       43.07709      -789.4731       690.5591
       1754.465       896.2120      -326.4746      -89.96558       833.5967
       693.9471       225.5725      -263.7789       117.4321       207.9360
      -1352.770      -1572.297       1889.468       2603.480      -1167.818
      -1374.612       1728.571       1740.811      -132.1694      -784.0836
      -586.9707       968.2719       653.1043      -507.8997       1756.036
       756.4973      -1614.728       206.8765       1232.466       738.4653
      -1471.789      -890.7930       3504.663       1117.201      -2213.333
       1131.326       2034.809      -1180.178      -2380.331       370.6689
       1681.012      -693.6772      -245.9507       1703.820       2369.931
       844.9170      -1534.080      -1024.184      -340.2267       410.1072
       131.6584      -748.5327       1793.795       438.0592      -1559.094
       1155.126      -493.9124      -508.6710       982.0488      -939.8635
       1077.738       1590.487      -285.4482      -1597.453      -754.7944
       1864.899      -99.15839      -387.2764       1390.587       1757.295
       419.3181      -1573.206      -160.3828       63.92822      -1204.932
      -826.2151       290.1714       2176.976       908.6967      -1005.075
       945.3728      -289.9353      -1897.363       193.7521       739.6492
       12.01929       956.6301       500.2378      -1285.256      -1665.134
      -979.6943      -66.14148       27.85645      -1058.527      -1481.624
       3068.789       3645.708      -599.1278       664.0846       118.4800
      -2107.112      -1622.108      -1832.156      -648.1575       527.5497
       27.02295       1331.885       1736.600      -1990.855      -1338.761
       2684.973       1738.020      -429.5142      -1819.771      -1393.241
      -369.6841       69.13647      -296.8315      -2134.132       8.557739
       873.8491      -1731.804       903.2788       2356.312      -1033.989
      -1068.971       1760.310       499.8848      -313.4167       1566.108
      -869.0771      -2115.169      -469.8225      -1037.904      -96.67188
       2083.130       1103.744       294.6299       79.01624      -934.1099
      -47.40674      -2793.019      -2326.419       2872.955       2817.654
       401.7324      -2661.696       1106.141       2992.604      -3992.771
      -3760.266       772.7324       2620.469       451.2913      -1611.248
       1058.323       1029.319      -697.2759      -445.4736       1229.913
       327.0850      -2371.156      -84.25635       2296.696       1610.338
      -69.00440      -74.25415       122.8389      -2407.305      -686.0593
       1278.160      -2189.516       953.9370       3357.914      -1089.685
       280.4180       1617.812      -282.1138      -1742.087      -4322.519
       258.8428       6041.990      -14.29004      -2386.661       2447.561
       1419.447      -1126.357      -957.4465      -304.8115       548.1205
       286.7274      -423.9223       150.7847       17.00757      -911.9734
      -450.8101       1264.260       1176.149       451.6821      -1051.299
      -2528.153       983.6387       2077.472      -1203.101      -881.6609
       618.7291      -323.8025      -980.7051       460.8160       403.6780
       1012.464       700.8359      -1701.414      -453.5791       1118.482
       1525.147      -183.8552      -1288.097       236.7500       788.9266
       1107.160      -1735.193      -1929.173       2167.078       223.4941
      -1899.896       871.4670       625.2480      -2930.226      -3095.062
       416.4438       2013.146       1358.413       253.7805      -45.04187
       1094.551      -236.6226      -3082.896      -1428.143       274.8993
       85.54932       791.5585      -271.7426       539.4084       862.1467
      -593.0886      -715.8398      -2193.357      -2566.430      -599.7852
       2408.712       3636.804       53.58447      -1917.383     -0.4423828
      -863.5732      -2521.778      -787.5237       1229.118       469.2634
       690.8209       709.2349      -2280.991      -2679.078      -855.7136
       478.7025      -416.4209       754.5566       2688.401      -486.1807
      -1232.171      -455.8022      -1662.207      -2192.837       2064.437
       2735.954      -2611.047       1141.643       2165.383      -4763.750
      -2695.001       1862.695       512.7098      -510.7036      -841.4233
       1950.655       2249.028      -3436.236      -2845.768       1155.277
       773.7522      -565.1870       1670.913       1926.124      -1161.308
      -1746.031      -929.8647      -1304.210      -1528.042       875.1882
       1460.436      -508.0732      -1632.928      -254.1348       2313.354
       148.0024      -2396.603      -171.4568       1648.214      -1561.610
      -1665.468       3233.474       1597.084      -1438.330      -383.9142
       505.0571      -1356.929      -2404.332       265.2207       1048.995
       1050.006       1193.356       1716.915       2090.505      -1940.259
      -3547.532       536.9855       1152.868      -1428.520       553.0408
       2167.086      -541.3850       450.7070       1958.857      -1079.995
      -1080.334       1453.973      -1135.700      -4437.561      -484.4819
       2642.997       952.3193      -759.7804      -1391.322       1561.653
       792.0786      -3369.745      -50.37695       3411.958       1385.417
       1069.284       1540.522      -1184.657      -1691.304       482.7080
      -1783.627      -2947.713       2693.827       3094.788       185.1220
       847.7412      -868.5298      -395.9810      -630.0334      -1907.334
       1942.241       1593.521      -2490.236       558.9785       3921.019
       761.7314      -686.1946      -111.2839       148.2305      -563.5385
      -521.1675       2212.498      -1016.691      -3169.010       1567.383
       2010.553      -347.0515      -1154.786       959.7720       2100.824
       1326.805       1915.892      -159.3826      -329.9666       916.1401
      -904.0276      -594.8237      -4.187744      -1750.386      -361.6680
       1570.324       842.6777       913.9922       585.0735       1484.040
      -191.6753      -457.2334       4480.251       2609.850      -3393.537
      -6358.430      -2904.572      -72.08545      -1421.401      -465.3369
       2733.842       4552.459      -587.8652       2392.777       12498.39
       8234.953       1946.977       4453.341       3709.146      -6801.316
      -16823.17      -8393.599       1193.092      -2652.166       3228.555
       10834.67       6890.495       1420.268       2122.615       5845.908
      -1177.811      -5560.453      -2719.020      -6407.475      -8050.357
      -4760.900       8666.693       15607.52       367.4258       3160.764
       6509.637      -15217.93      -16462.78      -230.9141       10333.09
       18264.21       6104.832      -11851.56      -1645.010      -1177.156
      -20420.85      -9044.971       4749.670      -3122.158      -7588.415
      -5044.465       4847.092       8463.961       588.0801       2915.508
       18978.19       14127.60      -9507.215      -8058.809       10184.47
       652.1719      -15965.00      -8907.777       1942.867       15735.24
       6500.988      -23652.55      -11830.20       27815.29       30644.73
      -12381.30      -34791.26       6998.367       26424.10      -15371.32
      -17606.58       13684.54       4202.074      -16536.35      -6089.408
       14264.52       7084.204      -6274.517       2833.660      -6407.266
      -23037.48       4594.742       18166.27      -8097.082      -10052.91
       9421.469       19433.84       14959.90       1194.472      -546.5703
      -6480.254      -16675.16       4338.166       10022.07      -20793.45
      -17323.25       20087.69       29933.42       1701.473      -23107.27
      -18960.29       5768.184       20756.36      -1088.336      -22387.65
      -12115.40       2199.850       9476.852       10960.08       1149.195
      -11658.95      -12113.62       8643.156       24191.50      -531.7266
      -23924.45      -3871.152       9199.707       1276.250       3212.958
      -1382.146      -3548.406       2536.148      -9770.453      -14918.45
       5993.955       14193.92       3188.385       3787.449      -1805.761
      -9665.887       4718.562       2569.591      -3430.489       6095.453
       6180.414       1937.829      -2998.810      -1062.826      -3146.779
      -13214.44      -2715.514       6570.132       2087.519       7846.074
      -3243.154      -14986.42       1872.384       3018.535      -6436.833
       3163.994       9535.378       4534.580       1767.922      -12024.76
      -14682.97       14771.38       16709.85      -12990.25      -9989.230
       13717.89       10005.95      -2085.773      -8148.568      -4038.895
       5856.799      -10605.51      -8641.753       9806.279      -888.3633
       2972.074       13669.99      -1731.379      -8443.947      -9503.474
      -6671.645       9920.755       5083.913      -1990.902       12142.42
      -856.7930      -21588.87       3399.776       10352.32      -15647.22
      -7663.327       5537.914       2646.652       8697.294       5644.910
       219.9077      -188.2773      -2495.274       631.1372       1744.486
       4499.572      -5665.473      -19989.05       2324.844       16285.43
       3103.004       1185.991      -3243.514      -8048.377      -1745.448
       1804.612      -868.2563       569.2720       2785.475       678.1807
      -255.6488      -961.5791       2011.823       4555.202      -1630.682
      -1822.752      -3284.274      -4158.816       8230.698       3985.139
      -7674.853      -727.4082       9192.673      -1458.664      -12958.21
      -3876.280       5334.781       2799.038      -1744.272      -310.4481
      -588.6035       10.20801       4857.799       2564.283      -3125.677
       1808.248       4764.628      -7794.603      -4173.105       10734.09
      -3888.713      -10535.14       7915.057       8313.176      -1780.449
       267.1255      -314.9912      -5997.219       5414.596       10257.82
      -5314.520      -8471.611      -3363.547       440.0266       2564.011
      -3733.760      -1888.144       1002.148       1645.091       7785.141
       238.5801      -4763.038       789.8569       1023.900       2402.858
      -228.4805      -7036.394      -3509.154       2101.258       1494.103
      -597.7773      -6816.963      -8097.352       12961.44       22326.60
      -5406.142      -10287.90       4675.041      -3937.529       362.1094
       13776.29       3926.992      -15664.62      -13190.12       5844.314
       5576.648      -562.5957      -1811.201      -2761.599       3188.534
       880.6055      -3051.877       6205.197       4058.750      -6297.479
      -1687.610       2182.827       156.6670      -1810.927      -2117.137
       7115.576       6294.755      -941.4033      -3004.938      -3069.222
       60.27734      -3989.719      -3874.990       3308.569       6947.515
       138.4023      -7138.042      -3922.370       1010.831       6388.205
       332.9707      -4228.740       6806.367       5392.359      -5104.246
      -6202.064       360.4707       4888.795       1788.367       918.0269
       2249.388      -301.0635      -2394.176      -1123.126      -1943.106
      -1126.570       5997.575       1627.547      -7161.568       3332.375
       5211.258      -9012.912      -2080.670       7490.521       1769.601
       673.0449      -1045.315      -2071.418       1365.485       238.4834
      -3708.231      -3180.438       4894.414       3493.751      -5253.211
       1539.142       4127.036       1307.493       5486.360      -343.1465
      -7061.645       732.4805       5526.617      -5147.404      -5591.799
       7549.904       2052.043      -7502.877       4592.181       7758.895
      -5641.370      -5585.081       2212.516       3356.917      -571.8206
      -2454.126       823.3335      -1322.165      -2052.608       4273.179
       4903.630       214.2419      -1856.061       2987.768       1385.490
      -6504.208       1816.701       2800.957      -5488.849       497.4390
       2805.751      -747.7886       733.0076       823.3206      -1239.013
       193.6624      -148.0713       1930.610       7011.826       745.5098
      -10003.92      -3751.812       4209.470      -3424.381      -1293.949
       9839.812       4354.627      -7978.664      -4871.099       3600.016
      -34.44482       1329.821       3509.420      -3894.917      -487.8271
       5287.189       1272.077      -2434.841      -556.0684       3470.927
       985.8447      -3416.647      -1278.709       2469.883      -1859.305
      -6665.795       2102.089       6026.187       125.0176       1265.186
       3362.562      -3808.185      -4890.654      -251.5186      -4929.739
