     0.02500000      -16608.82       16357.00      -12345.00      -12345.00
      -29.99999       224.8750      -25.45000      -12345.00      -12345.00
       0.000000       18.95000      -12345.00      -12345.00      -12345.00
      -12345.00      -12345.00      -12345.00      -12345.00      -12345.00
      -12345.00      -12345.00      -12345.00      -12345.00      -12345.00
      -12345.00      -12345.00      -12345.00      -12345.00      -12345.00
      -12345.00      -30.68660      -67.50870       990.0000       0.000000
      -31.59500      -68.73200       0.000000       105100.0       0.000000
      -12345.00      -12345.00      -12345.00      -12345.00      -12345.00
      -12345.00      -12345.00      -12345.00      -12345.00      -12345.00
       154.1182       49.51098       228.8814       1.385695      -12345.00
      -12345.00     0.01424542       0.000000       0.000000      -12345.00
      -12345.00      -12345.00      -12345.00      -12345.00      -12345.00
      -12345.00      -12345.00      -12345.00      -12345.00      -12345.00
      2008        13        10        50        52
       850         6    -12345    -12345     10196
    -12345    -12345    -12345    -12345    -12345
         1         7        13    -12345    -12345
    -12345    -12345    -12345    -12345    -12345
    -12345    -12345    -12345    -12345    -12345
    -12345    -12345    -12345    -12345    -12345
         1         1         1         1         1
MAJA    -12345          
        -12345  -12345  
-12345  -12345  -12345  
-12345  -12345  -12345  
-12345  -12345  -12345  
-12345  -12345  -12345  
-12345  -12345  BHZ     
ZL      -12345  -12345  
[...]
       106.7842       103.2207       107.5446       108.5295       113.5216
       108.8453       112.7769       112.2307       118.0356       113.0309
       114.7288       111.4778       115.2933       109.0420       114.7363
       105.1757       108.6621       106.2221       107.6440       94.69812
       89.79494       49.50262      -10.57593      -160.1013      -310.7882
      -250.3085      -177.0061       355.7817       1214.829       566.5446
      -335.8881      -333.7567      -133.1223       616.1982       656.5074
      -113.6484       176.3292      -351.6230      -474.7561       576.7556
      -704.3862      -822.8246       158.5945       180.0961       687.3481
      -263.9441       82.84717       1549.977       330.3304      -793.7724
       53.43311       852.4541       1136.363       596.0836      -267.7476
      -469.2715      -562.6782      -1103.297      -821.7667      -667.1998
      -549.5366       1863.219       1963.951       365.8216       468.5474
      -587.7395       266.8488       714.7627      -1737.505      -327.3959
       462.6760      -619.2898       1487.719       285.0815      -1347.694
       591.5596      -1386.951      -2145.987       1671.287       428.0151
      -750.3799       1709.081       468.0155      -630.6686       561.3016
       374.8135      -561.0620       270.7195       1488.047      -101.7983
      -584.9978      -376.7285      -1144.028      -223.1287       750.4644
       334.0950      -1292.199       642.6069       2615.294      -803.6140
      -747.5190       1353.417       816.7134      -620.0535      -1217.004
      -15.17773      -1405.959      -1574.789       2019.075       1348.472
      -1074.789      -181.0879       1071.048       982.6284      -5.259033
      -776.5045      -1133.367       223.7114       1794.858       1051.218
       71.10889      -1968.295      -376.8623      -378.0391      -2426.247
       2034.056       1342.134      -230.7356       819.7129      -997.9124
       323.6526       1581.919      -89.31665      -484.2535       588.4556
      -445.7808      -1535.858      -1368.481      -1057.527       1818.847
       2606.491      -640.7185      -940.5022      -749.8782      -9.391846
       1435.863       433.8400      -404.5826      -222.7090      -522.8265
      -726.2082       173.8420       382.4829       654.5171      -615.7114
      -2317.641       951.1719       1503.771      -1992.486      -11.80078
       2754.483       1860.119       78.98169      -1429.584       674.6304
       1335.736      -560.4009      -934.0791      -2839.406      -635.9873
       2496.560      -257.4609       957.9890       1198.192      -2358.781
      0.1727295       741.4607      -1856.143      -319.2465       689.0494
       230.1403      -55.48145       716.2437       1921.129       734.7876
      -495.7710      -2098.220      -1934.503       305.7772       75.34070
      -421.4678       531.4209       1252.598       1679.628       1251.518
      -1797.623      -2591.132      -1109.627      -717.5226       311.5928
       927.6466       901.6337      -149.8662       863.4800       1275.219
      -947.1003       102.8114      -101.0254      -1580.678      -1580.474
      -609.2421       773.4153       739.4375       577.3644      -129.1262
       125.1605       864.5672      -480.2524      -630.3281      -1589.288
      -1814.346       2196.753       2066.618      -979.8304      -401.9299
      -182.6993      -219.7759      -534.3411      -1253.521      -105.6436
       1426.867       1147.500       711.9691       203.3486      -2052.140
      -1546.303       1320.504       375.3259      -432.0376       1180.277
      -363.9032      -499.2799       1049.094      -190.4829       1099.301
       1399.082      -2171.521      -604.2954       1908.502      -695.6263
       348.4924      -128.2832      -2604.672       1008.879       1827.530
      -485.9123       56.89453       688.3571      -235.6612       18.73730
       443.2194      -719.1345       456.4086       294.9274      -552.4988
       1278.199       803.1189      -574.6188      -199.7700      -468.0176
       709.4368       1346.505      -311.2600       244.2111       151.0249
       1127.389       1302.814      -1060.307      -1018.157      -909.7461
       657.6115       261.2878      -1189.758       156.9375       1597.045
       1449.399      -807.7543      -255.6738       230.0681      -1069.519
       427.9048       1069.082      -469.2377      -642.7173       756.7158
       1274.300       830.4702      -566.1904      -987.5319       554.0659
      -380.1504      -1758.722       776.3032       1008.036      -872.0767
      -790.8823       654.3813       950.0168       1118.703       1166.334
      -1200.189      -196.5963       754.7764      -1799.435      -2174.268
      -347.2041       1581.511       1154.830      -1072.108      -416.2032
       576.7587      -905.3870      -182.8857       234.6636      -818.7791
      -773.1831      -1045.310      -157.3496       1343.376       531.5818
      -412.6752      -617.6279       395.4419       795.2063      -1026.033
      -1221.224      -382.5830      -506.6438      -954.6349      -436.7281
       603.1953      -103.0839       282.5989       702.0837      -988.9343
       93.57367       778.0903      -2492.030      -2054.073       76.86035
      -1314.524      -327.3398       2960.913       1675.155      -1433.713
      -1096.141      -623.2944      -983.5007      -327.3083      -378.9554
       403.1243       897.3564      -1697.359      -2715.605      -348.0364
       1133.545       1184.921       346.5444      -725.6349      -874.5015
      -27.28918      -145.8271      -1317.655      -830.0708       1520.372
       1703.315      -1357.112      -1991.811      -537.7524      -766.0378
      -1204.893       126.8022       2660.785       1576.795      -1342.637
      -2008.238      -1000.334       1685.126       2220.543      -1386.317
      -1401.514       825.8911      -2249.375      -1522.825       3375.173
       2077.450      -915.1765      -533.8979      -1014.696      -926.0256
       749.9282       298.1536       616.1729       1334.223       1672.448
       356.5283      -3559.506      -3273.009       1610.851       2300.295
      -436.7996      -1566.925      -60.51953       2080.456       1681.514
      -300.3725      -359.2576      -137.4766      -1728.177      -352.7246
       2310.404       1594.158      -491.7632      -582.5472      -212.8951
      -721.0061       1287.630       975.5144      -816.3306       578.7051
      -600.4253      -913.1230       1610.385       1095.473      -659.5449
      -357.5557       143.5498      -981.5767       497.3101       2542.344
       406.8044      -28.77783       2400.574      -861.4629      -3785.373
      -1022.955       1883.636       3181.262       218.7122      -1581.596
       238.1912      -1157.230      -1568.999       1852.029       1801.198
      -1012.251       92.95337       1719.324       63.71582      -2057.140
      -1314.001       1196.808       1596.841      -1769.508      -2084.113
       2350.049       2307.012       695.3752       691.3918      -179.3660
       122.2822      -138.6494      -1675.826      -1556.626       252.2121
       369.0339       192.5598       1115.235       385.6621       737.2100
       2266.837      -74.78870      -1024.505       4.690918      -1349.903
      -1886.620      -728.4944       545.8979       2496.430       2019.328
      -2307.093      -1691.369       1597.235       551.7760       417.8354
       1015.233       959.1482       165.0237      -294.8121      -360.2080
      -764.1431       1548.053       1880.008      -2066.145      -2069.240
       317.2493       443.7207       1339.553       195.7180       260.3424
       1740.412      -1558.767      -406.6289       3790.457       648.7534
      -3697.822      -436.4668       2144.292      -1897.348      -1156.537
       3122.528       156.7358      -373.6304       3297.184       438.8967
      -1670.494       603.3462      -202.0796      -1597.787       446.9751
      -3.731079      -994.0039       1782.322       2676.242       261.8792
      -1001.814       844.9844      -2509.500      -3642.134       4518.193
       2298.811      -2970.861       4987.244       2861.657      -4110.485
       1384.529       986.0850      -2933.640      -2277.702      -2241.347
       2273.043       4915.999      -755.6938      -84.23096       3259.899
      -1117.204      -1223.598       225.3052      -2050.663       510.6655
       3219.535      -712.7056      -1985.000       2246.309       1541.183
      -1495.480      -296.9418       556.0356       815.2559      -956.9502
      -3208.353       520.1055       3576.840       167.1157      -2953.721
       670.5537       2864.114      -787.0205      -1732.799      -1390.231
       1569.191       1809.038      -2457.956       89.82715       3123.267
       1453.254      -89.78882      -181.5798      -1034.568      -1689.001
      -908.2964      -1506.151       381.7119       1656.542       1102.366
       1396.511      -996.5327      -2035.794      -1619.761      -1641.557
       213.1580       1331.966       1256.135       101.3506      -1921.930
       348.7832       3041.517       254.6562      -958.9126      -2380.611
      -834.2134       3245.308      -123.0020      -3048.522      -1307.277
       348.0005      -860.4326      -1544.801      -328.7329       1228.944
       2128.206      -77.09937      -1119.397       329.0823      -455.4340
      -713.7951       568.0532      -963.3049      -1051.651      -997.3918
      -105.6803       1204.332      -988.4236      -1225.929       767.0879
       630.6350      -1268.929      -457.8081      -955.4756      -2431.696
      -29.94769       322.4473      -136.8528       824.0441       1161.317
      -448.7480      -854.4221       340.2485      -392.4927      -551.0151
      -153.9043      -2360.641      -1469.602       1919.532       859.7639
      -263.0023      -82.27490      -1564.918      -2221.770       789.5342
       2273.399      -1974.608      -1803.264       3165.537       1451.408
      -3127.255      -3310.981      -917.7915       2419.428       1859.565
      -371.2529      -2039.431      -3243.509       982.7747       2258.340
      -2547.140      -1679.953       2124.445       1079.369      -1439.933
      -670.8032       2038.795       884.9824      -1720.136      -1077.251
      -1062.387      -1121.625       768.1719       1793.523       1201.203
      -421.5184      -1346.616       1051.612      -513.3188      -3119.520
       198.4102      -1177.620      -3749.294      -180.3818       1444.966
       2148.703       2608.343       999.4004       889.2107       471.6152
      -837.7305      -1598.626      -4108.077      -3367.612       2368.761
       4026.011       371.4082      -2189.742      -3051.614      -2262.864
       980.3364       2374.325       1290.477       1434.286       924.8477
      -1155.478      -1871.149      -639.4497       1714.412       2406.382
      -1781.668      -2933.398       908.8242       970.6337       260.1591
      -63.68848      -1746.297      -98.56616       1018.249      -646.1097
      -676.6587       1094.960       944.9185       820.4717       1064.000
       659.1838       1193.544      -312.3921      -938.5424      -393.7732
      -175.5327       1726.636       401.8511      -1765.000      -658.4165
       136.6204      -376.4507       77.54077       718.0950       620.0278
       1182.573       1753.588       302.3003      -710.4541      -1163.798
      -1261.994       967.9514       1582.139      -132.4449      -273.8118
      -280.8579       304.7661       924.3433       1182.389       1598.370
      -37.84424      -63.09674      -204.3782      -470.1990       1419.602
       251.2488       119.5311      -620.0361      -540.9150       2745.740
       119.6777      -1879.700       2310.619       3559.291      -613.1484
      -2476.741      -166.9834      -2981.728      -7201.659      -1366.965
       3932.384       1234.654       946.3594       5012.476       5613.904
      -1548.241      -5408.346       474.5215       334.0410      -8449.301
      -8951.785      -2205.209       4729.180       8010.254       4431.856
      -1583.944      -2978.988       3340.535       8174.758       1901.104
      -3538.516       1783.658      -1736.430      -5007.784       302.2861
      -3683.848       3210.246       10266.73      -6701.400      -13643.34
      -5210.093      -5016.281       2868.047       15132.01       12704.66
      -864.8809      -10889.78      -5493.519       435.1094       3781.068
       8854.498       5023.570       473.7236      -3543.258      -9411.395
      -2992.369       7050.963       9855.879       9479.312       11944.41
       12334.76      -2878.156      -16608.82      -12265.02      -3519.251
       1605.539       7166.508       6496.085       1733.900      -2644.348
      -11658.25      -10217.54       2089.809       9397.764       4777.803
      -4047.940      -1179.719       3738.877       5636.402       3440.838
      -2350.302      -775.2872       733.5420      -670.1621      -4701.822
      -13468.30      -4522.782       8851.819       1830.347      -1562.637
      -69.76562       4350.141       9417.018      -1003.417      -2304.206
       2857.908      -4978.804      -2844.331       7939.430      -255.8633
      -16236.27      -13285.47      -949.1367       11168.56       16357.00
       5474.688      -6561.300      -6582.012       1290.907       5202.783
       2115.494      -3759.638      -7360.185       462.1270       7340.169
      -1237.526       1416.111       10100.68       285.8398      -5174.471
      -4470.432      -5949.371       1185.032       6806.431       2027.293
      -4012.636      -3237.506       1436.086      -890.5479      -6575.470
      -118.6035       10009.46       5509.211      -7037.137      -6725.956
       1059.083      -2403.883      -5832.658      -102.3760       4157.369
       3545.873       3773.475       3647.528       331.7207      -1706.699
      -2275.346      -862.6523       2694.552       2344.147      -2127.488
      -6778.545      -3858.566       5609.256       3178.262      -2200.142
      -28.49512      -4815.269      -3089.814       7573.040       4540.733
      -1835.980      -188.2871       3099.557       3521.200      -442.6387
      -8067.506      -7893.526       3708.015       6170.731      -3036.127
      -8884.538      -1319.262       4838.757      -2457.764       2448.045
       8662.268      -1388.141      -1812.894       2071.649      -3184.539
      -4014.714      -2173.928       5892.398       9362.101      -5001.354
      -10814.05      -1258.598       4549.427       225.9292      -4281.312
       137.1821       3825.360      -1579.990       5177.066       11953.00
      -2417.027      -14727.26      -11165.30       2218.770       3941.085
       308.0623       1418.581      -979.1758       4230.768       4576.146
      -4828.044       190.6650       2719.636      -6268.873      -292.5591
       4085.136      -6201.665      -2868.042       2422.801      -5657.736
       260.1367       8882.649      -3133.733      -8713.612       1228.826
       4562.370      -2621.921      -5387.793       2053.508       6824.377
      -2.140625      -9405.209      -10876.07       1261.453       11639.07
       3443.985      -749.6890      -700.1753      -1522.834       3878.913
       939.2307      -2139.098       554.5248      -349.9555      -82.18140
       928.1133      -2446.300      -2744.672      -1895.748      -3120.516
       1352.590       6011.455       106.5859      -3772.974       2398.626
       865.5020      -3144.257      -1861.291       1677.924       7446.242
      -1282.971      -11842.09      -3061.342       5696.354       3799.900
      -1719.470      -4031.061      -1858.170      -1176.426      -1423.521
       3269.465       7634.420       3299.369      -524.7031      -3274.386
      -4473.134       2150.368       2512.666      -5612.023      -5322.943
       3301.434       3498.454      -3250.156      -437.2031       7182.522
       3729.787      -2274.694      -1453.551      -3335.665      -2474.541
       2794.504       3290.955       2303.324      -1609.312      -3955.344
       229.2501      -70.58008      -1505.282      -494.5774      -616.7695
       2108.896       974.8098      -2076.389       1339.210       1732.347
       588.6377       1778.844       1297.336       2463.693       5589.684
       5266.342      -3949.574      -11392.66      -4988.385       5788.375
       3077.226      -3161.389      -1771.797      -3510.347      -1257.374
       2545.711       1582.463      -690.2634      -2122.535       1514.154
       968.0088       675.3076       4728.614       1382.009      -1622.279
       1221.090       2369.046      -297.1270      -1669.416       2476.798
       1417.814      -5506.164      -2570.179      -29.30469      -4241.806
      -142.2695       5183.661       4242.177       933.7520       1079.735
       3371.030       1125.973      -26.12793      -1297.891      -2673.905
      -3129.676      -1920.018      -939.9019      -524.0732       3364.814
       3895.740       1749.392       283.8079      -702.6936      -1180.376
       1917.290       3083.675      -31.06995       855.7919      -421.5366
      -14.78857       1738.089      -854.7109       2263.239       2971.606
      -1775.975      -504.9951       333.1045      -2489.041      -2455.536
      -2208.142      -214.3486       4434.264       1731.033      -1422.940
       939.8784      -1217.564      -4341.353      -1019.031       4055.099
       2886.808      -2207.410      -701.5962       3020.294       2479.493
       1174.195       109.3979      -902.2019      -1397.258       2801.396
       4988.535      -376.8818      -2731.489      -1913.177      -121.4688
       1620.107       840.4496       353.2866       1291.536       772.2646
       1076.972       3024.187       1647.249      -1537.267      -895.6406
       2883.470       1065.632      -1836.238       201.9585       952.7063
      -743.1677       162.0449       2674.490       574.7380      -1427.396
       551.8889       1012.113       278.9961       1487.898       1888.895
      -2187.729      -3149.155       618.7871       118.6250      -3290.804
