     0.02500000      -19597.12       19868.81      -12345.00      -12345.00
      -30.00001       217.7500      -18.40000      -12345.00      -12345.00
       0.000000       13.86000      -12345.00      -12345.00      -12345.00
      -12345.00      -12345.00      -12345.00      -12345.00      -12345.00
      -12345.00      -12345.00      -12345.00      -12345.00      -12345.00
      -12345.00      -12345.00      -12345.00      -12345.00      -12345.00
      -12345.00      -31.57700      -67.87020       833.0000       0.000000
      -31.59500      -68.73200       0.000000       105100.0       0.000000
      -12345.00      -12345.00      -12345.00      -12345.00      -12345.00
      -12345.00      -12345.00      -12345.00      -12345.00      -12345.00
       81.82251       88.82695       268.3777      0.7356941      -12345.00
      -12345.00     -0.3910253       0.000000       0.000000      -12345.00
      -12345.00      -12345.00      -12345.00      -12345.00      -12345.00
      -12345.00      -12345.00      -12345.00      -12345.00      -12345.00
      2008        13        10        50        45
       800         6    -12345    -12345      9911
    -12345    -12345    -12345    -12345    -12345
         1         7        13    -12345    -12345
    -12345    -12345    -12345    -12345    -12345
    -12345    -12345    -12345    -12345    -12345
    -12345    -12345    -12345    -12345    -12345
         1         1         1         1         1
NIKI    -12345          
        -12345  -12345  
-12345  -12345  -12345  
-12345  -12345  -12345  
-12345  -12345  -12345  
-12345  -12345  -12345  
-12345  -12345  BHZ     
ZL      -12345  -12345  
[...]
       124.6798       120.2158       123.9421       121.2848       124.7211
       120.3115       122.9177       123.2563       125.9622       121.3234
       122.2711       122.5904       128.4203       128.8500       125.4020
       123.2681       126.2206       125.4519       126.0010       127.8660
       127.9618       124.1132       120.8502       117.6082       119.0393
       118.1355       114.4343       108.3253       108.1853       105.1962
       101.3611       96.46378       92.46222       86.73679       83.35814
       76.35570       71.54089       60.59404       51.91166       43.01411
       37.86099       25.70798       20.52702       12.86801       4.700012
      -6.519386      -13.00690      -24.76379      -31.42723      -42.55716
      -49.54578      -60.20462      -72.31589      -87.75266      -95.77533
      -104.7899      -113.9314      -129.1008      -140.0438      -149.8493
      -159.5354      -172.2899      -185.7940      -198.4489      -206.8014
      -216.5604      -227.9759      -241.3895      -253.0006      -260.8196
      -271.7460      -283.5090      -294.7189      -304.5993      -316.4435
      -327.4271      -334.0016      -339.9484      -347.9054      -354.8074
      -358.4608      -363.8788      -369.2870      -374.1694      -376.5496
      -380.6013      -383.4473      -385.2909      -389.6698      -392.1576
      -392.5601      -391.6124      -390.5637      -390.0699      -388.2583
      -384.6262      -382.4423      -384.1265      -381.4276      -379.3049
      -374.0255      -369.7565      -366.4409      -365.4856      -361.3552
      -358.8127      -350.0999      -341.7726      -337.8065      -332.0427
      -321.6948      -316.3784      -309.2156      -300.0172      -293.6587
      -289.0021      -278.5234      -271.6536      -264.6198      -258.4623
      -251.3986      -244.0793      -233.5922      -227.8787      -219.3923
      -211.4509      -204.5839      -199.0182      -190.8224      -185.9077
      -178.0306      -168.5829      -163.0522      -159.6643      -149.1180
      -144.0729      -138.3755      -129.7660      -122.4996      -113.7713
      -108.7475      -99.17058      -86.04015      -82.07832      -78.61282
      -69.66107      -61.41379      -57.42229      -52.26276      -43.84254
      -35.67529      -33.49571      -28.41513      -18.99704      -11.60530
      -4.538389       2.702137       7.237144       9.886887       21.06121
       27.35762       31.15881       35.78053       43.66473       49.40982
       57.49547       60.41568       68.22580       74.47610       81.16382
       86.15594       96.01727       102.0458       108.7992       114.2544
       123.2007       127.3008       137.0617       143.1245       150.2665
       155.2751       164.8985       168.4372       175.3782       180.2104
       189.0078       193.3807       200.9619       205.4283       212.4242
       214.6313       222.8881       226.5516       233.1000       233.6475
       239.2936       240.5432       243.3784       241.6315       242.6346
       243.6556       247.7278       245.8707       246.2388       244.5687
       242.7328       241.5210       239.5447       235.2593       234.1814
       229.4446       224.4615       221.0787       218.9379       213.9117
       209.0166       205.2341       202.0665       198.4184       192.6991
       189.1344       188.8146       184.1339       179.7094       178.2521
       173.3128       169.3255       167.2596       161.4718       158.0752
       157.2541       153.7278       150.5041       149.2490       146.8792
       145.5605       143.6946       141.7316       141.8344       140.5930
       137.0659       133.7905       133.6608       131.0463       127.6116
       125.5228       126.1682       125.9057       122.5551       120.9273
       120.6657       122.1964       123.4443       123.7156       120.8040
       121.6110       119.9850       122.7669       121.8682       121.9565
       117.7791       122.5537       122.2006       123.0066       119.3130
       126.0915       124.4158       127.0638       120.7090       125.8265
       125.7216       127.0342       115.6959       102.6260       71.90100
      -85.78540      -762.3027      -1657.048      -2893.857      -5689.285
      -6550.984      -4431.323      -2299.859      -2280.010      -1019.688
       6577.417       1450.061      -1330.562       17828.39       12886.72
      -8025.818      -4370.420       3378.686       2009.534       3846.135
      -603.3281      -6822.530       1953.382       5389.785      -1342.148
      -2309.657       3056.549       2211.736      -4421.572      -6017.551
      -1837.714       3215.591      -1290.594      -4192.924       3865.941
       6532.209      -334.8552      -1801.120       1271.122       1229.588
      -506.9092      -4935.046      -1016.460       4124.407      -128.3936
       1352.587       2867.245      -3051.774      -612.8887       4643.257
      -928.1038      -1782.207       2421.028      -1840.263      -1670.964
       2522.483      -42.05591      -951.9960      -655.2292      -367.6658
       1170.598      -500.9277      -3253.471      -2732.973       1245.619
       3511.024       3509.956       982.1616      -1502.015      -411.7102
      -50.57690      -1238.132       416.7161       755.0952      -830.6255
      -1201.260      -2794.539      -3396.272      -1012.331       4230.457
       3267.162      -3360.290      -2323.670       1606.893       2563.858
       218.0322      -2533.467       999.6260       4066.206       1283.978
      -2691.875      -2195.261       462.1301      -201.0355      -100.9092
      -1165.516      -3651.743      -1046.967       757.7891       3463.458
       4879.136      -3929.957      -4965.592       1689.719       1596.192
      -1379.309      -3098.151      -298.2837       1656.337       282.4102
      -376.3887      -1646.001      -717.9512       197.4460       219.7725
       381.3892      -2057.448      -1094.169       1912.485      -350.8760
      -2075.094      -434.8171       585.5811       2019.435       2845.589
      -646.4077      -2766.482       2046.450       1072.683      -2857.400
      -2852.565      -1327.775       2334.259      -811.6655      -2216.221
       1132.477       94.40448      -198.5662       604.7021       262.0835
       1582.007       162.4170      -3142.300      -2526.067      -1417.484
       633.3291       2526.338       1705.250      -976.4004      -1200.884
      -1591.560      -2200.851       1254.174       2080.325       302.7134
      -1167.865      -1251.186       405.3091      -923.3872      -1942.322
       404.3940       200.0857       57.23547      -12.95557      -1925.097
      -1309.980       3035.336       3048.094      -1789.326      -2243.119
      -719.3298      -243.1177       461.1614      -444.8833      -975.2064
       599.2413      -357.2415      -241.0850       3559.520       1984.450
      -1036.916       375.8989      -283.3805      -179.4506       925.2178
      -2196.734      -1846.331       1499.045       728.6414      -629.0571
      -885.5723      -1261.771      -2123.926       946.6006       2951.410
      -2049.187      -1713.127      -151.2822      -1900.665      -973.6749
      -167.0469       2225.135       2663.126       775.6890       1349.322
       651.9106      -843.9622      -1588.833      -84.51953       1797.079
       821.7460       57.47687      -336.5200       1093.677       1595.827
      -1080.051      -1285.642       283.1555       1346.030       184.2722
      -1676.494      -359.5996       1162.626       1496.685      -306.4541
      -1513.201       228.5518      -603.7195       319.2175       1669.842
       431.9136      -815.8591      -1163.212       1421.008       143.3232
      -236.4685       192.5093      -2556.890       832.6323       3081.391
      -481.1988      -611.5718       354.9585      -323.0801       1891.198
       1807.384      -464.3242       1229.562       1716.523      -1319.830
       406.3413       2388.371      -668.3431       10.88123       959.1532
      -220.5757       891.6482       1091.914       22.39465       226.8464
      -1022.182      -1463.621       971.4824       667.8228       525.3152
       637.1444       34.24438       1387.416       837.1138       738.1641
       1209.480       830.2017       832.9531      -1409.567      -1379.053
       474.7395      -453.7252      -882.0688       1709.142       1444.929
       459.5649       2480.041       1340.228      -175.8112      -256.1561
      -241.3286      -144.7651      -872.7249      -1278.447      -679.4526
       728.4055       1018.626       1521.014       2665.393       545.9771
      -1080.420      -873.2075      -2380.718      -511.0254       4474.821
       1048.356      -3972.050       1200.481       2510.710      -1812.752
      -1143.085       932.4343       955.7983       80.79181      -549.9875
       585.8738       1513.938       605.2333      -85.73340      -193.2432
      -1697.422      -1080.509       1574.125       1764.899       3174.061
       2387.985      -1489.889      -854.2197      -1273.183      -3739.671
      -825.1689       984.2202       867.4347       784.9314       369.6206
       2267.688      -61.11377      -3398.090       1244.322       3501.953
      -2756.991      -2076.250       1176.142       168.4719       1188.487
      -1148.956      -1733.730       1077.472       878.0735       469.5308
      -324.1089      -1827.623      -260.3049       1690.771       370.7774
       578.2207      -932.6665      -1949.089       715.4868       1132.691
       2879.933       2468.280      -1935.326      -3458.600      -2671.434
       1672.867       3578.572      -537.3877      -3257.874      -1036.320
       3733.289       1299.120      -3016.491      -1244.223      -1896.124
      -1871.370      -447.6544      -775.8896       2687.039       3018.608
       140.1943      -1890.363      -3113.308       187.7480       1638.947
      -1580.831      -1271.442       1663.317       429.7406      -402.2844
      -250.3413      -1445.250      -2122.258      -1974.564      -752.5293
       1444.881       2013.888      -377.1555      -913.0656       478.0767
      -400.3330      -1707.507      -1346.978      -631.0381       727.2487
       1315.741      -1458.882      -2388.546       482.1432       640.6499
      -1307.828      -1181.375       474.6938       1670.738       1007.666
      -566.6301      -493.3168      -687.2615      -310.6123       1690.332
      -1789.416      -2100.058       2608.082       982.9878      -2477.785
      -1487.604       681.6857      -497.8334      -354.9666      -152.0132
      -1764.539      -787.7966      -623.5118      -818.8209      -17.53073
      -211.7009       263.5764      -573.3774      -2026.413      -553.1841
      -166.6865       775.9082       1250.645      -663.1284       116.9814
      -199.6401      -1473.980      -553.3646      -735.7854       276.1152
       3544.551       2906.734      -2601.075      -4321.202      -344.4209
       1246.636       1356.428       795.5037      -133.2089       1338.384
      -1819.506      -3397.140       313.9606       740.0178      -675.0659
      -896.3613      -536.9668      -1533.112      -614.3296       1772.058
       779.7240       89.19562       256.9761      -1137.554       849.7981
       1421.051      -956.6284      -810.3230      -922.1309       2583.322
       3705.471      -163.5463      -473.4941      -466.7744      -1457.676
      -1709.840      -1429.815      -1161.170       844.7754       2854.608
       133.6265      -749.4714       437.2555      -398.2849       892.5210
      -542.1223      -2724.750       1982.007       1567.815      -2882.763
       1016.797       3858.115      -942.9469      -1424.800       1797.957
       313.6113      -402.9691       422.3370      -648.6528       1705.360
       2284.132      -1203.938       235.7163       2582.514       652.3110
      -2407.041      -2126.748       964.6533       2544.691       1059.881
       793.6766       386.7654      -734.9307      -237.3867      -2646.696
      -3074.842       1569.006       1820.152       742.8750       3678.140
       2665.724      -127.1626      -1369.512      -2117.932       10.28516
       2808.613       2997.814       240.1992      -4257.848      -4587.766
      -1115.479       1735.059       3531.839      -160.5962      -2120.072
       728.5566       1032.984       760.2232      -116.4283      -377.0042
      -398.7722       215.2742       350.3865      -1038.033      -518.3584
      -1408.406      -4696.634      -5860.899      -4515.406       259.1055
       7011.096       6397.540       2008.273       239.7671      -3137.682
      -1510.705       1675.973      -6079.109      -16327.13      -18137.16
      -12892.67      -3526.035       10569.63       19868.81       19319.44
       12057.48       1959.460      -1939.402       216.3232       3558.266
       3790.070       2256.454      -2145.393      -3239.566       5679.578
       10787.12       2499.398      -6998.680      -1427.228       1840.178
      -7275.299      -7941.816      -6196.279      -5878.968       366.2773
       3581.027       10323.75       15321.71      -496.7227      -19597.12
      -15962.24      -3084.645       2212.094       8206.254       15533.32
       18392.87       12442.89       3632.139      -2742.732      -8325.670
      -5020.891       2697.796       4743.114       5316.980       2022.555
      -8121.094      -12211.71      -5227.084       106.5566      -2364.361
      -7051.461      -10690.70      -8304.752       1922.369       8524.500
       9729.622       6988.453      -1835.609      -10845.40      -13832.60
      -10045.47      -4272.317      -168.5898       4769.600       6776.091
       2393.951      -1202.688      -2249.655      -551.0059       2874.994
       8600.959       11981.31       5867.505       1939.628       2413.621
       1236.406       914.5957       3084.954       4313.577      -655.1836
      -5724.449      -5012.410      -5663.237      -6275.891       80.34570
       9988.939       12124.53      -2362.961      -16126.24      -10118.71
       572.8330       1803.250       6404.355       13999.03       8733.545
       1108.867      -566.0742      -4237.668      -8825.613      -7033.369
       513.4448       3156.731      -2500.482      -7753.909      -6807.194
       997.4258       8196.889       4934.920      -1276.162      -3253.891
      -5394.448      -5293.639       601.4023       7183.920       9307.040
       4522.600      -2421.896      0.9172363       1513.698      -3789.734
      -1460.705       983.7910      -3537.008      -7015.627      -8010.087
      -4997.970       1994.830       7031.750       8950.934       10406.45
       4170.047      -4537.345      -5070.426      -3819.133       513.6133
       3853.567      -2753.615      -6945.535      -5551.879      -3927.456
       690.8838       4235.315       3095.654      -83.42480      -2987.641
      -7056.439      -6276.455       2795.855       7550.415       4042.327
      -1137.486      -2465.524       140.5366       2443.692       1666.755
      -1166.604      -4245.396      -3174.164       3634.764       8162.069
       6176.163       3188.571       642.2520      -3184.941      -2953.954
       1102.521       1217.732      -1395.085      -1356.956      -605.6570
      -1183.959       1212.159       1801.956      -1246.205       1004.785
       3002.493       412.9614      -2020.837      -4010.319      -1618.692
       990.7793       628.2773      -636.3184      -4319.675      -3079.030
      -1519.021      -3721.314       707.3828       4194.711       1281.921
       373.8403       2572.315       2978.109       81.45459      -2268.501
      -2103.929       521.5636       704.6631      -2420.128      -3107.812
      -3158.964      -3070.425      -846.3915       173.4336      -943.3960
       104.2466       2047.179       2074.339       1963.751       965.2188
       195.9858       1943.340       1494.783       125.6040       1569.004
       2030.396      -2272.882      -5942.975      -4373.701      -1558.764
       2085.715       5290.179       3300.458      -2697.116      -5314.873
      -3199.262      -590.6191       2230.158       4342.060       3858.872
       1705.118      -1684.998      -6654.003      -5966.962       1250.449
       5082.767       3642.649       204.6191      -2141.114      -4175.680
      -3868.838       2608.681       5062.274       3477.654       3438.003
       1549.042      -4318.191      -7235.768      -1452.677       1195.149
      -646.9723      -270.5970      -518.7683       102.2358      -1071.054
      -4732.923      -3706.181       503.9297       3480.937       5194.131
       3143.090      -3776.000      -9589.982      -8874.219      -2429.633
       4273.411       5229.245       2565.481       2599.395       3203.826
       2023.359       3459.023       5767.821       4823.627       366.1562
      -3995.404      -1530.449       2699.480       2327.670       547.0469
      -1181.984      -2699.198      -609.6001       2240.290       310.9302
      -1513.091      -3780.549      -5192.492       241.0723       5773.038
       4461.715       424.6038      -1362.551      -768.6396      -2605.505
      -3810.962       717.3145       3461.605       1096.520      -763.6572
       1953.144       3521.189      -462.3262      -3634.453      -855.6797
       5673.037       9167.893       5576.688      -2390.609      -4200.582
       236.9792       813.5947       1820.197       4052.299       1584.368
      -1076.949      -1920.295      -1386.507      -269.6885      -891.1737
      -756.5107       1164.288       3387.423       3586.511       527.4180
      -3319.176      -5045.418      -1998.771       830.8873       451.9282
       863.1738       1910.699       2578.803       2127.993       1198.835
       2139.422       4525.439       4585.517       1594.725       1171.824
       976.9269      -698.5839       309.8588       992.3047      -1368.074
      -2773.592      -975.6138       1650.354       2464.078      -1565.350
      -7800.168      -7899.133      -3138.659      -73.94580       1407.248
       845.4888       279.0762       3578.037       4508.678       1339.634
      -773.3442      -1649.543      -1019.833       1250.872       802.2285
