     0.02500000      -44135.95       53169.54      -12345.00      -12345.00
      -30.00001       217.7500      -18.40000      -12345.00      -12345.00
       0.000000       13.86000      -12345.00      -12345.00      -12345.00
      -12345.00      -12345.00      -12345.00      -12345.00      -12345.00
      -12345.00      -12345.00      -12345.00      -12345.00      -12345.00
      -12345.00      -12345.00      -12345.00      -12345.00      -12345.00
      -12345.00      -31.57700      -67.87020       833.0000       0.000000
      -31.59500      -68.73200       0.000000       105100.0       0.000000
      -12345.00      -12345.00      -12345.00      -12345.00      -12345.00
      -12345.00      -12345.00      -12345.00      -12345.00      -12345.00
       81.82251       88.82695       268.3777      0.7356941      -12345.00
      -12345.00      -1.376151       90.00000       90.00000      -12345.00
      -12345.00      -12345.00      -12345.00      -12345.00      -12345.00
      -12345.00      -12345.00      -12345.00      -12345.00      -12345.00
      2008        13        10        50        45
       800         6    -12345    -12345      9911
    -12345    -12345    -12345    -12345    -12345
         1         7        13    -12345    -12345
    -12345    -12345    -12345    -12345    -12345
    -12345    -12345    -12345    -12345    -12345
    -12345    -12345    -12345    -12345    -12345
         1         1         1         1         1
NIKI    -12345          
        -12345  -12345  
-12345  -12345  -12345  
-12345  -12345  -12345  
-12345  -12345  -12345  
-12345  -12345  -12345  
-12345  -12345  BHE     
ZL      -12345  -12345  
[...]
      -79.94759      -67.88947      -76.41840      -60.23340      -70.40025
      -55.02016      -61.08794      -44.06441      -53.37726      -41.80273
      -52.11327      -35.41494      -46.90683      -34.13528      -40.65222
      -26.78314      -35.09956      -21.08150      -33.78565      -23.52019
      -29.98779      -16.04837      -30.90069      -23.11448      -31.41319
      -17.35435      -26.13308      -9.196777      -17.37265      -3.820074
      -9.027375       8.725981      -1.712345       8.952597       1.111240
       16.52643       5.840214       20.67616       13.45184       27.27750
       20.62816       36.36382       25.28535       37.25606       28.74789
       42.31597       34.05545       46.82224       32.27306       41.58992
       33.13681       47.92419       34.37257       43.57666       32.27312
       46.98480       33.65613       44.24176       32.65900       48.14030
       34.94630       41.94830       24.51435       32.63007       17.79752
       29.37992       14.60239       27.10259       14.08039       22.13850
       5.291492       14.28644      -2.615665       5.369862      -12.63533
      -8.800995      -25.81320      -15.38884      -32.32330      -26.75204
      -46.75092      -38.38847      -55.30331      -48.10548      -64.12112
      -55.68173      -78.69696      -72.28247      -90.38348      -83.23907
      -101.7131      -91.29614      -106.5367      -98.93958      -121.1304
      -112.6072      -127.6971      -118.2062      -135.8943      -124.5543
      -140.0803      -129.1953      -143.8474      -135.2146      -151.0972
      -137.4494      -157.5811      -151.3802      -164.8505      -149.4956
      -167.4506      -157.6244      -174.7112      -161.7652      -174.0148
      -161.4519      -177.1699      -165.9939      -181.7336      -166.0686
      -180.3420      -167.3742      -179.5339      -165.1160      -177.8950
      -159.6392      -170.4353      -154.5150      -167.4630      -148.1739
      -159.6393      -142.9047      -154.7061      -138.5111      -145.7147
      -127.0862      -142.2262      -123.8079      -135.9413      -117.8192
      -126.1447      -109.3084      -119.0367      -101.5046      -114.3258
      -96.37357      -106.0775      -91.98129      -102.6326      -86.60495
      -97.95920      -80.04449      -89.69293      -77.41153      -87.32486
      -68.61060      -78.32034      -62.43022      -72.71588      -57.69972
      -68.09506      -53.56934      -64.82629      -47.15939      -55.88608
      -41.41306      -52.67482      -34.85927      -43.77601      -28.87161
      -38.90479      -21.00229      -29.59767      -13.48588      -23.37825
      -5.251776      -14.30673      0.7291670      -7.157539       14.97574
       6.055130       19.59871       10.03455       30.96960       25.87465
       44.83176       34.91275       51.99310       48.37543       68.79004
       61.00183       78.81181       72.20200       88.31693       82.77933
       102.5895       93.21866       108.6061       105.1958       123.9518
       117.1495       137.1966       131.0475       149.6882       145.5246
       162.1046       151.1197       169.6451       162.7437       181.0913
       173.2362       196.2633       187.1750       205.1926       196.0939
       217.0870       207.8773       231.0668       223.9431       242.5273
       231.6887       252.8917       241.6599       258.7444       245.7444
       261.0074       247.3253       267.0881       255.7691       268.6832
       252.8282       268.3861       253.0946       265.2047       252.4943
       262.3130       246.3221       260.2467       248.6721       257.4026
       240.3260       250.6206       236.6869       246.7495       230.9413
       239.6902       222.0569       230.1848       213.1400       221.0410
       203.6812       213.5532       191.1729       197.1654       176.2136
       184.2336       161.9234       169.1548       148.4396       155.9323
       134.5663       141.5147       118.4196       125.0424       102.2072
       110.1814       90.39822       99.15564       74.70865       81.45792
       61.69289       68.22044       44.49773       45.82721       20.60493
     -0.8332520      -184.3599      -457.6987      -829.3809      -1666.822
      -2272.560      -1953.007      -1206.660      -711.3109      -663.6152
       1563.666       1275.715      -873.8706       1561.878       2063.508
       794.7083      -572.7251      -1732.264       1065.594      -5.766113
      -2976.406      -90.62622       1236.116      -1056.796      -722.0161
      -2034.924       65.25781       5881.932       1595.797      -2238.052
       1648.055       1441.925      -2237.993      -2268.869      -143.7373
      -467.6353      -1630.384      -1413.657      -675.3850       1072.075
       2570.946       158.1011      -954.3955       1211.801       1570.043
       1027.695      -1296.140      -2478.602       880.7612       1275.953
      -625.4106       263.7013      -318.8313      -988.2693       466.7883
      -696.9924      -262.9783       524.3125      -2761.835      -1330.361
       3302.479       2205.454      -97.31445      -208.0880      -233.5008
       350.1976       33.19739      -942.5635       340.0649      -827.6650
      -3098.911      -2127.767      -871.2280       286.9731       1164.598
       1327.305       183.3687      -338.1074       863.9609       1243.258
       1848.398      -40.45923      -1099.058      -249.1311      -1405.358
      -404.8137      -117.3168       305.9048       1439.077      -462.7681
      -1099.024      -1978.685      -2231.624      -524.7394       483.1683
       373.8964      -554.9077       185.4016       215.2915       619.4849
       2195.587      -192.1723      -666.5005       580.3650      -219.1471
       332.7310       262.7334       834.7589       1113.723      -1723.552
      -1688.643      -603.2110      -448.4033       741.5536       702.1095
       329.5259      -681.4028      -1421.080       426.3208       1064.601
       1652.028       1603.885      -1081.165      -1357.850       53.35986
      -1090.423      -2334.345      -650.3317      -51.84967      -343.3262
       1669.979       2948.291       2563.841       166.7841      -1105.021
       776.8342       344.6245      -916.4441      -535.4352      -543.1362
       443.8092      -40.70801      -1064.712       133.1720       398.2842
       444.0143       496.2439       392.7144       1413.529       2167.654
      -57.31055      -2318.045      -41.40295       849.0134       221.3670
      -101.0590      -436.0026       659.7165       70.54346       36.27759
       1482.841       79.69885      -990.6641       197.3499       894.2949
       13.29761       675.3286       2198.082       266.6978      -626.1634
       16.42017      -634.5502       100.8224       190.4460      -488.3752
      -110.6562      -750.3428      -1248.140       1143.669       2042.870
      -88.29895      -847.7964       538.0811       1671.904       581.3748
      -560.9702      -935.6724      -1603.379      -964.0972       38.82356
       42.27309      -43.38898       3.394714       109.3026       546.5876
       13.50800       240.0815      -353.1133      -2949.730      -2410.089
       222.2471       2939.846       2890.281       14.00598      -396.4803
       438.8245       932.2061      -698.7571      -1352.980      -859.7576
      -2029.548      -40.93890       509.7084      -709.3591       486.3984
       325.5765       558.8235       301.1321      -1048.848      -670.0869
      -409.9349      -598.6006      -643.2236      -960.1682      -627.8772
      -709.5820      -680.6140       104.2656       1241.177       1547.657
       896.6747       434.2905      -1589.352      -2043.894      -149.4679
       446.9888       761.1405       694.6868       517.1995      -717.0562
      -1835.055      -340.1506       942.7695       321.8304       58.44971
      -946.9941      -2889.117      -1769.695       963.2495       1054.862
       495.5178       446.8643      -485.5125      -251.5889       1174.130
       1350.308       48.86865      -1330.442      -1679.146      -956.2863
      -372.9238       26.99097       832.8037       827.2935       1543.569
       2450.620       1377.145       169.1559      -609.9614      -666.4893
       101.1342      -80.74463      -878.2004      -1260.994      -708.0304
      -609.1101       180.2446       1630.081       1397.067       1010.700
       513.3816      -471.0005      -95.62402      -618.9502      -2847.838
      -1220.817       1897.356       1289.113      -86.62695      -1157.825
      -1698.282      -1908.897      -2328.377       453.1299       3803.363
       3292.514       1847.672       1114.853       542.0853      -297.1729
      -203.1472       1182.979       1391.931      -1358.027      -3278.685
      -1950.271       22.52710       1577.525       508.5415      -999.0471
       1170.633       2181.105       157.8073      -233.6584       143.2559
      -2397.730      -2760.350       614.7810       1207.510       409.4067
       861.3116      -256.3545      -2014.146      -1264.786       1052.948
       1127.867       9.839355       953.0764       1070.963       252.3999
       1152.086       86.08618      -1584.469      -630.3735      -246.2894
      -176.1111       160.1076      -311.1937       137.8804       109.6421
      -1566.046      -591.0780       651.6013      -787.4067       1355.476
       2606.371      -657.0510      -578.5815       356.5120      -596.3839
       595.4062      -801.0845      -3055.059      -681.0522       973.0259
       1265.405       1124.835       493.2106       541.0903      -1552.805
      -2627.088      -1839.568      -1920.277       243.2803       2248.026
       2755.642       1895.155      -110.0842       851.0933      -369.1445
      -3951.940      -3435.430      -895.7615       978.4835       292.8191
      -995.5127       590.3325       2221.865       2631.230       1903.234
      -331.5779      -868.8713      -240.0425      -1824.559      -2328.229
      -1689.074      -2281.634      -2173.392      -1691.086       711.1758
       3605.022       2537.696       791.0645       974.8093       537.6484
      -1845.326      -2606.023      -454.0571       1104.702       1226.957
       707.0493      -323.5202      -282.1037       67.07056      -696.5166
      -510.2001       120.2209      -627.6162      -2743.163      -2463.006
      -187.6160      -637.8656       41.36304       1055.351      -856.7822
      -1370.855       1256.813       2323.729       320.2371      -536.4124
      -440.8413      -1381.315      -911.8799       1119.912       1387.833
       682.7705       1792.548       2266.043       218.9092      -1147.793
      -1501.881      -1292.778      -417.1016       315.1025       1696.633
       1664.571       452.9031      -686.3843      -1561.525      -1244.423
      -1382.440      -476.6211       1310.382       1655.033       1667.328
      -398.1592      -2264.202      -826.3802      -552.0984       380.0732
       3214.880       3147.998       591.7139      -1982.933      -2592.610
      -2334.125      -491.4102       2239.588       1385.020       840.9058
       1514.134       1430.180       1094.634      -1156.555      -1412.785
       328.5400       896.6157       2186.827       1303.769      -1101.482
      -1282.181      -838.1247      -59.21985      -106.0063       715.7502
       1688.533      -1055.129      -1996.350       56.00146       1143.651
       786.8152      -1030.943      -2005.405      -623.6914       1841.919
       2565.374       2564.932       2239.605      -495.4160      -1442.039
      -1413.550      -1617.865       654.3552       462.4899      -11.32227
       1937.915       1084.291       456.1534       724.8213       179.4751
       673.1978       651.7993       1044.687       1776.341       222.1548
      -1953.149      -1425.098       7.024109       79.04346      -288.2268
      -810.9108      -99.08057       1451.346       1678.012       478.2461
      -812.4956      -2686.695      -2013.570       1035.906       678.3242
      -691.4673      -48.29132       527.8480      -374.6099      -114.0823
       1339.889       457.9620      -557.1246      -442.4079      -174.3274
       696.4537       576.7201      -103.3110       68.48535      -488.2549
      -2919.468      -3051.736       687.4531       2367.644       2315.665
       2100.938      -771.8516      -2437.892      -324.9089       1332.680
      -287.8496      -3625.810      -4863.769      -3428.192      -1527.010
      -218.7905      -1235.154      -3122.744      -3147.165      -874.7695
       3673.559       7093.199       10137.15       12301.92       7884.882
       1598.526      -1675.234       2766.695       19313.08       39664.97
       53169.54       44936.95       13569.32      -22315.78      -44135.95
      -41326.14      -23768.03       475.4297       22207.72       17341.58
      -11328.62      -32719.27      -23149.07       65.27637       4247.627
       1300.127       4852.476       1725.277      -12348.96      -30954.19
      -38332.92      -19111.13       16846.55       37115.54       32059.13
       14659.00      -7767.496      -18774.07      -9525.165       113.6523
      -8979.180      -16584.48      -2118.844       19862.10       32735.12
       26881.90       11474.51       3190.384       1575.150      -2251.297
      -10241.72      -19691.20      -23998.70      -17846.52      -16420.46
      -18088.68      -7241.811       6937.805       15983.12       13457.90
       10457.73       20573.28       18903.85      -1107.383      -14867.72
      -12494.44      -9681.084      -8800.994      -1966.562      -5234.488
      -16595.69      -7829.143       12995.84       9158.713      -7347.980
      -11053.75      -5513.430       9271.824       20686.64       14919.82
       2598.200      -814.8357       1549.766      -6796.535      -20965.21
      -17740.50       681.4160       9505.710      -869.8066      -9987.323
      -2446.403       3921.074      -73.63574      -4181.391       3286.387
       13655.10       10858.28       5867.488       159.1328      -10063.78
      -13358.53      -8261.909       908.1113       6832.559       9899.973
       15336.90       9628.089      -4743.398      -6656.867      -3450.410
      -7637.328      -5234.369       6960.600       13350.69       2234.902
      -14181.58      -13281.75      -2110.225       8943.758       15038.02
       9388.865       2256.525      -4672.586      -14988.82      -16803.54
      -8574.207      -2750.607      -1599.688       3397.266       7023.582
       7062.201       10595.17       9662.209       6822.293       6652.894
      -507.8867      -9939.438      -9784.490      -5949.140      -4652.194
      -2704.284      -2997.746      -6183.760      -8179.167      -4412.816
       6563.086       16884.45       17294.71       7358.959      -5956.648
      -14950.24      -13345.21      -8413.760      -8194.195      -7188.679
      -6305.116      -3691.574       5048.391       10153.26       12063.48
       14512.30       8138.592      -994.9878      -1049.638       2412.803
       4436.594       7535.613       7227.348       3710.420       5806.669
       5354.129      -1545.992      -3935.977      -3572.824      -5923.434
      -8837.656      -12248.35      -10902.91      -4422.246      -103.8555
       7707.875       17162.27       16483.54       6700.027      -1883.967
      -4955.305      -7540.785      -5810.972       1952.319       4805.714
       3371.827       593.3223       424.8301       7108.985       6755.617
      -160.7441      -4360.098      -11421.52      -15626.43      -9931.957
      -5413.585      -1747.890       5694.947       4040.052      -2523.836
      -3244.647      -2920.479       268.3320       8483.871       14336.96
       7458.654      -4528.453      -5470.518      -562.3789      -2094.527
      -8085.256      -7571.022      -3058.750      -1206.895       2986.346
       5352.360       2227.451       2703.501       5566.113       4498.102
       5671.229       6936.660       4035.450       4232.016       7094.980
       7734.065       2963.150      -3390.982      -2885.666       2310.844
       9592.871       11328.86       1056.617      -8088.074      -12811.96
      -19512.21      -21249.64      -13952.65      -4245.584       2638.588
       7399.398       8646.207       3228.617      -4452.086      -2357.522
       4220.631       4466.188       3961.396       1556.597      -2901.959
      -3220.786      -503.9033       3381.794       3897.597       3350.309
       7042.527       9265.309       6720.857       960.8320      -4867.904
      -6899.854      -6063.280      -4870.848      -3456.607      -3855.893
      -8001.312      -5787.471       4461.793       7799.848       3378.186
      -1712.477      -7035.486      -11077.60      -10399.40       572.0000
       14611.58       16001.79       7963.588       1087.662      -2761.859
      -2454.744       159.3250      -89.04785      -2417.145      -2933.187
      -2131.174      -2697.732      -3911.865      -3588.051      -4617.266
      -4555.980       1760.666       8442.006       10118.55       6726.760
       26.18066      -1506.660      -57.05566      -2419.509      -1292.856
       1427.824      -273.7957      -874.7368      -539.6313      -557.6562
      -1571.814      -4308.306      -4827.339      -2014.751       2805.975
       4260.332       2333.741       1698.926       556.8062      -185.8579
       257.1357       2389.488       3022.895      -2719.494      -6115.600
      -2332.938       2256.628       3239.262      -2000.965      -6761.453
      -1007.658       7287.322       5941.615      -780.4785      -5416.885
      -5603.629      -3581.818      -2517.449      -157.4443       4451.712
       3675.740      -2965.035      -3998.285       344.5938       6246.955
       11843.37       8207.057       1643.829       413.2852      -792.4229
      -2593.557      -2681.437      -3361.939      -7435.316      -9183.477
      -3215.503       215.7109      -2300.795      -1194.299       3140.467
       7101.865       10531.71       7960.220       1154.620      -1467.750
      -2231.265      -3813.290      -2663.586      -1997.507      -4954.795
      -6489.428      -5711.827      -4184.515      -2162.324       3270.590
