     0.02500000      -53198.12       36843.93      -12345.00      -12345.00
      -30.00001       217.7500      -18.40000      -12345.00      -12345.00
       0.000000       13.86000      -12345.00      -12345.00      -12345.00
      -12345.00      -12345.00      -12345.00      -12345.00      -12345.00
      -12345.00      -12345.00      -12345.00      -12345.00      -12345.00
      -12345.00      -12345.00      -12345.00      -12345.00      -12345.00
      -12345.00      -31.57700      -67.87020       833.0000       0.000000
      -31.59500      -68.73200       0.000000       105100.0       0.000000
      -12345.00      -12345.00      -12345.00      -12345.00      -12345.00
      -12345.00      -12345.00      -12345.00      -12345.00      -12345.00
       81.82251       88.82695       268.3777      0.7356941      -12345.00
      -12345.00       1.585615       0.000000       90.00000      -12345.00
      -12345.00      -12345.00      -12345.00      -12345.00      -12345.00
      -12345.00      -12345.00      -12345.00      -12345.00      -12345.00
      2008        13        10        50        45
       800         6    -12345    -12345      9911
    -12345    -12345    -12345    -12345    -12345
         1         7        13    -12345    -12345
    -12345    -12345    -12345    -12345    -12345
    -12345    -12345    -12345    -12345    -12345
    -12345    -12345    -12345    -12345    -12345
         1         1         1         1         1
NIKI    -12345          
        -12345  -12345  
-12345  -12345  -12345  
-12345  -12345  -12345  
-12345  -12345  -12345  
-12345  -12345  -12345  
-12345  -12345  BHN     
ZL      -12345  -12345  
[...]
      -64.53017      -60.14638      -61.68164      -62.29802      -66.38152
      -60.79987      -59.17125      -51.50958      -53.28723      -49.18471
      -47.98051      -39.21645      -38.73740      -34.16367      -31.47813
      -22.81876      -24.14649      -22.04366      -19.56161      -11.36419
      -10.71151      -5.143531      -5.594086       2.987220       4.527172
       6.868423       11.01634       22.80631       25.37302       29.15554
       33.51419       45.64615       47.06287       51.88606       57.65250
       70.09041       75.37650       81.11516       79.39563       87.82642
       92.62607       100.9348       97.91293       105.2987       109.5137
       122.8347       116.6675       124.0354       125.3068       131.9293
       125.3760       134.8035       130.4056       136.2433       133.2474
       139.6223       133.0495       141.1033       136.2634       137.2260
       128.1367       130.1934       123.3228       127.9698       120.6654
       120.6508       112.8294       116.7114       108.4420       108.4334
       99.40381       100.3824       94.09485       95.62155       87.96561
       88.95897       79.73854       84.49315       74.97568       70.55682
       61.77060       59.08434       48.14148       47.91613       35.71148
       35.55802       27.55695       26.55479       15.89405       17.20007
       7.171981       8.162163      -5.783092      -6.214622      -12.70554
      -8.021179      -20.82925      -21.56578      -31.09560      -27.23373
      -35.81883      -31.39293      -36.77292      -31.64857      -39.46605
      -32.33211      -38.02956      -31.80943      -33.65694      -22.74651
      -30.71798      -24.94822      -28.40636      -19.84963      -25.01354
      -13.74925      -14.03120      -5.923425      -7.605352       4.762913
       2.717228       13.49184       10.10219       20.31731       21.51849
       31.18882       31.50374       44.93690       41.68970       48.86093
       47.29274       60.35271       58.78140       63.28694       63.82439
       73.91875       73.98340       82.82970       77.71915       87.05969
       84.76654       88.30865       86.92682       95.70285       89.83014
       95.11618       90.22534       97.21115       95.10864       97.49469
       90.35626       95.25742       91.41251       96.03156       88.56076
       90.95477       84.97922       88.11548       76.04556       76.86316
       67.45316       71.63425       63.40570       67.37001       54.04762
       54.46947       44.01283       48.86201       38.22853       39.75026
       26.02563       32.24290       24.59477       25.15123       12.45008
       22.95212       11.57294       11.03003      -1.491067       5.518462
      -4.223243       1.147615      -10.37460      -7.819813      -16.91146
      -9.162849      -18.41211      -14.92307      -24.26454      -18.97987
      -26.91266      -23.72492      -34.16371      -27.44659      -31.95123
      -26.33702      -36.04140      -26.74121      -31.21207      -25.36882
      -33.32445      -24.95448      -31.63230      -23.65166      -29.01051
      -24.65771      -29.28552      -21.86388      -28.52783      -23.20358
      -31.33688      -27.30292      -35.61419      -29.79996      -38.65524
      -35.83011      -45.90146      -39.70012      -47.49551      -42.46616
      -51.97487      -48.87405      -58.67964      -51.74550      -62.27612
      -58.70853      -66.64630      -60.02481      -67.99750      -63.29614
      -74.02829      -71.00427      -81.37463      -79.06561      -90.14682
      -82.96320      -89.07788      -86.31409      -96.57465      -92.22021
      -99.67148      -97.13666      -105.1334      -100.5545      -108.2959
      -105.0843      -112.8776      -107.8622      -113.2219      -111.2216
      -118.3932      -111.0545      -115.3291      -110.5456      -114.2314
      -107.8209      -111.6316      -106.1478      -111.6510      -104.9737
      -120.0713      -106.3617      -28.24413      -30.00719      -5.484802
       230.8971      -251.0342      -1011.986      -991.6849      -394.7542
       227.7840      -370.0596       1190.194       3011.761      -1269.934
      -1686.507       2532.021       543.4819      -2284.995       232.6035
       2082.174      -2435.148      -2872.981       2611.641      -1022.046
      -5459.475       612.4534       1563.762      -3111.444       2090.595
       5074.842      -1533.328      -1823.550       3719.197       2532.812
      -1967.316      -748.4277       2319.346       2146.671       373.1455
      -2819.818      -4615.042      -2266.829      -30.34766       1357.908
       2419.965       566.6321       18.89355       336.6777      -2170.460
      -1370.721       2410.548       1584.441      -3252.501      -3186.583
       1164.097       819.4221      -715.8464       445.8901       434.3663
      -485.0908       1478.602       3270.385       252.0732      -1708.042
       505.5342       1890.012      -392.2959      -2279.455      -1687.776
      -285.9854       787.4966       220.1985       53.86792      -268.8257
      -1103.544       77.36938       1562.001       454.7073      -777.7034
      -32.60669       918.5083      -661.4175      -2034.882       1199.448
       2793.831       401.9111       700.8337       506.9761      -1522.682
      -1843.062      -1355.935       426.7405      -133.5830      -1765.902
      -606.1738       552.3457       2199.649       2290.355       101.1053
      -764.3693      -346.3015       114.3218      -714.8623       597.6934
       2747.558      -646.7324      -3073.981      -549.5737       1050.280
       1281.956       1185.150       1319.761       1811.338      -370.8706
      -2482.800      -2122.042      -389.8975      -412.1094      -758.4326
       2676.714       2753.781      -1157.082      -1445.373      -235.3136
       23.08167      -238.3833      -1307.635      -603.1560       596.9724
       158.9150       120.0474       1842.266       2585.763       1159.672
       115.8298      -42.32007      -645.1128      -2118.018      -540.1475
       1687.522       756.4915       1448.640       1058.168      -533.9534
       503.8863       100.8040      -717.6478      -94.30750      -256.3513
      -927.5032      -12.28680       195.0547      -778.3613       1459.061
       2974.304       968.3555      -58.95557       959.9419       2273.627
       282.3545      -1923.065      -367.1982      -778.2378      -1985.941
       299.7097       1774.517       186.5193      -511.9931       250.5900
      -232.1680      -177.5366       1530.006       1620.584       610.6086
       543.2762      -567.5778      -122.9316      -718.3193      -2837.999
       183.9087       2131.639       104.5138      -660.6074      -232.6489
      -595.0554       199.7476       2870.810       1765.543      -1147.833
       86.60767       1650.472      -149.8281      -1896.540      -1359.065
      -374.0850       1036.821       945.8540      -1093.327      -881.8472
      -884.3513      -1504.576       43.66406       1552.567       774.3926
      -1608.215      -1021.643       1719.730       914.7145      -329.8007
       364.2300      -202.7275      -1526.428      -1751.425      -215.9275
       822.0996       1104.856       2624.210       1191.490      -1942.352
      -2675.628      -2411.158      -988.4618       211.4257      -199.6866
       197.7329       1222.525       201.7692      -670.2344      -449.8826
      -1175.772      -721.2661       1312.929       1025.284      -840.6006
      -790.5093      -939.0054      -2019.810      -1299.849      -111.6829
       204.2641       400.8922       14.53735       231.4787       141.2692
      -781.6003      -258.6825      -441.9497      -1012.872       314.8523
       1044.731       146.6565       280.4604       1587.309      -289.5225
      -3012.561      -1793.494      -473.2078      -537.3433       999.5557
       2186.335       789.8877      -137.5493       519.5593       1014.877
       566.6036       468.1642       525.9380      -1947.745      -3343.424
      -1542.731       697.9868       2286.979       665.7041      -1282.131
      -928.5566      -1867.034      -1110.956       1639.871       2486.671
       1384.323      -237.9453      -2151.728      -1306.376       2997.292
       2093.458      -774.5079       340.4233       1954.562       1924.679
      -1041.983      -2792.970      -1612.764      -1937.171      -1700.224
       1483.396       2527.639       947.4404       448.3896      -132.4209
      -1903.423      -1544.912       1285.609       1591.848       237.2206
       613.0371       31.53687      -1002.780      -176.5507       454.7004
       121.9077       603.1602       2247.897       1273.782      -1138.704
       490.4380       2109.684      -648.5771      -2105.693      -441.0164
      -984.3203      -1192.521       1461.948       2083.536       482.1386
       35.72485      -331.9128      -511.8762       675.7366       1120.868
       1247.962       1928.788       1907.198      -786.6162      -3937.767
      -3505.378       225.3872       2311.139       881.2693       890.8030
       1015.488      -193.7458      -57.66290       332.2305      -789.2740
      -816.7329       953.7169       152.7844      -1119.410       250.6431
       681.3535       940.3403       2400.058       1039.330      -1344.895
      -1555.858      -745.0124       244.4421      -214.1899      -873.0720
       984.5366       2045.414       1044.353       319.9062      -1515.058
      -2371.692       96.31836       2221.611       816.0658      -160.5645
       2320.229       714.4346      -4136.488      -3732.745      -144.0767
       1504.140       1378.915       2122.667       1821.391       62.73511
       1215.668       507.9609      -3456.775      -2784.676      -736.7188
      -1688.239      -285.0786       2247.380       130.2554      -2616.329
      -875.7949       2378.070       3875.979       2509.973      -1473.366
      -3106.884      -1209.560      -467.2028      -57.37012       1122.408
       1618.141       527.8950      -2106.110      -1925.276       447.1093
       846.3761       247.4726       59.46729       552.7686      -1109.628
      -1940.685      -262.8237      -1728.764      -904.5249       2136.315
       620.7319      -1835.470      -2305.225      -1801.194      -10.07031
       2589.408       2121.011      -341.5431      -791.0646       375.8049
       1373.633       469.3232      -887.8840      -851.7799      -507.2641
      -80.28406       372.0711       137.6950      -117.1218      -598.9707
      -2579.376      -1763.774       1752.552       1910.961       1687.298
       1759.677      -676.3901      -2652.746      -2303.077       52.84802
       702.8047      -1620.693      -2121.239      -161.3926       1072.476
       1305.744       1663.863       1160.443       72.71973       361.8108
       534.5274      -321.6926      -168.2861       1081.000       174.6621
      -2451.026      -3118.843      -1002.737       1653.845       848.6604
       444.6580       1858.494       127.0641      -958.5361      -227.2197
      -372.4490      -358.2922       6.335205       1386.249       876.6064
      -1378.326      -38.32471       1100.782      -854.0631      -373.8657
       2376.875       775.8250      -1369.590      -869.7549      -1439.698
      -649.3225       1113.779       517.2517       428.1003       1239.866
       266.3098      -737.1963      -1778.728      -2390.603       407.4834
       2587.966       1013.667       332.9690       1634.435      -454.2959
      -4269.005      -1393.395       2375.491      -603.1530      -962.2578
       2326.949       1053.376      -1026.850      -725.2710      -433.3665
      -321.8210       65.47681       573.0398       621.4774       591.5275
       518.1287       456.6346       698.0754      -504.5327      -2365.994
       37.76904       2481.410       1219.546       1033.586       1095.259
      -470.2552      -843.2198      -191.9957      -84.61328      -1029.976
      -2582.016      -2592.125      -915.8931       433.6064       417.9224
       859.5374       1129.188      -449.7247      -292.1465       1274.951
       669.8632       112.4033       1442.550       1098.484       437.9504
       1069.703       146.2646      -1278.358      -2123.251      -849.9229
       1031.982       1055.767       1499.208       2757.008       3043.644
       228.7402      -5285.422      -11942.55      -18154.69      -16619.79
      -6443.279      -1373.996      -9285.082      -16976.02      -11047.60
       5499.805       26850.88       36843.93       24934.45      -447.1289
      -20862.82      -18688.24      -4164.980       9305.254       17947.89
       14673.14       3505.351      -6112.539       4726.141       33031.60
       29993.81      -16271.48      -53198.12      -42972.12      -5615.547
       25995.52       33084.94       14976.00      -2448.121      -16601.03
      -17071.16       5477.722       7255.508      -20985.08      -32114.60
      -2494.316       24871.68       17393.70       654.5352      -542.4512
       9997.887       11931.72       4759.966      -228.4805      -5926.266
      -14999.62      -14557.34      -5257.426       2827.174       8853.607
       2123.605      -6509.751      -2082.451       6664.207       17305.30
       18192.82       1085.910      -14812.32      -13244.55       4118.406
       21019.60       20679.70       574.6055      -17888.12      -13252.60
       2090.582      -5869.086      -23080.15      -5970.180       11017.95
       6538.367       8441.447       3785.559      -11686.66      -16525.20
      -2866.109       6848.821      -2995.208      -7687.472       820.5762
       7425.256       6842.684       5568.066       14990.18       19994.49
       6272.188      -12907.17      -19122.47      -6633.288      -1591.148
      -4156.498       2363.355       2281.941      -2234.243       1446.664
      -1198.031      -10812.28      -3183.211       9882.949       5331.796
       2378.762       9094.658       7922.747      -445.6060      -1796.955
       5034.901       2769.762      -4606.232      -1603.774       1415.652
      -4164.238      -10246.42      -8723.491      -5493.452      -1620.699
       6949.717       8879.635       5537.613       8125.258       8229.165
      -580.4180      -7319.223      -6594.252      -8075.386      -7872.843
      -250.0254       5245.269       4310.017      -4304.037      -9424.178
      -3642.537       6323.990       11550.46       8407.307       2886.395
      -6737.109      -10855.68      -3748.938       5059.883       12857.23
       11922.84      -2648.984      -15932.42      -10951.90       957.7031
       7303.945       8670.945       6394.041       9126.168       7175.518
      -2788.053      -6099.397      -3673.035       1979.092       3836.227
      -206.9531      -4245.020      -9307.889      -8908.562      -5020.309
      -7137.237      -4623.931       6652.724       7245.281      -1993.575
       1103.035       7909.239       805.7861      -3965.643       1342.500
       3101.112       2267.886       1058.996       633.8398       5913.191
       9619.139       8407.654       5426.621      -2657.922      -11435.02
      -12242.50      -7335.979      -5087.185      -5397.761       85.73828
       7413.305       7196.070       396.9165      -1553.268       3106.442
       1472.914      -2051.864       1911.202      -2508.191      -13235.88
      -4716.698       6781.418      -354.9990      -5463.180      -1827.153
      -343.7812       2921.285       7567.817       4956.910      -3705.245
      -4071.592       3778.013       3693.929      -1665.778       1326.708
       5486.857      -2992.074      -12082.37      -8442.602      -1589.643
       2115.770       4764.642       2140.037      -3234.903      -2521.969
      -389.1767      -592.1665       318.0537       3773.162       8601.547
       7660.165       1778.563      -1577.169      -2996.525      -3423.173
      -1706.041       3754.960       6885.342      -91.27148      -5714.188
      -6070.667      -6068.249      -3906.387      -2632.143      -3326.657
      -2897.183       1828.379       7446.453       7442.146       1599.603
       727.3203       4618.466       942.3823      -3138.907      -1361.561
       2114.090       4313.786       3427.438       977.0879      -4333.332
      -10301.40      -10355.20      -2897.243       3277.258       2714.184
       870.9316       1072.996       6820.438       13847.37       11317.63
       1215.453      -10176.68      -16226.01      -9451.121       2268.395
       9897.004       9096.514      -29.12305      -6632.602      -11250.39
      -9848.183       4069.660       13853.83       7087.809      -7704.000
      -14339.27      -7874.368       2143.414       7691.809       9945.637
       7349.069       2433.090       234.8496      -3672.816      -4405.942
      -283.5811       1590.186       3529.981       5388.348       5547.955
       3498.100      -5774.574      -12094.86      -5891.527       771.3010
       769.2671      -347.4307      -3105.762      -8578.613      -8979.773
      -1849.574       5109.152       5288.045      -626.5664      -5415.262
      -883.5215       6905.344       8363.715       6281.705       5340.004
       5498.118       1679.195      -1951.333       585.0155       1556.812
      -1515.070      -5878.119      -9175.412      -7329.275      -1778.613
       2781.286       3892.793       3716.431       3117.258       212.2178
      -3293.493      -5232.539      -4588.029      -1994.289       794.2305
       2274.967       4111.953       5944.130       4562.489      -792.8115
      -5051.940       813.7920       6113.962       2398.234       1447.297
       877.8408      -3757.064      -3348.628       1073.500       3397.852
       5762.434       8519.484       6179.858       366.5312      -2767.742
      -5673.469      -6435.276       158.0791       3024.609      -1485.376
      -3394.459      -1599.775      -1259.882      -2905.518      -2496.626
      -1939.131      -5154.208      -6382.100       371.5713       3210.024
      -1201.437       813.8906       5204.726       852.0283      -4045.757
      -778.4963       1740.774       435.9662      -806.1748       1154.791
       5385.482       5115.234       2579.230       1338.627       515.1709
