     0.02500000      -9664.625       11374.43      -12345.00      -12345.00
      -30.00500       229.3450      -29.88000      -12345.00      -12345.00
       0.000000       22.25000      -12345.00      -12345.00      -12345.00
      -12345.00      -12345.00      -12345.00      -12345.00      -12345.00
      -12345.00      -12345.00      -12345.00      -12345.00      -12345.00
      -12345.00      -12345.00      -12345.00      -12345.00      -12345.00
      -12345.00      -31.19940      -66.74700       697.0000       0.000000
      -31.59500      -68.73200       0.000000       105100.0       0.000000
      -12345.00      -12345.00      -12345.00      -12345.00      -12345.00
      -12345.00      -12345.00      -12345.00      -12345.00      -12345.00
       193.8117       77.43584       256.4067       1.742610      -12345.00
      -12345.00     0.07376681       0.000000       90.00000      -12345.00
      -12345.00      -12345.00      -12345.00      -12345.00      -12345.00
      -12345.00      -12345.00      -12345.00      -12345.00      -12345.00
      2008        13        10        50        57
       280         6    -12345    -12345     10375
    -12345    -12345    -12345    -12345    -12345
         1         7        13    -12345    -12345
    -12345    -12345    -12345    -12345    -12345
    -12345    -12345    -12345    -12345    -12345
    -12345    -12345    -12345    -12345    -12345
         1         1         1         1         1
NOQE    -12345          
        -12345  -12345  
-12345  -12345  -12345  
-12345  -12345  -12345  
-12345  -12345  -12345  
-12345  -12345  -12345  
-12345  -12345  BHN     
ZL      -12345  -12345  
[...]
      -41.10864      -354.8588      -960.8062       83.68677       619.0392
       44.31836       670.1855       929.8171       257.6052       77.69849
      -282.8833      -872.2347      -583.3351       472.1227       492.0366
      -165.5912      -17.37805       372.0072       518.9976       782.8240
       610.4352       207.4382       118.7637      -1206.200      -2098.531
      -442.9841       1056.002       1325.239       486.1224      -345.3920
      -356.0870      -423.6678      -430.2703       517.5303       1276.419
       707.0287       271.7439      -652.6924      -2141.295      -1183.363
       764.8628       221.7079     -0.9096680       1128.314       586.5732
       895.3112       691.0887      -775.8740      -773.5161      -905.5203
      -842.5610      -535.4502      -544.9150       177.1260       1159.968
       511.1637      -730.3175      -292.4619       1130.567       973.6450
      -73.32214      -247.8411      -995.3279      -701.2728       216.5081
       490.7394       563.2119      -41.05493      -248.6599      -268.6909
      -185.0747       453.6565       833.4690       980.4023      -62.77832
      -1662.437      -1227.248       616.4138       1044.023       634.7402
       766.2286       13.22681      -821.2450      -555.9103      -196.6682
       640.6143       855.3767       134.5863       205.8213       925.4131
       433.8015      -831.7161      -731.5085       209.9227       404.9403
      -36.75644      -2.842102       282.8015       131.5455      -95.54132
      -242.3005       387.4746       1098.375       512.3289      -191.8212
       27.71942      -94.27869      -459.0823      -226.9463      -143.0814
       279.6755       1112.700       276.2651      -598.7658      -202.7590
       573.1752       868.5276      -160.9394      -136.8364       316.2009
      -337.7090      -92.71362       225.6669       282.7953      -32.47083
      -575.9225       245.7795       496.8943      -109.4617       103.1375
       157.5381       383.1818       364.7393      -261.3883       197.2532
       366.9726      -214.8523      -39.88263       38.87433      -363.8203
      -292.8857       442.0174       189.7111      -342.5382      -35.38696
      -193.5125      -172.7290       792.9931       622.0770      -433.8110
      -537.7529      -247.0338       300.7432       930.2434       280.7573
      -254.4585      -604.6450      -757.6500       26.81448      -374.5922
       246.8542       910.2922      -1091.590      -854.4117       844.4047
       289.2677      -61.47647       106.0173      -261.4330      -254.0432
      -605.8647      -836.7218      -186.0546       534.8192       609.7534
       144.8062      -571.1163      -794.5555      -305.8046      -151.6432
      -350.6287      -536.6996      -261.7860       366.9061       475.4416
       353.0277      -125.3828      -630.4258      -440.5691      -370.0959
      -482.7308      -68.84155       441.8032       44.30957      -917.2208
      -333.9502       635.7064      -128.8157      -955.8873      -470.6688
       74.71439      -57.66693       89.08832       219.4774      -335.5861
      -6.134857       200.0759      -384.2968      -153.0602       264.4852
      -148.4312      -151.0118       254.0389      -93.81165      -313.3246
      -32.51135      -159.4323       47.77161       656.0337      -193.9360
      -709.3473       172.5768       120.0128      -70.42975      -39.47192
      -484.2159      -325.0843       331.9460       111.3818      -528.3005
       73.49231       825.5756       71.04553       39.45923       501.2068
       365.8636       310.4505      -135.9945      -116.9106       240.9185
       179.1826       326.2609       371.6517      -76.81256      -425.6436
       78.74829       12.99112      -395.0979       408.4396       513.1216
      -148.2107      -80.85388      -262.7823      -205.1224       476.5900
       448.0145      -264.4459      -713.1763      -17.79797       590.8688
       69.52905       320.4142       458.4137      -585.0664      -454.6003
       290.3856       180.0639       204.6857       266.2300      -3.398193
      -390.3699      -495.1772      -240.8884       216.5103       462.7668
       187.3068      -178.4197       171.9464       222.5121      -570.3158
      -401.6640       228.9650      -67.94400      -121.3060       181.1122
      -23.21143      -406.4229      -539.6782      -225.9883      -33.88477
       332.5162       307.7954      -876.0095      -945.0521       177.3628
       723.9638       74.52063      -589.1080      -43.28699       373.1994
       71.84778      -41.42249      -410.5653      -556.8218      -32.44461
      -57.37939      -383.5099       101.8167       545.2589       63.06592
      -498.3704      -321.4713      -417.4786      -668.6854      -446.3562
      -51.51138       102.8979       17.76131      -23.06033      -30.70667
      -145.7467      -93.06207       376.1118       119.4282      -435.5045
      -194.3632      -53.46716      -147.3745      -236.4698      -120.7284
      -68.11993      -309.6237      -387.3956       10.45143       60.99963
      -78.46405       324.4889       359.9275      -505.7352      -634.2061
      -176.3731      -208.4651       187.5048       427.9662       44.79626
      -187.1332      -485.2866      -50.38422       455.6199      -69.91241
      -223.9172      -81.93298      -217.9934      -106.0374      -72.74223
       79.06927      -21.69470      -279.3600      -78.95349       104.2679
       119.7243      -163.1477      -509.1510      -231.1716       510.2321
       822.6760       67.21860      -291.9841       288.8971       176.1545
      -340.6050      -245.7587       186.2952       29.29541      -665.3209
      -231.8988       45.28232      -320.8010       371.6871       329.2773
      -489.8244       22.75806       352.9979       124.5048      -35.57568
      -184.1681       315.0769       669.1005       125.6382      -385.9983
       172.4594       744.8789      -172.4696      -581.3669      -36.67700
       431.0531       528.9632       276.0441       169.7196      -74.72122
      -122.3269       303.9705       258.3346      -130.7948       293.0413
       569.2832      -150.6754      -417.8606       208.5625       801.0105
       666.3887      -131.5106      -316.7014       488.5601       896.5020
       666.5930       156.5598       34.35675       397.4460       218.4877
      -502.7872      -272.2660       516.7473       561.3005       504.9995
       796.7092       604.3563       317.4669       266.3531      -174.8368
      -284.0630       289.3181       732.8501       601.2980       217.2885
       7.052582      -104.2774      -18.96204       317.4488       383.3578
       129.8672       484.4202       789.4000       458.2567       41.95825
      -32.02612       358.4667       486.2545       97.41220       37.10413
       226.5264       72.76953       12.94775       453.6001       596.3010
       281.9126       486.7856       610.4333      -194.2944      -410.9309
      -132.3900      -293.4317      -199.1847       317.9475       485.8483
      -11.24814      -359.8925       274.4662       43.74414      -678.2717
       23.70935       497.8528      -8.638672      -241.2939      -686.1667
      -904.5571       53.92798       1047.536       1007.371      -180.6267
      -730.3754       24.10814       150.7205      -98.45789       216.3766
       145.5881      -856.4583      -1132.493      -260.3514       157.8123
       129.1790       150.4136      -20.41046       171.2966       98.93958
      -169.7000      -817.3291      -971.5594       176.1278       630.4796
      -167.1814      -685.4406       120.5850       252.3623      -982.6284
      -992.2175      -204.6182       130.8677       240.4475      -588.9796
      -797.9272       388.6608       301.9988      -538.4796      -682.7385
      -53.44226       380.4734      -248.4050      -669.6979      -299.3325
       58.16138       85.30603       286.7848       503.3868      -199.1470
      -801.9878      -783.7540      -397.8060      -222.0612      -469.9642
      -350.4629      -78.45514      -31.23798       140.2072       101.4547
      -161.3948      -147.0874       11.17438      -137.5886      -744.2950
      -424.1765       693.3621       114.7800      -625.8032      -348.6266
      -91.28232       66.93735       51.30023       80.23657       418.6476
       322.9199      -261.3806      -301.3222       120.3240       112.8733
      -788.1228      -1201.040      -65.26709       828.3313       809.1047
       320.8770       46.06055       400.0086       264.0774      -310.3182
      -297.9600      -255.2411      -97.20721      -42.80905      -276.4148
       173.4103       533.1240       601.1361       629.9482       14.99229
      -172.0327       212.1066       132.4183      -317.1135      -826.0649
      -322.0757       661.3361       474.4387       621.8988       735.3707
       61.83069      -404.7802      -564.8167      -105.7762       431.3115
       524.1532      -401.8650      -1062.496      -79.11694       304.3242
       16.13266      -180.8302       53.06921       351.5991      -78.63452
       277.5139       648.3243      -419.5541      -557.4102       146.4462
      -55.14368      -155.3286       66.37558       12.41187       77.69907
       171.0504      -85.48254      -418.8552       298.8715       914.8560
      -51.93591      -720.7805      -263.7898       63.80090      -94.34985
      -535.5579      -201.0563       476.9886       397.1111      -434.6346
      -772.6565       409.7726       925.4265      -367.4360      -1053.396
      -405.9935       182.9619       288.3574       383.6503      -133.3766
      -689.8549      -181.4423       2.681885      -707.8533      -519.6935
       513.2236       647.5121       20.44580      -270.1522      -151.3387
       122.3438       198.6127       175.9943      -99.03174      -562.2953
      -531.5552      -209.7487       269.5496       630.1123       438.6100
      -56.97339      -329.8405      -187.9646      -535.1481      -448.4199
       757.6486       886.5265      -302.3634      -293.9014       204.8239
      -378.9785      -742.7037      -97.70459       357.9763       519.2995
       402.9858      -15.22791      -562.7332      -498.1219       613.2347
       455.8418      -68.71735       533.2930      -256.6755      -1264.885
      -186.6766       520.9855      -399.8224      -390.5378       698.3061
       570.8660      -294.9388       51.83853       159.8362      -593.6564
      -553.8105      -126.1171       169.4355       663.6646       944.9574
       519.2595      -296.2092      -546.8547      -285.4086       18.30141
      -71.67160      -85.93170       307.5163       151.4502      -171.1663
       122.5061       181.7421      -299.7567       62.91235       1241.061
       1257.395      -6.001953      -1001.294      -608.3082       256.9368
       584.3203       319.6656      -43.28503       336.9412       886.8802
       702.9822       5.470276      -69.03906       489.8573       397.7734
      -34.55038       40.78113       277.0653       155.1121       41.69458
      -112.2287      -176.1233       310.1543       740.9915       696.4907
       402.7867       269.0224       102.8602      -159.7330      -222.6482
       181.7737       811.3171       647.1604       66.35999       233.2556
       578.7275       339.4241       39.94052      -177.6366      -19.18530
       149.8438       159.2257      -6.342957      -269.1203      -21.85510
      -418.8804      -427.5029       875.5615       1024.480       139.7884
       3.711853       413.2090       95.91287      -198.9532       322.8757
       140.5985      -487.9932      -502.5268      -365.6500       99.55286
       510.4813       240.8349      -219.2962       16.81757       334.4711
       77.50824       158.5630       320.6044      -90.36743      -554.2651
      -740.7294      -648.1926      -565.2247      -250.9708       376.1858
       445.8466       239.1962      -57.95726       148.1564      -100.7637
      -1052.462      -478.0168       79.26123      -214.5528       104.9627
       124.6779      -513.4476      -324.1633       138.3149       79.13269
       19.02466      -583.4994      -590.5448       673.7408       355.6603
      -694.4818      -475.4481      -396.6538      -257.5791       233.3775
       110.3481      -276.9110       137.8579       822.0114       255.6987
      -458.5285      -79.68045      -25.52698      -423.8565      -7.973389
       542.7328       106.8886      -158.2627      -196.3091      -787.5225
      -1052.004      -920.2109      -663.0898      -1194.733      -1901.381
      -1770.139      -2444.191      -4561.416      -6179.297      -6483.228
      -4216.416       497.7340       1101.333      -1429.955      -2696.580
      -6479.519      -6625.398       3343.609       11374.43       10214.51
       6514.672       4596.008       4851.246       9525.391       11365.44
       807.6094      -9664.625      -5868.309       3849.578       8096.021
       4156.326      -5145.510      -9288.547      -3556.568       3106.831
       409.3164      -4702.380      -1162.008       2257.162      -676.1861
      -714.3745       2539.209       469.5029      -2587.677      -80.09644
       1056.552      -856.2437       504.7217       2663.806      -59.40820
      -5040.894      -3490.371      -154.9133      -1753.879      -551.5874
       2138.299       1088.585       419.3408       3016.336       3441.506
       119.4450      -74.09766       379.1855       1041.191       3756.013
       1792.651      -2828.384      -4026.746      -1220.562       1266.311
      -531.3057      -3257.239      -3977.496      -1978.087      -536.1882
      -1013.749       149.3110      -930.1221      -3947.046      -2758.346
       1563.152       5662.344       5239.960       3774.419       4002.336
      -892.0518      -3339.077       1574.002       458.0557      -4277.625
      -1725.398       4109.781       5673.995       1065.617      -3407.299
      -1666.933       297.7451      -1638.802      -541.3857       3769.518
       2941.647      -2908.033      -4523.251       314.8169       3322.148
       522.2009      -1413.602      -426.8242      -1167.042      -2556.168
      -614.0151       3461.769       1864.206      -2476.752      -983.2871
       1558.838       859.1454      -54.21338      -331.8938      -760.3582
      -116.4586       290.1211      -208.1484       1550.429       3685.545
       2934.862       187.3760      -2500.180      -2479.198      -810.0673
      -132.7051       1003.136       1997.472       993.4932      -1687.802
      -3780.510      -2944.404      -734.1892       928.3389       1324.536
       788.0835       1576.767       3201.412       2699.006       714.7832
      -2018.163      -4894.701      -4301.891      -1350.155      -329.7323
      -392.5181       603.4941       1240.662       1649.238       1335.431
      -1126.853      -2193.905      -1180.461      -124.1757      -205.3826
      -1097.182       1060.079       4150.970       3239.996       12.29590
      -2528.461      -3852.060      -3436.379      -1569.768       824.7686
       3347.754       4572.970       3316.041       966.8447       115.4628
      -168.9954      -905.3210      -222.5933       225.8074      -973.4600
      -1905.033      -1437.382      -111.0764       786.4663       794.6511
       356.0105       300.6499       473.2631       91.33350      -1323.246
      -1529.736      -261.0988      -119.2236      -1338.786      -1669.246
      -681.1765      -1030.774      -309.1279       2248.833       2079.668
       870.5723       1542.997       1197.557       247.5249       192.6267
      -1071.923      -1963.081      -1430.017      -395.5950       877.9780
       1217.334       1697.688       1702.117      -180.8593      -734.5422
       977.1217       624.2690      -1535.364      -1487.457      -457.8892
      -36.60645       483.9576       311.0437       2.115234       469.9961
       2072.921       3518.438       1946.440       799.6040       1395.973
       625.4851       150.8352      -389.4561      -2415.864      -2987.673
      -1902.336      -1666.076      -1393.450       355.8486       2516.325
       2164.332       300.5295       423.2283       762.0005       171.0674
       110.0225      -39.42310      -429.3365      -419.6934      -211.3486
      -544.0029      -1384.479      -2232.379      -2079.531      -547.7410
      -232.1460      -655.1272       486.3936       1643.683       2178.607
       1799.814      -449.3721      -687.9014       2235.235       1810.756
      -1047.751      -1061.794      -361.3416      -641.3838      -294.3022
      -636.3926      -2221.219      -1597.054       569.4319       1187.005
       231.0875      -434.7793       52.56006      -15.79102      -622.9453
       74.44373       421.6050      -1603.719      -2285.258      -282.4521
       749.4507       1067.368       1671.396       800.4675      -188.9209
      -93.08362      -427.4319      -208.0811       29.05688      -773.1423
      -476.4998       349.8227       274.0107       116.6298      -172.7764
      -1149.362      -2519.092      -1785.284       1110.831       1825.888
      -17.51025      -1204.800      -209.8606       956.0149       885.9709
       407.7881      -797.7695      -1284.907      -796.7301      -142.6588
       726.1063       139.6365      -1009.917      -1581.038      -1595.241
      -512.1277       136.9282      -1119.061      -1442.336       558.0391
       1639.395       2035.408       1724.739       565.8091       1324.356
       1629.627      -185.3262      -405.5236       220.9803       130.3398
      -48.17847      -529.1365      -532.0063      -679.6401      -1585.189
      -1416.630      -1007.688      -2501.989      -2928.975      -831.6140
       692.0605       750.0820       1032.915       2117.695       2182.158
       1540.080       1493.706       567.9602       154.8920       821.1952
      -65.04468      -386.8315       1425.998       2150.404       441.1560
      -911.8818      -934.1992      -1042.141      -1205.166      -1014.764
      -1079.093      -1574.044      -725.9917       1552.610       1400.129
      -697.5038      -668.1975       498.9351       649.5317       1354.836
       2803.497       2842.396       2322.329       1595.372       280.2788
