     0.02500000      -15226.41       16284.42      -12345.00      -12345.00
      -30.00500       229.3450      -29.88000      -12345.00      -12345.00
       0.000000       22.25000      -12345.00      -12345.00      -12345.00
      -12345.00      -12345.00      -12345.00      -12345.00      -12345.00
      -12345.00      -12345.00      -12345.00      -12345.00      -12345.00
      -12345.00      -12345.00      -12345.00      -12345.00      -12345.00
      -12345.00      -31.19940      -66.74700       697.0000       0.000000
      -31.59500      -68.73200       0.000000       105100.0       0.000000
      -12345.00      -12345.00      -12345.00      -12345.00      -12345.00
      -12345.00      -12345.00      -12345.00      -12345.00      -12345.00
       193.8117       77.43584       256.4067       1.742610      -12345.00
      -12345.00      0.3714658       90.00000       90.00000      -12345.00
      -12345.00      -12345.00      -12345.00      -12345.00      -12345.00
      -12345.00      -12345.00      -12345.00      -12345.00      -12345.00
      2008        13        10        50        57
       280         6    -12345    -12345     10375
    -12345    -12345    -12345    -12345    -12345
         1         7        13    -12345    -12345
    -12345    -12345    -12345    -12345    -12345
    -12345    -12345    -12345    -12345    -12345
    -12345    -12345    -12345    -12345    -12345
         1         1         1         1         1
NOQE    -12345          
        -12345  -12345  
-12345  -12345  -12345  
-12345  -12345  -12345  
-12345  -12345  -12345  
-12345  -12345  -12345  
-12345  -12345  BHE     
ZL      -12345  -12345  
[...]
       795.1064       2855.038       2108.696       117.4227       40.39282
      -288.8247      -1030.747      -568.6251      -152.1929      -88.73315
      -820.9766      -953.5986       441.1538       1862.000       3139.374
       1565.513      -2060.034      -2433.378      -1392.151      -629.5767
       1085.162       2463.857       2120.917       578.1870      -1964.574
      -2530.960      -1461.949      -33.60449       2508.927       2160.309
       744.2600      -323.0715      -950.7887      -279.7446      -671.4617
      -1206.055      -1418.402       434.8257       1847.606       509.5582
       178.5488       1082.110       394.8673       48.39307      -75.87061
      -1086.073       41.02551       711.9209      -921.0684      -917.3123
       786.4462       654.1816      -306.7795       509.7529      -34.57471
      -1620.189      -980.0569      -130.0955       104.5176       1457.814
       1388.598      -783.9517      -1792.536      -454.5470       367.0165
       314.1765       243.0254      -457.8188      -911.9594      -148.0303
       657.2363      -223.2775      -965.0730       192.1781       776.2301
      -432.1581      -1042.556       260.6228       1020.594      -751.6108
      -2205.786      -627.9360       712.0859       241.1553      -206.9972
      -85.76221       468.6494       478.1299      -141.6141      -186.9351
       212.3592       464.8418      -722.1268      -1198.068       393.7434
       405.9758      -506.3925      -394.6965      -718.3331       20.53699
       829.6416      -274.8608      -1031.779       693.5474       2063.599
       551.1729      -1335.116      -1509.488       2.449341       510.3676
       57.40491       729.6465      -297.8486      -1877.626      -1199.354
       552.8279       1008.427      -156.3009      -617.1104      -186.6318
      -212.9720       140.8727       214.5911      -22.24400      -159.2399
       156.4615       444.1731      -498.6515      -882.5831       61.68475
       270.6265       366.1187       1562.544       1181.660      -246.9763
      -349.3217      -60.78842      -66.02423      -369.9675      -87.01978
       462.0815       563.5652       87.06250      -774.4548      -957.1160
       422.4792       1260.049       192.8401      -502.7076       542.0364
       163.9166      -920.5966       379.3491       1299.407      -103.0029
      -1359.658      -692.1134       613.4138       699.0045       188.1615
       202.5427       1182.203       1206.418      -509.5166      -1577.067
      -438.9136       821.9678       1188.303       964.9968      -167.0386
      -299.1857       676.0100       479.4058      -714.7788      -1113.997
      -532.6165       6.785156       443.6880       528.0334       648.8540
       530.7240      -258.5388      -256.2756       543.9495       683.5607
       289.2926      -573.0608      -751.7871       284.3167       1297.642
       720.1418      -754.1429      -802.8719       302.8464       346.1691
      -53.15433       133.1467       99.16833      -268.7587      -85.99011
       506.7109       116.7289      -852.8759      -191.4254       570.5818
      -485.7664      -1029.564       404.7163       54.16406      -1193.186
       143.8984       1311.884       327.3854      -590.7150      -498.6899
       248.3340       674.8728      -623.9783      -1321.122      -24.12000
       689.8658      -281.8456      -648.2459       224.9684       208.5396
       84.39722      -530.6826      -928.8105      -58.93121       166.0979
       70.47131       382.7146      -518.7809      -653.2653       568.5656
       178.7626      -680.6385      -495.2782      -433.5891      -1008.232
      -1347.859      -373.3724       519.3296       266.9839      -270.7632
      -407.8873      -318.6914       188.6077      -144.5364      -619.9719
      -292.5358      -372.2666      -303.8552       419.3696       957.5682
       409.2860      -510.3638      -548.5409      -565.8967      -218.2267
       471.8276      -9.760132      -385.7915       40.28235      -247.6562
      -443.4283      -54.23325      -38.73026      -385.1372       318.6489
       1084.613       233.4050      -1274.877      -1065.566      -176.4058
      -107.4907       178.2227       474.7682       447.7681       260.4846
      -1170.717      -1457.542       1099.524       2039.969       62.70728
      -1377.338      -938.5715       959.1731       1607.923      -58.66187
      -778.4735       372.1807       497.7670       405.9592       474.8877
       198.4346       617.2706       542.6403      -221.4732      -226.9509
       266.7095       515.5701       450.6049       390.5283       28.18262
       307.7841       491.5809      -432.1438      -819.2230      -251.0762
       500.7197       996.1959       151.4644      -674.0010       109.5951
       547.0037      -453.9089      -714.0929       435.2607       999.3745
       191.8331       179.1776       772.9712       194.4271      -506.1480
      -226.2285       731.4343       1068.509       18.37094      -45.97131
       585.8147       381.7415       30.63550      -48.87048      -403.2405
      -321.2378       371.8439       645.1490       156.9012      -533.0226
      -461.8738       550.3452       999.3224      -51.64697      -729.0850
       202.5242       558.9098       408.9826       289.8807      -333.1481
      -471.8033       48.32373       545.7158       670.1577       426.1083
      -108.0326      -699.4900      -341.0515      -69.32956      -73.17224
       143.3754       319.2860       236.7329       19.44415       244.5677
       293.8622      -268.2504      -375.3414      -3.226257       405.3038
       141.4227      -327.2705      -498.3523      -432.8947      -311.7413
       195.7891       660.9241      -305.6711      -1100.930      -177.8978
       651.2808      -244.5699      -767.5022       455.3064       996.5021
       227.4738      -607.5039      -457.1249      -297.7025      -356.5651
      -177.2744       125.0416       294.2582       64.40503      -676.2538
      -842.5261      -83.39258       501.3486       672.0682       483.6836
      -773.0388      -1237.866       4.194824       34.10547      -1264.545
      -630.2852       723.1630       96.40015      -893.5845      -924.7218
       470.3013       1822.225       740.4939      -810.6843      -1133.258
      -364.9083      -227.8989      -612.1519       106.0699       803.6317
       324.2240      -28.25183      -427.6985      -1136.898      -1059.278
      -88.72168       766.5322       632.5482       5.561981      -64.71954
       115.7343       567.7166       576.0059      -530.7651      -1179.266
      -523.6026      -99.96181      -92.75809       103.6083       62.13528
      -168.9730       360.4468       1029.802       223.9587      -1195.894
      -936.8992      -128.4457       105.2058       307.9028       462.1578
       434.7382      -148.2222      -343.7918       133.6658       204.2827
       280.3098       496.3040       378.4093       336.1157       693.9851
       349.8247      -986.0730      -1149.670       855.2085       1913.893
       696.0378      -779.1121      -1242.489      -1307.417      -142.2048
       1481.110       1070.144      -211.7471      -157.3251       232.4344
       106.5739       122.2896       661.7419       1160.365       249.1341
      -370.4931       326.1536       29.86768      -841.3846      -869.0625
       301.6030       1574.456       1260.780      -719.8296      -1391.272
       295.9272       1167.855      -423.8447      -1382.635      -61.06421
       1351.013       648.5663      -681.4050      -7.020996       1119.086
       1060.380       120.4497      -953.4347      -441.9594       76.83130
       251.9553       799.5881       721.5701       589.7415       258.3248
      -221.9953      -127.7252       40.08203      -452.6235      -1155.275
      -239.3579       1449.574       1322.576      -154.7252      -758.6476
      -387.5471       738.0505       873.2471      -261.7432      -608.8203
      -276.9864       8.310669      -249.6341      -303.1567       874.8046
       781.3872      -1206.795      -1642.682       15.79126       1123.031
       510.7666      -608.4592      -441.8925       393.5904       385.0599
       79.37695       604.2887       508.3672      -346.7302      -631.9830
       107.3315       1130.963       411.9502      -1178.970      -1364.430
      -418.3655       387.1802      -236.5250      -560.7576       195.8422
       283.3773      -160.9499      -117.1569       428.6769       429.3580
      -282.9922      -477.4785      -402.5347      -336.7209      -163.3427
       189.9047      -38.97461      -709.8311      -837.4951      -352.3716
       494.4433       307.7351      -1030.429      -1145.335      -529.6484
       150.7284       913.3580       170.5294      -478.6228      -238.6960
      -774.1495      -1044.511       247.3237       1424.361       104.0854
      -1228.322      -484.7522      -134.0220      -795.0107      -740.5311
      -267.8966      -165.1411      -259.8867       371.4291       731.1705
       166.1436      -1012.025      -1718.815      -520.7631       284.8408
      -241.5951      -153.6167       466.8521       480.2168      -499.7894
      -906.4888      -176.5857       440.5115       426.1925      -439.9971
      -564.2316       436.1826      -368.4969      -1060.128       292.7021
       888.0000      -568.7288      -1400.615       124.3486       1430.392
       595.4028      -972.7627      -1804.553      -434.9727       1059.567
       46.30518      -1171.799      -1018.976      -156.3657       585.4463
       1086.827       679.2144      -481.5695      -214.0084       185.5461
      -82.46246      -416.0191      -21.25183       389.0613       185.8979
       909.1389       1498.018       72.80811      -1580.441      -1328.669
       423.4746       1490.112       563.0981       253.1814       1062.737
      -373.5410      -1892.651      -908.5308       616.9736       1392.151
       486.6355      -1386.290      -1043.494       810.3157       1139.517
      -131.6304      -392.3174       1238.314       1541.269      -705.8042
      -1331.092       291.8254       727.8835       1.525879       818.4390
       1407.982      -341.6069      -1404.448      -126.9288       871.6489
       65.02429      -559.6385      -23.21024       49.04980       375.0771
       1461.255       857.2615      -77.20935      -34.67749      -948.8411
      -983.9253       293.4016       329.0742       119.5952       1126.778
       856.2486       338.9180       255.1345      -665.5675      -432.0077
       118.4907      -470.4183      -227.1919       1083.203       984.0592
      -789.6145      -1432.386       488.1401       2241.566       1301.536
      -638.6521      -1348.630      -25.21631       1422.803       710.7717
      -1266.087      -922.9268       1497.763       1194.250      -883.8221
      -456.2545       725.9459       342.5273       416.8474       1137.394
      -15.66296      -1004.200       26.40625       1099.174       429.6392
      -261.1544       92.26343       379.4277       495.6562       124.9790
      -391.4163      -618.0920      -446.5260       211.9695       1243.278
       1475.195      -334.3928      -1317.730       237.7118       932.4537
       5.598511       191.5123       215.1095      -382.3149      -294.8267
       66.98407       441.2427      -273.6115      -1031.985       183.3160
       939.4700      -121.4075      -350.2066       104.3682      -630.9392
      -778.0549       827.3091       1526.412       86.33215      -711.1516
      -316.2190      -170.8922      -257.6187      -18.29663       302.5474
      -407.0142      -1147.322      -1172.147      -885.8467       603.3545
       1612.201       725.9977      -173.4553       843.8376       1232.553
      -699.9053      -1816.142      -1208.217      -300.7328       94.24695
       271.9527       412.6662       65.03722       102.9617      -78.15845
      -887.4961      -707.2770       182.2065       309.2759      -95.41846
      -411.0573      -271.2212       201.8544      -451.1343      -1100.208
       121.5807       600.2180      -138.4375       762.3463       1120.402
      -318.4748      -3.054077       853.2175      -663.4932      -1803.380
       130.0295       1486.737       740.7141      -119.8535      -948.3054
      -1480.678      -670.3329       349.1820       121.7953      -490.5560
      -627.1665       487.2656       1404.927       840.4868      -692.1245
      -2067.782      -616.4653       1654.730       2850.977       4102.354
       1739.841      -2921.380      -2369.043       547.2720       1568.413
       4108.867       5286.240      -664.2676      -8119.867      -12477.33
      -14841.57      -10491.26      -898.3232       3903.898       6070.727
       12222.70       16284.42       12602.51       4889.012      -833.8867
       1522.156       10573.12       11988.15      -1737.168      -15226.41
      -11479.06       711.2856       2485.012      -4690.139      -9970.299
      -11133.64      -6794.638       2981.585       6917.095       328.4385
      -4368.097       262.7266       5683.254       4902.296       2799.329
       2063.604       455.1005       417.7314      -995.3789      -5990.213
      -6188.848      -151.1465       6254.296       6802.202       1364.500
      -2160.458      -160.6729       3267.153       1027.260      -4238.107
      -4520.540       71.12354       3745.671       491.9551      -4314.544
      -2147.356       967.7676      -2263.413      -5577.111      -3104.045
       780.8652       3184.764       4993.244       6546.320       6220.268
       2686.009      -1660.492      -5190.814      -6490.953      -4030.832
      -994.8081      -105.7109       395.5625       1690.725       2392.399
      -32.41406      -4046.003      -2843.712       686.7932      -464.1565
      -50.48633       4289.855       4237.157       586.1055      -1701.890
      -1594.743       834.8395       1284.719      -1284.203      -2575.299
      -2310.667      -1056.547       1133.418       1282.143       1697.156
       4765.497       3600.380      -1925.533      -4617.704      -3879.657
      -2032.775      -1096.179       87.56641       1948.012       125.2207
      -3312.464      -2307.339       763.4878       1283.601       5.471680
      -819.6593      -75.19653       779.3222       142.7183       147.6211
       1899.863       308.8574      -4572.006      -5882.830      -2266.163
       1230.103       36.47852      -2349.195      -2999.618      -1817.454
       2810.246       6375.702       4452.630       175.5093      -1264.356
      -155.5889       953.7880       735.7729      -1485.216      -2496.887
      -1196.095       364.0295       766.8099      -99.30884      -686.5342
       149.5361       2057.125       2683.031       877.2178      -1516.559
      -2088.500      -921.0381      -51.54004      -123.8413      -628.2893
      -1217.287      -384.2390       1152.424       167.9033      -1911.956
      -471.8525       2253.591       1037.182      -230.8062       1535.566
       1687.434      -626.7478      -1567.600      -185.5995       918.1926
      -7.891602      -1711.341      -2687.546      -2182.073       43.90430
       2438.795       3636.765       3161.573       2134.661       1732.971
       1072.410       583.0184       733.7034      -63.82275      -1445.803
      -1255.383       639.0529       816.7900      -784.9594      -657.1877
       204.5359       474.3279       779.5980       483.3904      -990.4963
      -1607.422      -597.3381      -495.4883       54.11548       902.8672
      -534.2241      -2480.842      -1824.115      -29.96692      -656.1450
      -447.6426       2165.468       3867.996       2709.535      -457.4102
      -1862.335      -756.6072       1170.647       1722.208      -217.4956
      -1952.233      -2395.819      -1602.530       699.9060       1417.577
      -535.9158      -1561.949       679.9575       2431.708       1190.622
       186.8723       758.1812       1658.892       1942.683       1127.592
      -986.2981      -1695.782      -94.67578       976.5182       620.2006
      -670.1763      -884.0143       230.1084      -383.3584      -1500.010
      -1009.224      -948.9043      -842.2979      -450.9741      -230.2655
      -91.52173       453.9900       1565.838       518.5332      -949.3677
       294.9175       1675.668       1642.838       1095.008       39.63083
      -105.6820       253.4443      -1819.259      -2963.388      -746.3521
       772.9336       1212.812       1220.144       579.7875       382.3910
       514.0083       782.5679       709.2747       573.8512       245.1389
      -396.0928       1257.491       2078.790      -1795.605      -4555.530
      -2706.544      -63.06470       419.0941      -55.80713      -134.7417
       329.8052       1494.669       2580.152       2607.165       1564.757
       728.3800      -230.5112      -1525.416      -1031.939       599.4658
       1085.003       332.3289      -1005.477      -2043.586      -1441.536
       43.18384      -351.8608      -1473.864      -634.0408       1157.275
       2262.442       1634.996       520.7007       545.8945       756.6431
       821.1895       751.3369       591.0474       1310.060       732.6167
      -1260.336      -874.8240      -96.80273      -689.2275      -1695.777
      -3639.141      -3249.686      -694.0416      -43.63477       1154.508
       2878.898       2556.769       2221.634       2658.931       2551.841
       871.7432       151.9517       1640.192       1331.039      -709.8110
      -1482.384      -1554.743      -1088.876      -540.0322      -1598.806
      -2630.936      -2250.283      -1682.493      -1821.566      -2155.829
      -928.3279       693.4688       1048.674       1379.735       1998.768
       2166.026       1495.264       1166.505       1841.050       1411.655
      -282.0571      -1043.016      -1032.302      -1644.232      -1548.964
      -342.0181      -497.6582      -2015.688      -2858.283      -2065.502
      -348.3613       1439.617       1994.417       378.1934      -421.1535
       281.8572       521.6814      -315.0884      -1250.337      -221.7012
       1505.755       2213.579       1529.278       91.06445       307.7363
       1188.437       1125.494       871.3345       610.2483       430.6909
