     0.02500000      -12683.16       13152.60      -12345.00      -12345.00
      -30.00500       229.3450      -29.88000      -12345.00      -12345.00
       0.000000       22.25000      -12345.00      -12345.00      -12345.00
      -12345.00      -12345.00      -12345.00      -12345.00      -12345.00
      -12345.00      -12345.00      -12345.00      -12345.00      -12345.00
      -12345.00      -12345.00      -12345.00      -12345.00      -12345.00
      -12345.00      -31.19940      -66.74700       697.0000       0.000000
      -31.59500      -68.73200       0.000000       105100.0       0.000000
      -12345.00      -12345.00      -12345.00      -12345.00      -12345.00
      -12345.00      -12345.00      -12345.00      -12345.00      -12345.00
       193.8117       77.43584       256.4067       1.742610      -12345.00
      -12345.00    -0.05643765       0.000000       0.000000      -12345.00
      -12345.00      -12345.00      -12345.00      -12345.00      -12345.00
      -12345.00      -12345.00      -12345.00      -12345.00      -12345.00
      2008        13        10        50        57
       280         6    -12345    -12345     10375
    -12345    -12345    -12345    -12345    -12345
         1         7        13    -12345    -12345
    -12345    -12345    -12345    -12345    -12345
    -12345    -12345    -12345    -12345    -12345
    -12345    -12345    -12345    -12345    -12345
         1         1         1         1         1
NOQE    -12345          
        -12345  -12345  
-12345  -12345  -12345  
-12345  -12345  -12345  
-12345  -12345  -12345  
-12345  -12345  -12345  
-12345  -12345  BHZ     
ZL      -12345  -12345  
[...]
      -1227.927      -511.3008      -60.56085      -343.7219      -87.76709
       1566.111       2705.452       818.1216      -739.7241      -1015.019
      -2011.980      -1596.071       45.23462       922.4060       1164.888
       757.4038      -305.7993      -1159.662      -1225.942      -63.16797
       733.7231       878.7839       1223.416      -395.3755      -1628.779
      -1136.436      -399.6935       782.0741       61.62006      -726.0422
       651.9314       921.9099       455.7168       875.8699       490.8645
       131.5684      -492.3384      -1127.131       1.939941       1285.750
       1228.666      -430.4888      -1141.837       43.34167       622.3947
       671.6846       662.3164      -518.8645      -1527.934      -1014.966
      -109.3729       206.2295       698.6157       1381.968       314.4841
      -653.2279      -568.6925      -315.2896       701.6973       997.1486
       612.5170       49.82321      -153.2027       95.80797      -126.3233
       42.70432       143.2950      -89.00391      -353.9197      -642.6775
       479.2007       1035.413      -276.1405      -802.5040       252.3101
       980.8571       381.1235      -241.8107       127.7894       589.7972
       181.9062       75.61743       609.5029       1016.322       696.3187
      -196.3984       101.6515       566.6562      -216.7266      -119.2522
       500.6984       77.43445       455.5635       1072.936       62.46655
      -293.1086       695.0471       831.2903      -447.0009      -1021.412
       498.5798       811.3593      -16.06775       402.3311       174.8623
      -354.0433      -480.5751      -400.1401       512.0165       561.2097
      -279.6401       101.7281       476.5895       57.96631       10.06873
       560.4030       451.4104      -379.8267      -229.7089       136.4189
      -239.1039      -235.6392       416.6543       482.5271       165.3146
       227.3140       599.0309       822.5922       345.0415      -308.4913
      -457.8839      -181.1162       151.9453       168.7793       131.5317
      -358.6442      -616.8651      -73.74963       89.31459       82.94995
      -329.9437      -399.1478       575.1038       460.3161      -392.5718
       663.1996       1230.932      -709.9878      -1519.957      -229.8056
       425.3520       162.7287      -68.52919      -147.7621       153.8177
      -137.3340      -941.7949      -665.7645       100.1609       603.0453
       708.0445       48.71777      -557.6158      -203.7114       94.01605
      -22.68018      -438.3228      -1010.806      -388.8885       307.3336
       180.8438       309.2482       272.1462      -189.7642      -549.5205
      -622.2422      -131.4312       516.9044       206.0054      -341.0966
      -119.0057       381.2231       317.5571       41.60654       16.29614
      -166.7451      -417.2859      -324.4287      -959.6956      -1254.523
       2.735718       483.4202       339.4412       223.0260       4.205933
      -330.0858      -376.7584       143.0802      -334.3809      -827.5922
      -392.3062      -432.0969      -709.2853      -53.74207       664.3174
       516.8589      -273.6519      -656.7510       80.06433       275.4736
      -544.7403      -588.3555       543.5457       584.0131      -402.6450
      -533.2833      -384.7127       12.76404      -42.79712      -819.8831
      -465.6534       346.3394       94.69794      -381.5472      -175.7747
       221.4095       111.0784       368.4761       325.1633      -632.2289
      -479.0356      -124.9675      -713.2683      -816.2263      -277.8760
       364.1847       574.0036       195.1644       151.6290       620.2184
       164.9688      -801.1794      -1176.082      -650.1089      -204.1382
      -215.9517       901.8804       1446.899       266.5475      -448.7427
      -246.1552      -351.4808      -366.3790       381.1273       364.9602
      -376.1716       15.45404       116.0044      -406.6887       170.2866
       308.0079      -370.2506      -128.9875       479.3422      -180.7738
      -859.8909      -259.1318       266.7354       236.3325       33.18115
       369.7239       576.5938      -53.58093      -272.6475       241.0791
       1074.198       965.3036      -202.5442      -826.1964      -396.9927
       790.6316       997.3142      -241.9196      -613.9673       259.5154
       674.4420       216.7992       483.2238       672.9136      -229.6239
      -416.9543      -342.7754      -95.94592       630.4812       715.7721
       692.1699       484.3619      -238.1685      -518.8484      -29.00320
       120.6757      -285.3001       81.18787       475.6208       72.39441
      -372.3551      -529.2700       277.7120       599.5055      -436.0748
      -548.3467       493.1931       484.1638      -307.2539       232.0063
       1011.827       101.6823      -886.7245      -317.0010       25.49091
      -254.6335       222.7644       607.8584       589.6111       122.7797
      -492.5841      -210.6672      -19.90234      -511.0684      -248.9661
       479.1211       160.7688      -415.0263      -303.1818       282.6219
       497.8907      -170.2671      -158.0654       182.4025       103.2414
       111.1685      -144.7402      -234.0507       218.9158       508.6966
       78.20294      -207.8951      -15.41267      -67.38525       160.6966
       233.0316      -356.9058      -294.6008       55.87933       188.8574
       482.8751       330.2275       171.9658       347.7092       268.1632
       88.88739       13.01718      -191.4603      -100.0125      -414.9355
      -846.8257      -349.4772       126.4804       279.2861       390.7808
       220.3197      -276.3800      -384.2186      -14.09552      -56.95374
      -447.2263      -230.0472       654.0330       445.5859      -553.4351
      -40.30811       469.4841      -261.1789      -271.7757      -84.13586
      -282.4654      -268.8213      -240.7473     -0.5769043       428.8122
       267.3795      -58.95667      -167.9370      -578.8400      -677.3890
      -407.3362      -616.6479      -1057.472      -536.1943       965.3450
       1250.176      -109.4422      -295.4656       363.2206      -368.6355
      -919.5634      -238.3466       170.4967      -193.5697       101.4568
       275.9970      -176.1887       101.1454       174.0364      -356.9285
      -735.0483      -1004.298      -491.2886       48.95422       298.0764
       434.1725      -9.988831       7.259644       512.6011       276.6475
      -189.1609      -48.48462      -169.4728      -242.6507      -44.55475
      -225.5720       182.4649       224.7357      -390.7132       123.2692
       554.4561      -98.93652      -439.2699      -361.8929      -73.69092
      -278.4378      -484.3262       234.5056       497.5502       109.8267
       89.08118       460.0175       275.4382       4.830200       528.6624
       390.8157      -428.7513       16.87128       398.2494      -504.2857
      -427.5808       678.6265       1072.486       134.3201      -769.5928
      -1021.295      -987.1476       59.14551       1027.554       443.3513
      -692.9914      -681.1238       695.0081       785.3783       143.0420
       898.2860       786.4633      -319.4772      -512.7091      -198.8560
      -332.9417      -675.1169      -431.7604       79.69263       655.5667
       955.1184       307.1602      -390.0742      -221.8349       190.8397
      -93.37341      -755.9780       186.6365       1068.128       468.4484
      -99.78928      -288.6490       229.8474       343.8843      -360.6205
      -152.3584       258.3538       206.5662      -17.50348      -251.3318
       259.6511       772.9955       310.5378      -280.3011      -198.9475
       291.8789       78.91983      -253.5292      -66.23987       487.7375
       932.4048       151.3590      -471.6159      -35.26886       21.41837
      -41.10779      -275.8443      -559.7777       137.7288       501.0140
      -157.1694      -155.7031       737.6582       886.2791      -359.8350
      -851.7275       485.4580       1171.605       205.8037      -882.0258
      -576.0559       526.8091       211.5739      -78.79297       697.1001
       535.1729      -33.06659       66.71497       251.6174       289.7059
      -66.87256      -660.6621      -882.7790      -250.0194       173.2534
      -145.4474       67.29541       706.8330       728.9042       421.5013
       327.4556       533.0875       488.8057      -376.0203      -948.5812
      -206.8329      -113.8649      -353.5994       348.7567       442.0013
      -1.673187      -270.8044       33.88535      -6.973633      -482.6294
      -304.6533      -526.1001      -516.2710       92.46887       491.8412
       241.8453      -223.5406       182.2353      -60.96631      -513.8264
       411.2837       574.8278      -333.9086      -770.5024      -286.0300
       445.6719      -98.24097      -686.5211      -179.4286       160.1280
      -24.57800      -511.0418      -243.3905       189.4386      -233.2281
      -317.7362       90.03024       147.6455      -323.7323      -70.56287
       669.7378       244.7930      -480.6968      -614.8173      -222.0698
       276.8776       301.4318       49.32361       220.5190       440.6704
      -349.3363      -1033.193       75.20630       728.4774      -394.6191
      -1029.722      -189.2354       600.6295       239.7489      -241.5540
      -791.1416      -898.7381      -43.29797       236.9344      -33.52744
      -183.4956      -120.4204       475.9854       329.1313      -564.9460
      -961.2775      -416.0636       636.1930       64.02771      -544.0275
       239.2986       579.2331       72.28375      -352.6231      -170.3332
      -36.25537      -351.1935      -412.7266       294.2544       573.5449
      -70.84802      -74.29016       474.3223      -284.5464      -1363.258
      -428.3721       860.3425       347.9113      -332.7197      -390.6289
      -571.1196      -283.2307       416.1443       525.8252       251.2700
       751.4670       785.2026      -1031.610      -1385.601       378.1576
       452.9149      -459.0240      -304.3830       7.264648      -487.1091
      -669.9760       416.4194       834.8942       347.1797       113.4252
       2.937614      -60.41478       22.41939      -10.97084      -84.18024
      -52.99170      -411.3574      -577.4143       147.1438       667.5319
       397.0990      -47.00824       118.1367       383.6545      -14.46289
       2.152527       170.7218       56.34845      -14.94263      -643.9988
      -779.5122      -92.98810      -91.01282      -843.4337      -242.7568
       1452.792       1339.981      -2.099854      -597.6301      -763.0135
      -73.10107       1072.392       486.3022      -537.3650       339.5171
       1326.773       667.7230      -611.9897      -392.7175       887.3438
       718.3776       227.3248       548.3439       248.4385      -527.8184
      -265.8994       647.0768       620.8639       100.0854       227.6885
       277.6069      -96.99132      -84.63867       234.1483       446.4802
       48.49664      -115.9067       791.3577       1220.490       176.8848
      -561.7827       542.0679       934.0479       47.41382       361.1670
       628.5225       226.6986       49.77852      -35.33185      -23.50122
      -525.5273      -989.0189      -48.72485       590.0597      -128.3774
       114.3828       992.8501       265.8455       132.4155       1145.604
       1159.458       582.9525       136.1887      -234.2446      -942.8220
      -1288.990      -351.4944       747.6292       1079.878       469.7850
      -15.75671       357.3511       930.2360       907.7635       137.0815
      -68.79468       364.1841       878.2740       393.8787      -699.3335
       141.4531       840.1824       164.3943       64.55042      -88.16492
      -465.3013      -648.1792      -1037.671      -783.8478       71.18805
       415.4505       154.0447       82.92249       301.8682       867.5629
       894.8322      -189.3955      -274.1759       466.0919       154.2930
      -300.6426      -482.8728      -784.7180      -1068.758      -448.5589
       341.0100      -893.7241      -1718.047      -578.2297       460.5828
       507.7366       351.5339       170.0576      -597.5673      -466.8568
       337.2517      -218.6831      -1108.277      -1280.010      -2007.336
      -2796.787      -2958.724      -2459.449      -2391.864      -2044.692
      -177.9519       820.3267       1404.940       245.4023      -4322.754
      -5627.848      -1418.147       3226.166       7520.021       10542.59
       8419.519       2951.409      -1495.646      -5798.504      -10676.69
      -12683.16      -11814.32      -12013.46      -9727.953       431.4355
       9601.227       10130.42       8166.906       6758.688       6256.510
       9540.102       13152.60       9215.586      -971.5020      -6831.506
      -6794.724      -4683.733       163.3877       2162.365      -3543.785
      -5704.137       200.7446       1166.152      -4912.166      -6126.094
      -2357.475      -3093.312      -4638.574       232.8867       5391.350
       6330.672       5419.918      -1637.688      -10148.98      -8315.090
      -2929.372       146.0742       2843.230       3441.666       4696.529
       5888.084       5384.782       5101.000       2002.912      -2046.042
      -1799.025       1761.662       3825.107       2024.691      -1315.160
      -3500.310      -5010.578      -5167.355      -2326.753      -2023.518
      -3673.592       1882.645       8677.808       6022.145       1418.839
       1083.000      -877.0952      -2232.283      -722.9883      -1364.696
      -819.5061       1242.719      -492.8467      -2479.482      -1518.826
      -315.0471       270.4414       1209.322       3001.743       3951.309
       2154.438       536.3808      -79.91846      -542.0281       1073.733
       304.3809      -3850.824      -2864.966       1043.761      -28.55420
      -2563.621      -562.2080       3567.418       4000.784       1484.929
       1224.191       1432.877      -966.3086      -1605.175      -573.9243
      -1099.869      -246.3569       2395.066       2252.579      -76.08789
      -628.4375      -1278.658      -2693.310      -1638.651      -355.5420
      -766.0874      -587.3175       300.6406       1427.546       1675.840
       1412.092       1333.920      -523.2119      -2098.407      -1585.549
      -1335.148      -408.6499       1650.559       2113.989       2114.219
       3017.446       3165.658       1155.639      -1800.377      -2317.818
      -288.1321       219.8828      -1870.041      -4601.301      -5363.943
      -1767.849       1215.623       516.7397       968.3804       2264.842
       1222.295      -177.3324       58.44751      -180.2598      -1608.145
      -1644.549      -318.1134       287.6484       627.6572       986.0544
       631.2810      -568.9844      -1409.277      -1300.900      -979.9142
      -524.3223       1063.923       2888.444       2156.139      -360.7654
      -1316.411       63.55347      -157.8926      -1742.527      -309.2041
       998.8018      -522.1475      -2061.349      -1826.362       203.1650
       2306.598       2807.698       2082.255       1037.220       1531.999
       2589.456       1289.073      -185.5555       227.6906       232.8210
      -300.7104      -92.04785      -1224.820      -3140.551      -1721.233
       197.7994      -17.32568       662.3564       2003.174       1959.753
       618.8979      -524.0786      -705.3457      -717.1440      -1164.807
      -1398.380      -903.3291      -666.8290       30.57422       1088.592
       1997.755       2468.309       1609.160       525.9678      -549.6997
      -1635.002      -2171.890      -1797.273      -1504.563      -2342.800
      -1839.335       288.1603       681.2184      -104.9126       543.1910
       698.0082      -8.753418       581.1804       1225.799       1413.992
       649.6674      -854.1616      -585.6281      -315.6711      -599.0559
       436.7935       1736.526       2542.088       2247.716       923.6138
      -516.0068      -1784.740      -2115.653      -2672.489      -2906.870
      -1695.821      -1103.317      -503.5239       616.2705       909.6692
       873.1021       881.8596       521.5942       965.0938       2231.569
       1948.427       847.2859       417.1309      -600.0288      -1522.291
      -1499.660      -1563.429      -844.0438       265.6646      -539.9863
      -1826.992      -1253.789       309.5125       914.2104       246.7941
      -85.74097       699.6685       1623.117       1484.293       1377.502
       2170.679       1982.671       291.5415      -1931.420      -3631.169
      -3717.665      -2274.760      -659.6870       216.0776       885.8555
       2538.664       3604.309       2245.653       1430.368       1123.184
      -630.9741      -1700.639      -1614.249      -920.7793      -570.8120
      -1797.116      -2569.993      -1789.517      -575.9357       226.6091
      -180.5959      -735.4482       442.4521       1543.412       1986.697
       3319.519       3289.204       981.0806      -516.1338       560.0220
       1993.054       1573.848       284.2473      -981.0464      -1879.773
      -1660.347      -948.3516      -1095.940      -2616.519      -3995.120
      -2620.785       169.4951       1237.451       1545.849       2122.742
       2446.002       2459.858       1843.731       58.17212      -1198.964
       150.5303       1451.363       718.7041       426.1643       713.5945
       292.3243      -119.9470      -835.2671      -1840.305      -1991.216
      -1811.117      -1480.650      -371.5981      -43.49121      -607.5444
      -103.4885       375.7396       82.06689       574.9380       1339.759
       1245.397       766.8611       756.6578       715.6694      -190.0200
      -1052.775      -1899.912      -1907.646      -1008.328      -1015.972
      -1271.140      -2064.242      -2575.076      -669.8396       600.4727
       67.46228       105.3577       313.6462       405.7498      -36.20483
      -885.9990      -483.9293       348.2642       425.3351      -278.8447
      -336.8428       1286.786       2132.228       838.8718       234.0562
       1267.604       1229.694       471.6897       290.5410      -343.3640
      -397.4080       410.6715       49.22363      -1567.705      -1645.510
