     0.02500000      -51039.72       72871.11      -12345.00      -12345.00
      -30.00501       219.1200      -20.53000      -12345.00      -12345.00
       0.000000       15.49000      -12345.00      -12345.00      -12345.00
      -12345.00      -12345.00      -12345.00      -12345.00      -12345.00
      -12345.00      -12345.00      -12345.00      -12345.00      -12345.00
      -12345.00      -12345.00      -12345.00      -12345.00      -12345.00
      -12345.00      -31.03680      -69.52500       1657.000       0.000000
      -31.59500      -68.73200       0.000000       105100.0       0.000000
      -12345.00      -12345.00      -12345.00      -12345.00      -12345.00
      -12345.00      -12345.00      -12345.00      -12345.00      -12345.00
       97.61243       309.1430       129.5531      0.8776528      -12345.00
      -12345.00      0.1344461       90.00000       90.00000      -12345.00
      -12345.00      -12345.00      -12345.00      -12345.00      -12345.00
      -12345.00      -12345.00      -12345.00      -12345.00      -12345.00
      2008        13        10        50        47
       930         6    -12345    -12345      9966
    -12345    -12345    -12345    -12345    -12345
         1         7        13    -12345    -12345
    -12345    -12345    -12345    -12345    -12345
    -12345    -12345    -12345    -12345    -12345
    -12345    -12345    -12345    -12345    -12345
         1         1         1         1         1
NUEV    -12345          
        -12345  -12345  
-12345  -12345  -12345  
-12345  -12345  -12345  
-12345  -12345  -12345  
-12345  -12345  -12345  
-12345  -12345  BHE     
ZL      -12345  -12345  
[...]
      -169.8585      -203.2036      -175.0114      -206.6202      -178.3370
      -203.8725      -173.2272      -200.8719      -170.3499      -205.2952
      -182.1857      -205.7315      -176.5578      -202.7687      -170.5972
      -201.9593      -174.9770      -199.9664      -164.9477      -191.7161
      -159.1899      -191.5203      -172.4640      -199.1461      -165.2471
      -192.7316      -163.1428      -190.7943      -160.4284      -188.1131
      -151.1569      -172.9858      -146.9052      -176.7900      -150.5841
      -179.6215      -146.8611      -163.9943      -134.9471      -169.7023
      -143.3790      -167.9570      -141.1389      -173.1584      -142.0686
      -160.0984      -130.4622      -156.1895      -133.2455      -166.2400
      -136.1380      -152.7982      -121.4195      -151.2230      -125.9429
      -153.0991      -125.0139      -158.3988      -130.9160      -156.2032
      -127.2788      -153.2272      -120.5468      -147.0290      -123.4645
      -153.3522      -117.9300      -147.9002      -115.7410      -139.7334
      -104.8636      -131.1963      -108.6011      -147.0711      -123.8702
      -149.7962      -111.9750      -135.8707      -102.2571      -129.4772
      -99.67938      -133.4933      -103.2283      -125.2407      -97.62695
      -129.8749      -96.00562      -124.2112      -88.36212      -111.6444
      -83.48712      -111.7168      -80.37057      -113.1323      -81.77563
      -105.7781      -65.89046      -81.82426      -50.20515      -75.78104
      -51.84891      -88.37294      -57.37663      -75.29160      -37.15137
      -62.10747      -32.81909      -55.59854      -23.09286      -42.74644
      -6.026413      -35.93368      -4.959198      -27.63497       2.507822
      -22.86936       14.63471      -8.934284       26.90506     -0.7002144
       25.82012      -1.800041       33.14619     -0.5207520       30.43905
       13.56909       59.81123       32.81921       61.57004       34.16006
       72.50888       44.96159       68.37498       33.32159       70.44472
       47.94864       93.44482       68.58461       90.54648       57.62314
       90.85641       66.28369       101.4100       76.05936       112.1967
       85.77158       117.9013       86.93369       110.4304       83.84692
       116.3918       86.79749       114.8243       82.58725       108.8609
       83.95212       121.3358       98.44803       137.1650       108.7023
       132.8220       103.5157       140.6855       123.9821       147.0208
       109.2282       144.6857       116.1018       145.5626       123.2398
       159.6891       135.1391       166.3334       139.9659       174.4402
       145.1800       171.5369       145.4004       176.6144       150.7407
       173.4210       138.4019       168.8746       147.1960       178.2765
       146.8499       163.5251       127.5786       163.3931       147.0215
       182.2136       157.9285       184.1066       150.2487       173.2031
       152.2351       186.0101       163.0736       194.7584       166.9921
       193.1575       171.3130       210.5803       210.3351       257.3010
       210.1771       260.6093       301.3610       311.0479       412.1902
       498.3503       90.52222      -88.57690      -363.5923      -561.9626
      -177.8821      -319.8192      -53.65063       1435.316       416.1990
      -274.5580       846.9211       182.8241       228.7151       1013.531
       1525.179       1035.008      -1849.023      -300.6010       1627.966
      -1320.820      -429.1720       1246.104      -1346.320       816.0181
       2990.676      -821.1829      -789.8323       1792.372      -399.3517
      -588.7908       1906.152      -20.90906      -1276.151       894.3320
       595.0280       120.8855       188.8608      -323.5104      -328.7054
      -165.0671       203.0999       696.7999      -120.5593      -800.1995
       381.5497       979.9057      -92.06714      -782.1508      -276.8644
       116.5510       311.6970       205.0474      -1244.038      -530.1718
       727.1272       61.04883       562.8254       1180.340      -340.7603
      -870.2669      -400.3002       86.71338       719.4109       813.6201
      -83.14368      -822.1517      -381.9525       275.5208       249.3722
       352.7734       482.6611       70.14044       44.98950       271.9730
      -577.0573      -515.5046      -134.9878      -737.1060      -991.3420
      -667.6627      -88.32104       583.9253       697.8417       792.9409
      -14.71826       610.5171       1143.644      -563.3320       73.26233
       1251.118      -1269.385      -1810.753       342.5317       544.5051
       80.64600      -451.3066      -1014.814      -171.5139       12.67188
      -547.2609       240.9844       763.2527       133.4602       380.8156
       641.9752       178.8115      -1172.046      -312.3866       876.1146
      -675.6365      -31.03558       724.8628      -704.7980      -666.5670
      -119.9631       465.6393       191.2427       567.0753       274.2063
      -1482.579      -591.4483       92.54779      -546.1902       175.8499
      -108.8315       113.9009       736.0586      -204.3601      -1305.037
      -820.2402      -147.1863       455.5216       595.7600       167.0532
       659.6028      -473.7979      -1823.317      -844.4610      -532.4451
       523.3425       628.6700      -915.5676      -65.92725       995.7375
       299.2465      -271.1826      -731.4818      -548.6729      -690.8767
      -937.9848      -355.0111       243.8784       169.0804      -36.13757
      -249.6046       153.3118       768.5042      -36.31454      -429.0460
       422.1345      -657.4385      -496.6331       32.37061      -978.0237
      -436.5005       111.9089       195.9294       135.3466      -500.4844
      -218.1222      -616.0391       51.08502       657.3669      -744.1172
      -1223.262      -1236.479      -663.5547       476.8441       40.35388
       407.1097       745.9415      -123.6353      -751.3627      -473.0693
      -713.1860      -847.1367       589.8348       143.7476      -71.20825
       1455.300      -89.16992      -735.4592      -366.4836      -1079.779
      -421.0510      -134.6961      -308.8610       314.9918       132.0956
       278.3044       448.0251      -730.3201      -1146.115      -91.72266
      -442.6022      -428.6272       291.1485      -184.6937       32.20465
       455.5750      -620.9205      -496.2553       127.1630      -413.4019
       88.12671       1111.577       99.72925      -516.3633      -1011.651
      -996.1794      -316.6643      -551.8828       75.35803      -210.0261
      -1113.542       976.2354       1351.513      -196.2341      -780.2520
      -672.3582       1130.950       643.7781      -441.0439       810.7805
      -363.2122      -885.2112       485.5817       791.8859       193.7960
       134.1743      -552.2974      -1768.425      -615.7776      -96.62268
      -732.2523       526.3335       278.1426       993.7300       1354.235
      -432.5735      -105.8333       446.0636      -299.9573      -25.01135
       261.4053      -699.2118      -656.9545       327.3026      -100.7159
       223.9941       664.8314      -396.8240       108.1509       762.1520
      -283.6366       113.0657       260.3572      -556.4872      -680.3963
       1.551147       251.0044       346.2750       226.1423       263.0911
       691.1465       297.0908       83.10657       666.9764       217.4240
       194.4272      -185.6040      -1197.755      -136.5223       618.7543
       222.0896       622.3138       573.8130      -382.0301      -706.4412
       771.1656       277.6688      -54.61304       1476.348       61.90466
      -549.8250       315.8511      -1110.062      -1331.204       121.6323
       1064.038       170.3757      -195.7747       787.5707       393.0497
      -797.5630      -271.6237       287.6324       357.3095       172.6455
      -508.8204      -145.6252       122.9597      -199.1281       594.6843
      -16.09265      -252.3962       941.7964       1098.297       1413.846
       665.7355      -491.1572      -121.5342      -352.9001      -530.9393
       163.6921       144.4490      -830.1001      -925.2429      -78.49756
       1470.335       1361.031       207.9814      -195.8790       343.0293
       729.8564      -271.8347      -771.9990      -658.5979      -1467.117
      -617.7218       452.6181      -217.1660       727.3628       1379.832
      -488.6729      -148.0698       2072.395       1993.959      -227.9730
      -662.9061      -258.5714       192.7393       746.3945      -730.7588
      -1531.641      -636.9573      -149.1489       509.0012       1074.165
       527.7161      -813.5804       53.83105       1902.141       816.3859
       56.23706       1492.192      -146.5229      -1009.776       655.5913
      -134.6580      -992.7104      -193.3052       236.1786      -363.5256
      -464.5281       605.6968       853.9331       1695.747       1590.738
      -179.8878      -239.1371       281.8213      -619.5400      -1562.743
      -804.2429       694.4800       636.2219       243.5040       257.9807
       214.9697       835.7517       1226.638       306.4564       478.9229
       1042.275       590.1819      -170.2987       21.18616       60.76550
      -939.8054       104.6846       1835.540       391.8383      -649.6673
       135.5498      -373.8589      -1077.231      -64.25043       532.4287
      -682.1608      -762.3496       1190.329       607.2085       366.4287
       2080.824       1238.442      -371.8440      -253.9749      -745.0532
      -877.4956       543.4375       1925.033       402.3251      -1387.391
       775.7800       871.2126      -1094.172      -7.128418       713.1794
       328.6224       304.6460       512.1213      -301.3018      -297.3745
       913.0530       1226.606       120.3110      -915.4148      -342.3943
      -771.1259      -188.2239       1043.378       5.869385      -368.9850
      -164.5343      -113.0716      -204.8789       514.2058       833.8713
      -213.9250      -472.1074      -634.6036      -568.2175       955.5934
       319.7701      -400.0393      -744.5759      -1668.679       181.3542
       735.9849       429.7671       1346.518      -267.2191      -587.5283
       251.8169      -548.9386      -668.7079       186.1928       234.5439
      -363.7523      -18.71307       273.2598      -1274.246      -1676.044
       500.6672       479.8979      -1726.052      -928.6777       1056.488
       452.6673      -176.9072      -459.9958      -1248.873       161.3748
       619.9032      -810.0912      -363.2266      -427.0200      -1713.363
      -866.3752      -1031.777      -378.0967       1952.322       841.0830
       1210.181       2260.561      -734.9893      -1320.255      -1768.581
      -3623.767      -2069.675       545.8987       383.1252      -421.7199
       249.4358      -715.9106      -1039.167       373.9888       989.3188
       2565.049       1434.865      -998.2722      -373.5884      -1574.953
      -3017.117      -1205.596      -816.0151      -1669.550       809.6021
       2220.591       808.3420       1448.075       943.3062      -1522.446
      -2065.038      -908.3948      -216.6448      -763.7231      -1564.468
      -507.5107      -1497.465      -2753.240       356.9880       868.9858
       777.4150       3516.438       2467.892      -47.19586      -271.6597
      -296.4653      -1403.704      -1926.694      -697.2593       360.9069
       554.7698       544.7803      -626.5190      -1630.220      -1034.117
       443.7322       1204.704       414.4104       862.9631       1574.583
       236.8748      -201.6221      -314.2354      -1072.367      -1561.895
      -360.8560       401.7159      -268.5054       510.9371      -261.6609
      -404.5397       576.3710      -275.6587       1142.295       1472.167
      -1332.823      -1646.905      -908.2858      -854.4040       66.50378
       246.9691      -130.6726       413.5334       1572.442       744.4333
      -161.8186       1115.280       224.9343      -518.1744       715.1893
      -211.1050      -1145.660      -167.7348       481.2631      -457.0286
       107.2520       1062.098       626.9775       1498.339       1097.764
       182.2446       1548.629       1946.466       1754.796       1074.977
       222.8655       1477.200       87.14502      -131.5518       3488.574
       2973.882       3502.613       7186.773       7850.824       8409.469
       9524.261       6225.369       930.6992      -4300.711      -13381.85
      -22488.94      -28032.57      -31949.62      -30286.10      -24398.42
      -15505.56       3266.594       17279.50       15615.33       14734.14
       9812.008      -11470.22      -35171.44      -46685.66      -46980.88
      -33658.87      -4407.055       27689.00       56045.88       72871.11
       61548.06       42336.02       40359.55       30615.13       9203.785
       5700.266       15545.23       12447.09      -7411.031      -36536.17
      -51039.72      -44381.19      -44928.06      -31586.01      -2981.945
       19416.24       26468.53       17258.41       21180.60       17141.79
      -10123.95      -25522.31      -17501.07       181.1758       8968.242
       11510.85       9354.822      -4212.238      -8315.664      -3962.349
      -235.0000       14453.20       24744.13       16350.87      -2873.328
      -19433.22      -15288.04      -3102.781      -8156.725      -10690.15
      -354.7422       5734.597       7225.674       1917.240       3704.447
       10707.44       1526.359      -8250.935      -4856.798       2690.216
      -1129.422      -7279.509       2021.212       7341.591      -4405.927
      -6601.065       4105.213       5791.094       5175.199       13725.58
       13450.00      -203.7500      -8895.348      -9973.812      -1393.188
       8887.233       6236.965      -220.7446      -1735.022      -1926.105
      -6151.609      -13633.19      -14842.68      -5837.761       1481.055
       5425.562       11687.09       16777.84       17802.87       11124.04
       2888.984       504.5966      -328.1487       28.50354       1608.895
      -1694.592      -7018.465      -14338.57      -17884.86      -14613.39
      -14957.82      -9784.400      -2858.053       36.69531       4263.805
       8321.695       8902.215       5979.371       7658.225       8310.087
       2115.235       312.1455       1655.686       1834.482       5144.949
       3761.250       209.0938       472.1660      -2636.298      -6223.642
      -2149.236       578.8281      -3497.100      -1890.359      -301.9062
      -5084.330      -7438.762      -7413.648      -4922.553      -1896.410
       3442.113       8909.090       9994.902       8771.404       4766.486
       897.3467      -4108.569      -4203.730       686.9253       2140.036
      -1235.366      -1653.531       1764.684      -104.5596       1181.254
       5524.801       6598.821       4569.199       1187.587      -1803.969
      -6228.475      -7848.336      -5040.322      -2100.719      -3618.340
      -2241.148      -408.2041      -4155.920      -3379.730       691.8335
      -2052.193      -3168.541       2298.223       3108.877       4968.453
       5431.330       260.1250      -3178.080      -6211.077      -4790.697
      -182.3564       4937.573       5936.097       3410.319       4143.511
       2224.428      -665.6680      -3191.985      -5206.932      -2610.548
       2510.494       4744.129       1057.700      -1350.072      -70.44824
       738.2144      -323.6895      -1498.666      -1253.291      -4443.832
      -8228.474      -3834.264       1180.291       3538.245       5866.590
       1228.106      -5921.593      -3644.978       1719.672       958.3922
       110.0598      -685.3506      -2210.879      -952.5040       93.77100
      -434.0933      -2543.526      -105.3506       3475.828       4418.891
       7753.527       8324.594       5855.234       2272.816       2369.055
       4767.374       2192.473       332.3232      -2461.715      -10390.74
      -14907.54      -10664.02      -4668.369      -1616.724       2074.979
       6140.979       5157.322      -1035.938      -2388.434       597.2725
      -2319.844      -4068.116      -52.93652       1670.191       2058.774
       4404.221       3516.880       1253.310      -882.9141      -3411.919
      -2202.213       2079.633       4880.504       2954.560      -612.3105
      -2307.061      -876.3779      -1319.053      -5754.480      -7748.014
      -4560.957       1901.123       5063.555       4133.950       1666.069
      -1565.468      -3270.056      -2951.153      -1543.032      -1979.408
      -3039.307      -2918.463      -1154.871       4128.162       5080.550
       2733.881       5390.275       5201.314       929.3604       591.9578
       464.7771      -380.4805       2743.354       2322.891      -1060.545
      -121.3560       1424.672       2579.788       1927.721       35.31787
      -1129.324      -2030.896      -3643.861      -4444.795      -2032.770
      -433.9459      -195.6121      -350.9297      -2410.232      -5684.059
      -9629.549      -8577.113      -3622.863      -2124.635      -236.8408
       3604.799       5319.383       4721.209       3967.507       3638.179
       1188.444       815.0156       4457.598       6627.181       4995.559
       3064.852       1040.043      -2932.905      -4549.997      -4129.242
      -2814.759      -2023.254      -1209.776      0.1240234      -625.9531
      -1612.832      -2501.703      -4518.722      -4331.337      -553.3042
       1036.293       2251.278       1576.463      -1662.622      -2043.915
      -346.0229       1503.721       1794.150       1802.332       1921.803
       1459.507       2659.811       3790.863       2674.323       527.8306
      -594.7051      -1773.996      -1437.902      -831.0391      -2618.952
      -2481.916      -975.4849      -1810.015      -2922.602      -1241.336
       553.7908      -212.0425      -1137.171       692.9419       1717.939
       1136.385       2923.480       3320.629       2206.084       5080.980
       5834.787       2125.545       910.3176       1062.935      -96.65332
      -4331.873      -6406.167      -4469.742      -2790.853       537.9727
       1755.420       1810.629       3162.579       1720.493       1568.436
