     0.02500000      -46139.72       24588.59      -12345.00      -12345.00
      -30.00501       219.1200      -20.53000      -12345.00      -12345.00
       0.000000       15.49000      -12345.00      -12345.00      -12345.00
      -12345.00      -12345.00      -12345.00      -12345.00      -12345.00
      -12345.00      -12345.00      -12345.00      -12345.00      -12345.00
      -12345.00      -12345.00      -12345.00      -12345.00      -12345.00
      -12345.00      -31.03680      -69.52500       1657.000       0.000000
      -31.59500      -68.73200       0.000000       105100.0       0.000000
      -12345.00      -12345.00      -12345.00      -12345.00      -12345.00
      -12345.00      -12345.00      -12345.00      -12345.00      -12345.00
       97.61243       309.1430       129.5531      0.8776528      -12345.00
      -12345.00      0.1721033       0.000000       0.000000      -12345.00
      -12345.00      -12345.00      -12345.00      -12345.00      -12345.00
      -12345.00      -12345.00      -12345.00      -12345.00      -12345.00
      2008        13        10        50        47
       930         6    -12345    -12345      9966
    -12345    -12345    -12345    -12345    -12345
         1         7        13    -12345    -12345
    -12345    -12345    -12345    -12345    -12345
    -12345    -12345    -12345    -12345    -12345
    -12345    -12345    -12345    -12345    -12345
         1         1         1         1         1
NUEV    -12345          
        -12345  -12345  
-12345  -12345  -12345  
-12345  -12345  -12345  
-12345  -12345  -12345  
-12345  -12345  -12345  
-12345  -12345  BHZ     
ZL      -12345  -12345  
[...]
      -191.2173      -195.4451      -216.7731      -228.8318      -241.3424
      -233.6358      -248.5300      -258.1991      -272.1014      -275.7077
      -297.5435      -299.4732      -304.5268      -302.4086      -312.8284
      -306.6016      -312.9659      -317.7619      -328.2503      -324.1621
      -338.0161      -334.7865      -336.8688      -335.3760      -339.5978
      -326.3220      -333.9272      -335.0531      -341.0576      -332.9371
      -332.8235      -321.1664      -312.8287      -304.8379      -320.4856
      -318.3579      -320.8220      -312.5663      -310.9606      -301.0638
      -300.4971      -293.5553      -299.6833      -287.7066      -283.0540
      -268.6830      -265.9209      -252.4029      -252.0607      -243.9669
      -246.5836      -240.8690      -241.4689      -226.2233      -222.7806
      -208.9529      -201.6344      -184.3064      -182.2295      -173.9479
      -171.1701      -152.6678      -146.0630      -125.2595      -115.4009
      -101.4590      -108.3244      -107.8274      -105.4937      -87.89035
      -81.68402      -66.35930      -64.85669      -60.68582      -62.12674
      -49.60535      -44.25596      -26.57932      -24.29343      -15.72131
      -14.17385      -6.042334      -2.354694       8.359940       11.47846
       17.96674       7.940517       7.173580       4.955498       15.72145
       24.12825       38.79822       39.28783       44.66052       44.90274
       47.03197       38.17195       41.78758       38.27602       38.30134
       31.46420       39.61304       37.84580       40.82087       40.29842
       44.60579       42.27019       51.15103       48.00134       52.46664
       55.91132       62.00766       53.05931       57.14633       52.39481
       41.98171       33.13886       34.45165       31.70334       39.21494
       42.44092       53.19905       55.86536       60.21977       60.29448
       66.87390       63.94293       67.75876       70.29916       76.23079
       67.53252       63.76794       52.76506       50.45627       50.36176
       50.34656       48.19174       56.95367       55.05180       53.50108
       55.19426       58.99417       54.37997       59.41269       66.44614
       63.59451       46.94705       32.65331       32.39120       33.56630
       33.86064       45.81865       52.18069       49.62856       45.51454
       45.31076       43.06253       44.11330       41.10320       34.87176
       21.93836       13.55193       9.066565       3.526014      -9.610092
      -10.14533      -10.20023      -11.53040      -15.47105      -22.94476
      -32.32161      -33.36514      -42.16953      -54.21756      -71.62369
      -80.16064      -82.09280      -84.49780      -99.67133      -117.6426
      -134.7645      -143.4915      -150.4484      -147.4505      -145.8888
      -153.4802      -176.5823      -189.8673      -195.6714      -203.1110
      -219.3612      -238.5366      -292.0486      -326.6952      -249.8096
      -233.3324      -303.3069      -307.2350      -621.6708      -795.0795
      -381.0610       719.7671       2241.244       2687.682       2257.750
       2478.656       239.9199      -3601.661      -3506.332      -2580.592
      -2214.622      -588.7554       929.8008       759.2500      -2427.696
      -3098.477       2069.543       2484.589      -2027.765       196.3723
       2245.462      -876.0762       1157.907       831.7129      -5102.947
      -1640.767       2823.207      -7.393799      -37.40857       1311.651
      -789.8499       82.81958       1896.515      -388.3066      -1489.424
      -1581.378      -960.6689      -22.36768      -1213.981      -975.1221
       2633.654       4023.914       3613.525       3372.112       489.6130
      -1532.946      -985.5944      -289.9512      -1124.522      -748.1602
      -1508.306      -2563.061       1752.962       3473.119      -28.54248
       792.6870       3465.558      -764.7075      -2984.074      -511.6099
      -590.9170      -229.8031       748.4122      -239.0934      -952.3486
       1279.685       2304.892       1436.677       1835.483      -727.2227
      -3017.403      -1569.687      -887.2207       620.3511       2356.195
       2451.312       1313.574     0.06494141       927.1377       2781.630
       2117.833      -369.4609      -2229.492      -2998.533      -968.0679
       250.3435      -907.2703       698.8104       892.8640      -1381.147
       97.95410       1883.226       1758.271       1454.375      -333.2385
      -1286.446       275.8857       1092.496       764.6156       915.6047
      -384.9735      -955.0479       364.6519       126.6708      -705.1137
      -372.9961       927.4285       1112.729      -1428.486      -2125.510
       15.55273       1340.183       708.6851      -341.3362      -100.5098
       1158.968       1194.274      -776.4375      -1472.836       853.5513
       2403.378      -149.1650      -1468.974      -1066.291      -1780.117
      -463.0396       1215.115       1131.007       1837.336       3338.691
       1678.399      -1409.664      -2111.618      -2465.715      -1466.232
       1383.022       1903.196       705.3198       1091.660       402.7156
      -1517.682      -458.7151      -193.3016      -1008.805       1088.503
       1285.959      -644.3112       451.6838       1027.916       20.05908
       1054.051       1105.760      -493.4795      -999.9404       371.9033
       468.5098      -1631.685      -916.4456       982.3762       1100.266
       84.15771      -510.6453      -762.7461      -350.9062       1772.449
       1925.816       840.7627       1240.490       344.7186      -408.0890
       255.1694      -605.2012      -1044.340      -525.8203       539.4446
       1403.052       92.11621      -1156.166      -837.1353      -513.2990
      -889.4425      -219.0364       336.9658       469.5325       1258.318
       320.2559      -1462.279      -290.9275       855.6875      -671.6445
      -608.0423       199.5986      -520.9451      -828.7090      -1105.418
      -288.1198       852.2896      -145.7183      -1355.029      -1691.363
      -693.0454       1121.099       1951.044       1831.230       1358.122
       559.9548      -283.4224      -934.4897      -1515.235      -1287.409
      -449.2316      -52.20325       153.8897       48.33838      -1079.187
      -2540.829      -2488.122      -48.63721       1380.163       162.3115
       248.0396      -15.21533      -1664.557      -686.6655       557.7828
      -100.7061      -1339.626      -1336.253       1200.272       1921.818
      -1182.452      -3014.059      -1334.967      -554.0305      -584.1052
       327.5957      -707.7183      -1302.925      -680.4710      -363.3457
       774.4956       1250.951      -28.59277       743.1833       1861.649
      -991.1514      -2794.947      -2171.708      -825.2484       448.5559
      -589.5581      -1464.804       135.5961       356.5223      -823.1797
       1685.706       2536.064      -670.4424      -1655.021      -1714.903
      -956.8370       369.5430      -836.4585      -1647.994       398.5813
       1098.497       159.9653       277.0034      -72.94852      -171.3242
       244.4766      -634.4282      -979.0103      -734.6016      -1289.089
      -932.3749      -202.2293      -134.1555       957.4316       2147.062
       2485.477       1934.030      -614.9580      -2736.120      -2343.179
      -1987.169      -2695.487      -445.2241       1608.646       1117.012
       2079.488       1605.775      -1012.854      -815.1552       545.6485
      -61.08984       752.7502       1648.959       377.1794      -684.5242
      -193.6267       1184.978       331.4446      -477.9865      -177.1016
       302.5488       1260.123       370.2692      -455.1250      -401.4009
      -668.5342      -1154.824      -217.6494       251.7014       512.7339
       1550.352      -169.4355      -1683.143      -2839.135      -3445.659
      -557.9580       1174.709       2131.777       3570.286       2383.225
       853.6311      -420.1194      -371.7173       403.5967      -1440.723
      -2696.423      -1016.880       774.7961       1307.083       1451.120
       676.8765       486.1475       1197.343       2111.885       2050.384
      -150.5537      -1505.815      -1527.833      -1493.664      -362.7061
      -302.1606      -1989.959      -1239.638       990.5078       951.6453
       296.2871       2230.081       2423.725       681.5535       690.6990
      -599.9514      -695.1935       192.0024      -1658.568      -1622.353
       1365.952       1624.676      -302.7446       606.8679       1543.224
      -1071.286      -2140.353      -179.1830       288.6138       831.9995
       2115.912       462.2986      -1200.516       92.94043       909.0244
       1052.288       1468.533      -611.4561      -2688.438      -1827.283
      -1047.415      -603.1528       843.1299       3387.886       4270.568
       870.4973      -1263.533      -215.6516       424.2177       229.2974
      -764.1299      -1820.042      -1473.469       279.3367       1338.049
       53.21948      -1315.465      -413.2913       817.1572       1731.188
       2354.347       8.548096      -1043.611       558.1499      -92.89453
      -739.1072     -0.3190918       803.0752       921.8923       871.5071
       1275.908       704.5688       1460.180       2196.425      -1057.319
      -3620.008      -2742.010      -1528.716      -878.5009      -498.9545
       643.0518       245.6090       216.6323       1234.989       330.9944
       884.3252       1951.627       1764.444       1100.956       374.6470
      -1202.891      -1825.432      -578.5747       1437.217       2666.549
      -162.5541      -265.1125       299.7285      -1923.929      -654.9243
       179.3025       329.4121       1060.782       1015.168       692.2524
       455.6808       884.8274      -189.3708      -1156.774      -759.6807
      -464.8373       35.92578       732.0003       289.1958      -198.4280
      -399.3970       381.4473       1908.054       1554.320       1558.109
       107.2861      -3590.578      -3414.582      -1673.924      -1457.573
       541.6064       3209.162       3773.958       3934.498       2969.253
      -148.7969      -1362.264       217.4700       1494.594      -477.2084
      -1290.162       1413.137       629.3672      -1607.971      -1713.092
      -2467.711      -1936.539      -429.5400      -924.3586      -932.4844
       298.6406       832.4082       1107.759       982.5945      -815.4536
      -834.3159       1912.176       4208.176       5414.935       2512.201
      -1987.540      -830.6599       1317.491       700.1763       1650.897
       1982.896      -698.6777      -1194.721      -2383.312      -4972.369
      -1557.610       2578.866       2023.575       263.2134      -1818.688
      -1954.118       888.3054       1446.337       843.8770       3137.816
       3672.178       2981.576       3285.613       773.3594      -2628.295
      -3338.270      -2611.102      -2795.694      -1961.498       1073.381
       2379.870       286.7090      -1693.090      -1122.494      -751.2339
      -385.3809       2299.616       3211.097       753.8210      -29.30908
      -1741.636      -4387.674      -2413.344      -742.1116      -728.6162
       2178.556       2235.409       1361.748       4037.405       3090.135
      -274.3281      -1554.146      -1144.866      -123.5312      -1672.789
      -3036.581      -47.93994       1652.654       105.2725       958.0425
       2577.469       2000.531       733.6587      -733.2166      -566.7407
       1077.850       418.6702      -1071.397      -1140.523      -1177.209
      -1418.054       773.8420       1370.104      -2205.609      -3659.027
      -1523.692       447.6058       354.1450      -932.5908      -2160.139
      -2164.119      -1142.259      -1269.579      -312.7485       1692.539
       390.0401      -38.40582       469.6755      -1183.666      -584.2637
       1093.689       1402.565       69.74316      -1628.496      -1316.363
      -304.2065      -613.8799      -3435.969      -4691.546      -2287.181
      -1149.691      -1708.872      -2369.274      -618.8540       1389.155
      -530.8875      -307.5505       1766.812      -406.8374      -1078.196
      -311.1113      -2880.760      -2752.583      -1266.488      -2918.992
      -4340.613      -5379.162      -7010.504      -7096.455      -6758.613
      -9477.629      -9744.707      -8265.344      -11728.30      -12786.00
      -8144.937      -5014.926      -3326.005      -3112.605      -2010.105
       7005.961       13100.58       12989.96       18110.53       19225.00
       15379.36       14965.61       9458.201       4420.240       8935.800
       7404.190      -294.5156       1383.363       10094.58       12904.20
       372.1406      -12001.27      -8481.133      -18551.55      -46139.72
      -43589.71      -7433.453       24588.59       23216.79       7792.816
       11981.07       15874.27       9889.943       1779.012      -10968.39
      -14355.85       1463.191       11466.98      -345.2969      -4595.156
       12031.52       21662.11       13578.37       5784.675       3233.270
      -3536.934      -13334.05      -28252.67      -43264.11      -37799.43
      -14952.02       2969.355       7041.328       11317.99       17936.91
       13530.73       12495.80       12219.00      -1344.985      -5686.674
      -552.0757      -1041.309      -2554.660      -5334.451      -6102.986
       981.8887       6650.141       7198.361       8772.475       9727.255
       5669.502      -1277.551      -7666.223      -12629.60      -12088.96
      -8317.945      -3908.848       2552.160       5868.256       6084.645
       9962.434       14049.29       15705.88       13233.16       1546.306
      -5869.781      -3897.906      -6546.758      -12623.72      -13579.57
      -9234.177      -3137.434       2829.135       4334.305       5795.371
       13487.71       16688.95       12398.70       6394.600      -2213.597
      -5608.493      -204.0464       2507.385      -351.3625      -434.8652
       3636.182       2776.536      -1899.322      -5645.840      -6803.268
      -2976.611       598.6560      -149.9043      -3782.693      -4302.141
      -2109.883       922.3618       1204.736      -5192.787      -7524.167
      -649.9414       5398.816       6115.971       7276.941       6497.557
       3920.809       5924.945       6275.899       2084.083       394.4585
       819.7500       2687.422       7786.500       9964.338       7169.411
       1179.678      -5450.594      -8725.812      -9780.912      -10336.46
      -9428.440      -6163.326      -949.1406       5579.340       7777.133
       4411.058      -559.6074      -5431.820      -9761.402      -12304.04
      -8606.816      -2148.447       5639.965       11236.07       10705.95
       7766.584       5292.500       6334.128       4394.954       287.0352
      -399.6707       10.29395      -1767.623      -6484.736      -7359.531
      -5453.724      -4006.326      -1331.929       2583.042       2645.651
      -997.5610       173.9277       3626.342       5443.504       5884.035
       4749.359       3682.101       1625.578      -2542.022      -4687.070
      -3154.466      -2011.334      -2107.677      -796.2549       1785.830
       1822.184       1024.447       3871.088       6467.013       3518.159
      -1014.551      -3051.154      -3067.434      -2635.445      -4384.109
      -5558.923      -1959.917      -6.618164      -4427.389      -5026.661
      -614.8701      -1067.428      -3206.538       257.9526       3131.999
       621.3994       368.0481       525.5195      -2785.531      -2559.452
       798.2031       3277.945       7453.752       9328.617       4170.735
      -565.8379       1339.012       2909.861       197.1562      -3126.929
      -2576.561       878.3107       867.2700      -1157.925      -1684.107
       162.2061       1916.152       2137.997       2519.224       1896.582
       1862.382       3054.775       218.5996      -4386.082      -5039.068
      -4264.900      -3532.362      -3400.713      -4659.568      -3493.458
      -180.8745      -329.3167      -320.8047       4304.916       6567.123
       3790.659       851.2131       505.4731       1813.648       1542.049
       2679.236       5385.254       4973.738       3433.010       1399.417
      -563.5996      -2745.912      -7164.420      -8503.604      -5349.199
      -5172.745      -5378.812      -456.0225       4269.404       4946.674
       1212.854      -4628.757      -5433.626      -1334.168       311.3053
       235.2455       489.0298       198.0603      -340.8528      -404.3667
      -1485.227      -4799.924      -4392.825      -915.2296       82.73389
       894.4004       3855.739       4282.184       2236.783       2569.492
       671.8330      -3224.816      -2276.797       767.7621       236.4136
      -2302.356      -2186.468      -859.0564      -242.3313      -624.7161
      -1314.507      -445.4951      -2122.227      -4518.081      -2917.430
      -212.1912      -100.0876      -1833.313      -302.1694       1841.128
       521.0322      -1118.859      -2099.706      -1428.601      -3.644775
       551.7561       1065.404       611.5201       421.1453       935.7123
       294.0294      -85.14551       705.9883       1060.971      -674.6572
      -3523.394      -2686.112      -3.822998      -249.4097      -991.0115
      -468.8785       183.1326       492.5171       1181.298       1864.403
       1958.140       2545.803       1271.527       39.40381       1945.306
       804.3535      -2066.441      -1855.995      -2766.576      -4921.043
      -4832.881      -4251.271      -3364.416      -640.9512       3.985962
      -1053.033       423.9858       2112.425       1861.350       2457.251
       4783.042       4007.769       807.0283      -1633.366      -3024.854
      -3933.407      -5012.117      -3634.776      -1825.698      -1683.062
      -211.2578       1391.474       1952.011       2022.684       1313.509
       1685.120       2547.497       3611.772       3188.338      -1219.860
      -3172.862      -399.6367       502.3221      -669.3066       1752.918
       4541.932       3853.999       2177.745       587.0088      -774.3569
      -1477.371      -1675.026      -1228.162      -1160.444      -2961.080
