     0.02500000      -49373.98       44982.44      -12345.00      -12345.00
      -30.00501       219.1200      -20.53000      -12345.00      -12345.00
       0.000000       15.49000      -12345.00      -12345.00      -12345.00
      -12345.00      -12345.00      -12345.00      -12345.00      -12345.00
      -12345.00      -12345.00      -12345.00      -12345.00      -12345.00
      -12345.00      -12345.00      -12345.00      -12345.00      -12345.00
      -12345.00      -31.03680      -69.52500       1657.000       0.000000
      -31.59500      -68.73200       0.000000       105100.0       0.000000
      -12345.00      -12345.00      -12345.00      -12345.00      -12345.00
      -12345.00      -12345.00      -12345.00      -12345.00      -12345.00
       97.61243       309.1430       129.5531      0.8776528      -12345.00
      -12345.00     -0.1104929       0.000000       90.00000      -12345.00
      -12345.00      -12345.00      -12345.00      -12345.00      -12345.00
      -12345.00      -12345.00      -12345.00      -12345.00      -12345.00
      2008        13        10        50        47
       930         6    -12345    -12345      9966
    -12345    -12345    -12345    -12345    -12345
         1         7        13    -12345    -12345
    -12345    -12345    -12345    -12345    -12345
    -12345    -12345    -12345    -12345    -12345
    -12345    -12345    -12345    -12345    -12345
         1         1         1         1         1
NUEV    -12345          
        -12345  -12345  
-12345  -12345  -12345  
-12345  -12345  -12345  
-12345  -12345  -12345  
-12345  -12345  -12345  
-12345  -12345  BHN     
ZL      -12345  -12345  
[...]
       133.1514       166.7316       128.2672       160.2311       130.0194
       167.4586       139.5606       180.6970       146.8941       184.6592
       151.8839       181.6758       146.5600       185.3863       149.9904
       188.1604       151.9290       180.9322       142.1859       178.0266
       140.1448       172.7432       140.6353       180.4620       145.2224
       171.1193       125.2210       157.7135       121.2217       159.0516
       125.7278       155.6297       117.5059       149.9532       109.8163
       138.8194       100.4250       137.6840       104.2542       132.3843
       86.22534       113.5244       68.67020       98.24313       63.38541
       93.70413       61.96823       97.82556       55.48335       85.37680
       47.61153       77.27292       34.45273       63.49912       30.77354
       63.65916       27.99811       59.82380       16.32805       40.07226
    -0.01948166       26.30558      -6.388382       28.07014      -11.91888
       14.80918      -20.62548       6.502357      -35.28979     -0.2269516
      -38.54150      -13.04568      -49.42123      -23.40407      -65.06808
      -26.25876      -54.55490      -24.08798      -66.53082      -37.51826
      -73.32819      -43.79092      -82.66846      -47.53287      -82.27490
      -49.88646      -89.72113      -54.39871      -87.30727      -57.24866
      -104.9204      -73.47467      -108.7562      -70.17627      -99.12033
      -63.72321      -101.1681      -65.43344      -105.6289      -70.94675
      -102.7634      -63.81998      -99.61240      -72.20142      -114.8796
      -82.69418      -124.8708      -99.22568      -135.6791      -94.34274
      -123.4807      -86.35941      -125.8507      -97.48856      -132.2170
      -98.92636      -141.1096      -112.7845      -153.4625      -121.6184
      -156.6651      -121.7144      -157.3512      -125.5043      -163.0490
      -130.8159      -158.7821      -124.6176      -168.3215      -136.8748
      -169.1740      -123.5164      -154.7486      -122.0790      -160.2672
      -125.5152      -156.3207      -129.4879      -173.2559      -135.3676
      -170.9512      -132.1458      -155.0310      -116.4245      -148.2460
      -109.4253      -143.2832      -108.2919      -142.4420      -110.7157
      -144.8334      -105.7281      -133.0168      -94.29309      -127.4179
      -90.31171      -130.3645      -103.9203      -135.1687      -87.43900
      -110.4768      -72.94345      -106.3431      -70.22607      -110.7494
      -76.96777      -111.7777      -76.98456      -105.8951      -68.58163
      -106.5058      -73.74969      -105.2069      -67.28773      -97.78793
      -56.97330      -88.49968      -55.83940      -90.69258      -58.16113
      -96.88382      -69.24039      -103.1253      -64.48914      -93.95242
      -63.07693      -105.9834      -66.05273      -89.88565      -48.76842
      -79.30914      -47.91087      -81.72537      -45.83049      -71.59076
      -30.58505      -66.56763      -39.86465      -73.42110      -24.58416
      -44.18120      -7.286682      -37.92432     -0.6817245      -36.99035
      -2.051392      -30.71080      -2.791161      -34.69638       26.44312
      0.2988281      -2.149658      -72.19739      -130.6050      -212.9626
      -118.1466       117.3264       755.1670       1015.637       724.4238
       769.7443       787.3264      -901.8398      -1944.584      -842.2771
      -489.3740      -1065.851       738.1855       1849.449       146.7748
      -175.1089       843.5094       450.5042      -497.9265      -292.0247
       1142.427       276.9105      -254.7200       1028.698      -440.5962
      -1428.106       107.4692      -272.8577      -788.1388       394.6101
       1210.146       14.09387      -174.0049       1416.809       1126.098
      -910.1121      -823.5125       240.6727      -466.7355      -470.6953
       1870.547       2406.035       63.77319       238.3240       1529.324
      -608.6523      -1291.336       154.5594       79.87085      -303.7947
       943.8348       600.5776      -767.0928      -107.7354       524.6860
      -418.3694       504.2390       1464.214      -437.3956      -670.8389
       1240.289       419.2559      -1142.676      -314.2654       311.2615
       390.2468       980.0180       226.4771      -846.9591      -673.5394
       341.6272      -520.5652      -130.7847       1740.950       698.9904
       69.45776       413.7073      -678.7380      -279.8547       1427.147
       1093.596      -1119.836      -804.5422      -1.215332      -785.9919
      -1178.610      -1221.141      -121.3456       962.6567       11.81476
      -180.6416       866.9701       1052.009      -121.2786      -219.8832
       36.52539      -628.9154      -147.4973       803.8733       64.98937
      -52.75096       125.5633      -237.7325       378.6416       105.9150
      -1405.300      -1294.344      -425.6080      -162.4778      -11.08398
       681.9429       784.2142       144.1632      -710.8407      -479.6617
       369.3115      -692.2507      -1571.909       242.7534       1170.403
       1075.889       400.7485      -579.4958      -664.6439      -230.7520
      -148.4816      -459.5046       847.8926       1757.739       374.4641
      -12.99658      -585.6438      -1200.813      -814.4907       236.1763
       688.8250       551.6746       396.1123       713.8344       753.1279
      -979.7349      -1416.422       112.7949       17.51001      -354.9272
     -0.7542801       54.29703      -180.5698       428.0403       1223.504
       985.7496      -148.1946       486.2051       437.8643      -742.4216
      -741.4749      -785.8798      -125.8550       167.8816       298.6527
       939.1675      -216.8546      -700.3786      -322.8459      -90.73438
       528.6602       1187.052       1195.110       481.4298       236.8583
       172.1821      -1127.388      -956.0123      -307.6210       57.28198
       765.9819       412.3250       354.1244      -131.3442      -1171.678
      -595.7469      -196.6507      -94.64978       237.9287       528.4562
       307.9977       138.2227       508.2217       329.5873       126.6738
      -74.58545      -1480.698      -1008.390       1.956848      -114.8387
       393.5598       1080.932       864.8467       236.0254      -1002.932
      -1549.385      -346.3818       344.2930       323.3864       695.8483
       553.4949       430.1643      -258.7349      -678.6089      -544.6708
       136.8214       680.8715       6.992676      -461.4849      -657.0310
      -895.5884      -745.3782      -1387.590      -638.2458       702.6842
       721.6567       293.9453       53.49866       343.4812       463.7379
       552.5582       161.8652      -1026.149      -781.7375      -458.6028
      -572.8192      -686.1985      -24.79004       817.6031       70.35815
       38.62683       663.3303      -337.2017      -1161.161      -1048.142
      -49.06494       433.4651       521.8752       320.6239      -471.7534
      -1077.162      -646.7910      -410.5948      -444.9806      -222.9725
      -234.0787       128.3179       306.7729      -688.5994      -1176.428
       118.6865       1063.524       170.7563      -376.1338      -1006.004
      -1734.884      -765.4731       809.2284       169.7518      -449.6295
       406.1036       861.4324       272.2104      -122.2991      -288.8921
      -971.5907      -434.6692       714.7025      -148.7708      -483.1057
      -163.7725      -980.7456      -1429.122       174.8484       1468.096
       661.2717      -592.6621      -613.4246      -294.9097      -911.2424
      -883.4766      -2.269867      -28.70044       363.4082       626.0844
       123.3503       57.88104      -63.65637      -608.8474       269.5344
       1158.312       1003.577       791.2474       284.4114      -1000.053
      -1134.946       116.4756       165.3625      -315.9884       93.93872
       911.1234       786.1121      -17.68805       340.7676       214.8418
       197.5745       111.9663       323.6658       1171.241       846.8280
       96.54187      -370.5415      -1051.765      -1176.547      -251.9111
       848.9871       1399.768       578.3663       52.52100       1506.175
       1068.024      -729.1118      -392.8954       782.2325       164.9711
      -439.9149       214.6570       465.1321      -1.628174       374.0974
       1117.286       505.6503      -95.07251       1115.261       1447.193
       288.0122       189.5605       140.9373      -351.1469       19.97314
       947.5146       1045.222       117.6862       267.0254       697.7999
       735.6437       452.0409       271.2672       399.4882       372.5160
       221.0837       353.1746      -187.6025      -1244.569      -729.0728
       923.0850       1156.931       927.6140       1008.070       99.29883
      -1432.069      -1063.905       738.5847       1259.922       610.5420
       1543.462       2177.452       246.2930      -660.1355      -273.0012
      -501.9659      -644.2805      -373.9272      -1018.746      -1917.777
      -1087.272      -5.719727       1264.851       2285.319       1836.575
      -164.4048      -1357.691      -631.3030      -682.0538      -774.5013
      -67.62018      -229.4612       827.9678       1463.381       394.8452
      -537.1348      -1507.784      -1987.972      -1300.074       271.9307
       1151.513       519.8989       244.5623      -177.6982      -1087.595
      -905.8549      -150.7168      -274.5919       44.13831       242.1626
       499.5586       1140.248       562.9851      -875.4346      -2085.056
      -1362.175      -207.2749      -1125.994      -1907.012      -1471.184
      -660.0255       502.6090       725.0566      -76.98425       46.52856
       759.7520       1191.632       844.6609      -654.4062      -1206.135
      -832.9048      -2010.826      -1383.071      -218.1888      -375.6566
      -168.3972      -432.1775      -418.9546      -771.2419      -554.7639
       757.1606       1031.751       273.4501      -371.0668       39.15729
      -56.81250      -903.3613      -1418.997      -1249.240       167.0002
       1050.602       7.416748      -397.1956      -385.3745      -1102.001
      -1632.529      -1063.165       756.0117       1677.040       720.9772
       257.9037       213.5774      -537.4556      -594.6877      -641.8779
      -1056.740       471.4272       2018.734       1196.625       54.76825
      -19.12402      -285.2559      -1186.910      -596.1637       728.5291
       155.8665      -272.0260       592.0684      -76.00342      -1572.298
      -1336.633      -449.7886       223.9762      -304.7058      -634.0455
      -232.4991       361.9594       438.5593      -765.7693      -742.3716
       705.6934       1865.980       1281.729       856.5679       1404.800
       972.3037      -752.3508      -1625.234      -651.9290      -815.0305
       70.06543       1212.004      -215.4246      -739.7740       338.9029
      -23.09320      -392.4167       1692.405       651.4004      -2497.471
      -1615.698      -445.8601      -936.2664      -491.5889       1018.102
       2238.071       1722.456       22.69443       62.37146       349.6582
      -1314.312      -1637.510      -1026.112      -1293.911      -886.9745
      -57.91400      -260.0527      -202.9657       772.8793       365.4551
       221.4062       1119.944       1864.031       1673.209       17.94238
      -712.0078      -1473.049      -1978.138      -317.8865      -91.78296
      -1099.972      -392.9790       881.5168       1059.261       105.6650
      -1564.365      -2272.393      -851.9025      -151.6204      -676.0073
       488.1006       1601.376       1438.127       1438.124       966.2794
      -153.5166      -190.7893       407.5510      -440.3345      -987.3760
      -984.2056      -982.5535      -787.0758      -684.7397       408.8616
       644.3274      -39.27509       230.9814      -86.62231      -407.2189
       79.02985       556.4404      -643.9971      -2218.554      -1106.088
       614.7878       624.1667       634.6296       882.1919       455.1650
       1506.576       1527.054      -969.8289      -1542.278       3.246948
       763.8546       315.0296      -327.1826       150.0637       1031.579
      -488.4683      -1308.273      -734.2720      -854.7842      -1050.002
      -1545.662      -1200.733      -437.2927       90.88818       937.7554
       1691.277       1602.769       871.9634       876.5222       582.4803
       337.8125       749.9951       678.2481      -316.6292      -173.9688
      -23.63721      -2476.774      -2600.091      -1030.303      -1791.832
      -124.0938       6842.422       15359.16       25015.05       37338.41
       44982.44       44479.31       33942.56       11988.12      -9722.781
      -26810.02      -41933.88      -49373.98      -47205.23      -30918.81
      -3708.016       19548.14       39561.33       41659.02       15013.78
      -6618.715      -16497.54      -21701.76      -16962.37      -15742.44
      -9710.604       4804.230       496.2422      -20705.00      -28321.36
      -19257.14      -8439.790       2421.156       9677.012       9927.273
       12635.78       15542.49       8221.322      -1550.539       1032.371
       16988.77       16123.01      -4455.811      -11175.72      -1854.820
       6102.172       8334.512       5831.464      -482.9609      -7887.949
      -18202.46      -25913.02      -26226.94      -20144.03      -573.5000
       10846.08       7691.348       14020.14       15848.61       14028.70
       17577.78       9104.145       639.7539       3366.389       3807.277
       1023.672      -3879.598      -9582.895      -12015.33      -11121.50
      -2515.746       5344.222       6549.417       2754.213      -2756.914
      -4636.377      -5813.606       2096.282       6829.632      -1549.111
      -4389.793      -3269.340      -6389.969      -9934.729      -5375.886
       3248.078       5801.066       3873.650       4177.195       10417.48
       12891.05       7178.397       2458.127      -2825.875      -7897.718
      -5039.896      -4482.312      -14280.05      -16046.08      -10599.26
      -5469.387       6807.605       13197.51       5413.795       1002.418
       6937.030       7125.899       576.8696       647.9775       2820.644
       3820.358       6309.230       3409.223      -3759.324      -7471.855
      -6783.833      -4118.495      -2635.137      -2637.899      -1491.159
       1891.887       383.3010      -2213.752       1253.684       6082.262
       5347.175      -1404.522      -4777.613      -1039.274       4193.693
       4821.554       2837.788       1906.353       231.1670      -1362.520
      -4881.145      -8489.797      -5306.023      -2358.348      -1466.240
       2616.576       7140.543       10622.58       6413.239      -879.5996
      -2146.883      -2377.820      -3407.167      -328.4277       3247.496
       3287.548       2880.623      -4409.914      -11206.00      -9376.973
      -7331.433      -3789.054       1040.079       2359.136      -675.7053
      -951.9990       1698.446       3127.377       8277.270       7918.414
       2004.511       1062.278       832.3477      -1540.726      -4356.699
      -2486.611       1122.429       166.2490      -4427.537      -6767.089
      -4855.127      -3589.162      -2321.869       2594.250       7672.859
       8208.051       4464.742      -518.9668      -4073.062      -4025.159
      -1686.173       151.3525       4123.701       7545.070       6852.360
       4733.293       2680.476      -892.2871      -3804.033      -3004.775
      -1437.901       1870.566       3295.513      -846.1582      -2971.429
      -842.0391      -2133.621      -6072.172      -7317.164      -6923.131
      -6207.848      -4749.137      -4693.305      -7385.978      -5150.133
       776.3369       861.0342       386.7910       4233.469       7646.795
       10019.55       9757.664       5590.730       2767.940       356.6035
      -2067.645      -2628.925      -2763.390      -825.4307       3009.299
       4249.408       4514.328       3403.923      -1065.938      -3148.137
      -3317.017      -2236.992       743.1772       660.8210      -1107.375
      -541.8103      -152.8835      -1098.483      -299.9526       1784.270
       2241.549      -347.4443      -3596.188      -6141.066      -6990.896
      -2722.479       2370.661       2961.148       5233.658       6263.553
       2636.631       2405.491       1875.767      -397.0170       303.8015
       19.78809      -2662.097      -4808.402      -3418.190      -605.8330
      -1873.360      -4739.184      -2111.298       2689.900       4153.062
       4676.248       6106.918       6102.074       3740.326      -2874.234
      -8022.260      -6186.029      -5576.978      -4267.358      -498.9146
       1769.293       3932.898       2907.416       1902.225       3150.575
       3597.332       3884.641       3043.112       704.4697      -795.0396
       264.6740       906.1978      -430.4053      -1994.697      -5126.252
      -3694.044       802.6743       1230.016      -65.47717      -1613.133
       1881.691       7538.430       6740.134       3915.249       2295.467
      -732.4570      -4843.896      -7586.879      -5471.381      -1128.730
      -1422.949      -2156.712       294.6517       569.6309      -51.08334
       178.9668       139.5557      -1070.953      -2441.816      -678.0698
       1215.882       379.2107      -1635.253       700.7480       3293.444
       2964.182       5114.686       7217.814       7239.832       6544.184
       4399.921       1861.901       1390.985      -1190.416      -5211.329
      -4989.053      -4516.906      -5819.588      -6156.814      -4692.070
      -4324.413      -4245.492      -1439.721       1958.637       2999.648
       2852.453       2695.234       3287.087       3948.301       2642.053
      -490.1749      -934.4130       83.15674      -1474.767      -2494.711
      -3213.839      -1519.875       2018.523       3758.093       4715.939
       2033.562      -1920.440      -2852.090      -2064.006      -842.7749
      -1392.083      -2370.047      -1149.427       821.3154       2282.317
       1065.217       897.5605       2460.172       1622.635      -24.09497
      -986.0154      -514.2585      -16.13867      -3123.447      -6745.166
