     0.02500000      -23076.43       34518.06      -12345.00      -12345.00
      -29.99999       225.1000      -26.20000      -12345.00      -12345.00
       0.000000       19.78000      -12345.00      -12345.00      -12345.00
      -12345.00      -12345.00      -12345.00      -12345.00      -12345.00
      -12345.00      -12345.00      -12345.00      -12345.00      -12345.00
      -12345.00      -12345.00      -12345.00      -12345.00      -12345.00
      -12345.00      -30.19290      -68.82820       1323.000       0.000000
      -31.59500      -68.73200       0.000000       105100.0       0.000000
      -12345.00      -12345.00      -12345.00      -12345.00      -12345.00
      -12345.00      -12345.00      -12345.00      -12345.00      -12345.00
       155.7199       356.5892       176.6383       1.400074      -12345.00
      -12345.00      0.4517720       90.00000       90.00000      -12345.00
      -12345.00      -12345.00      -12345.00      -12345.00      -12345.00
      -12345.00      -12345.00      -12345.00      -12345.00      -12345.00
      2008        13        10        50        53
       600         6    -12345    -12345     10205
    -12345    -12345    -12345    -12345    -12345
         1         7        13    -12345    -12345
    -12345    -12345    -12345    -12345    -12345
    -12345    -12345    -12345    -12345    -12345
    -12345    -12345    -12345    -12345    -12345
         1         1         1         1         1
PACH    -12345          
        -12345  -12345  
-12345  -12345  -12345  
-12345  -12345  -12345  
-12345  -12345  -12345  
-12345  -12345  -12345  
-12345  -12345  BHE     
ZL      -12345  -12345  
[...]
       454.1873       466.0789       475.9810       469.1182       457.5992
       463.5677       472.2969       469.4310       457.8145       459.5111
       450.7672       446.0970       444.3083       441.0101       429.6410
       426.0441       419.0883       416.6497       403.6967       393.2839
       387.2448       379.4727       365.0972       353.3519       344.5319
       347.9846       334.8785       310.5171       298.8152       300.8585
       294.4044       307.7042       350.2244       453.4875       622.3118
       758.7098       688.4926       346.6483      -113.1741      -491.6449
      -306.2705       1099.991       2143.511       828.8706      -1055.920
      -1462.770      -843.8849       50.00439      -562.8992      -1144.429
       656.5151       415.0168      -1432.331       274.7368       2122.915
       930.8231       551.0287       660.7222      -300.7056       1052.713
       570.0391      -2337.970      -828.9895       674.3130       735.9580
       2014.454       693.3678      -568.0850      -460.3789      -1063.823
      -631.2465      -572.8876      -165.9197       332.2319      -582.0249
       526.4053       1712.986       134.6309      -373.2655       667.9250
       585.0520      -246.3840      -1048.216      -908.2922      -1079.803
      -1167.239       906.4897       1724.580       1206.082       680.7014
      -18.54858       343.1901       250.6774       173.2252      -32.71240
      -665.6818      -73.51892       445.0853      -15.66983      -355.9711
       314.6104       1077.533       1142.256       851.8394      -768.5056
      -1571.561      -188.6753      -667.1533      -1311.696      -53.07983
       857.4399       1743.672       985.7265      -103.9124       589.8284
      -232.1870      -2110.433      -1585.741       881.4213       808.4109
      -780.3198       501.5048       1106.659      -871.4988      -1275.031
       38.43115       659.2433       364.0630      -308.0615       27.61768
       926.6757       661.8870      -299.1312      -317.2515       877.5323
       877.8795       228.1738       682.3984       1222.459       1122.528
      -391.6882      -696.5840       444.2718      -369.4682      -12.26282
       679.4546      -768.7942      -989.6592      -966.7861      -1212.875
      -312.8169      -357.0273      -674.0000       230.1398       556.2754
       622.6099       298.0121      -815.6060      -380.9473       123.6702
      -279.2695       1584.618       2611.001       288.5938      -471.6208
      -223.6807      -791.8911      -543.9729      -1092.591      -1266.137
      -359.1469      -215.1892       506.2550       472.8420      -594.0059
      -533.3271      -1332.990      -1949.394      -465.1655      -122.4731
       392.7815       1035.588      -587.0137      -1322.823      -1189.102
      -1448.796      -1253.912      -407.2856       258.9205       194.4966
       380.0095       569.8582       748.4797       988.5706       654.9324
      -453.5542      -1322.228      -1571.991      -1769.029      -1179.076
      -904.2502      -913.4148      -655.9717      -1627.225      -1243.421
       1156.256       2052.105       1222.657      -250.7671      -1812.047
      -2278.243      -1350.457      -598.6160      -692.3932      -404.8102
      -116.6429      -549.5936      -716.7657      -492.4766      -859.6616
      -1736.667      -1839.241      -808.4264      -162.3147      -252.4531
       523.6802       1011.173       596.0405       251.0618      -581.0847
      -689.2900      -709.0376      -1964.543      -1549.001       125.0850
       606.4770       134.6650      -1113.750      -2041.747      -2059.566
      -1834.137      -16.00195       2081.651       1131.783      -637.6348
      -1148.951      -1379.207      -1431.479      -1412.318      -1041.148
      -273.6255       357.0186       847.9404       655.1498      -9.061363
      -60.12604       66.23334       218.9077       16.43457      -1377.859
      -2005.348      -865.9299       435.5566       1556.943       1803.490
       1067.157       494.1482      -348.6089      -1020.026      -924.0098
      -878.0300      -799.7004       58.76611       1645.408       2307.428
       1477.284       809.4514       89.24414      -1218.305      -960.7757
       75.79736      -381.1021      -1515.994      -1944.152      -1278.175
      -140.4849       833.6802       1602.162       1882.175       1742.223
       2079.498       1758.702      -200.8096      -1656.290      -1522.796
      -275.5908       1764.189       3024.257       3145.305       2299.902
       103.7080      -1568.837      -1741.904      -1085.315       26.55688
       746.3986       707.3372       274.1364      -147.6841       99.44922
       669.2832       924.7146       228.8398      -521.3899      -199.4001
      -206.8783      -39.36401       665.4048       654.6021       628.1177
       1612.005       2143.374       918.6589       17.12128       285.7164
       22.31775      -288.2612       578.9419       1791.033       2604.064
       2142.530       624.8494      -278.2406      -632.3965      -779.4065
      -388.5945       511.2612       1471.197       1475.284       1006.110
       852.3630       118.1106      -901.2112      -1134.949      -761.6968
      -357.8793      -54.80792      -198.8563       42.27344       1548.757
       1950.311       1203.338       1037.772       195.0467      -130.0593
       549.4413       490.1841       785.8857       1462.348       1561.204
       1145.715       630.4214       837.3375       616.6172      -904.4043
      -1705.037      -1528.242      -1372.508      -314.9756       1356.177
       1764.448       1068.896       893.9319       680.2717       123.1692
      -164.0779      -571.2914      -499.2694      -6.343262       293.9515
       506.2698      -150.9895      -743.5025      -129.6959       257.2206
      -44.53839      -135.1509       262.7566       248.4597       15.81110
       366.4889       108.9648      -530.2035      -329.1747       265.9529
       563.5308       840.7126       993.7273       690.4170       365.3143
       239.5892       452.2275       241.1929      -509.5662      -700.8625
      -499.6797      -737.9204      -1101.907      -723.1104      -634.6057
      -1111.490      -983.2084      -368.4719       513.8167       1094.191
       938.0623       710.9849       334.0195      -469.1942      -518.9882
      -369.4170      -900.7032      -769.0780       80.04230       385.5322
      -55.07983      -730.3127      -660.3833      -76.96924      -814.3845
      -1489.678      -560.3465       91.23468      -246.1213      -215.5288
       338.3164       822.8242       1071.871       83.93701      -1166.399
      -1347.155      -1564.510      -1619.649      -635.7261       579.1011
       1270.242       512.0920      -790.4724      -391.8201       129.1888
      -387.1971      -212.9019       604.0944       453.3066      -485.8325
      -823.7627      -1398.538      -1620.112      -622.4668      -628.0982
      -454.8557       1044.468       1300.484       414.9137       334.8877
       880.0485       767.7439      -226.3552      -430.0192       500.5618
      -285.1870      -1700.194      -1227.257      -298.1155       363.9772
       385.6619      -281.3761      -590.4291      -254.1259      -97.87842
      -648.0521      -707.3531      -484.2214      -300.2374       70.89067
      -18.40044      -39.20943       132.5531      -29.66414      -121.6830
       280.3940       1372.341       1788.553       669.6362      -138.6913
      -468.3711      -703.9425       23.56958       897.9651       718.0006
      -421.6282      -902.2136      -128.5477      -128.5676      -999.7681
      -190.7504       707.8054      -640.2991      -1328.813      -18.25610
       982.1955       467.1892      -957.0490      -1051.646       241.4099
       1027.725       975.2942       170.8304      -363.7039       155.4377
       738.1771       838.2251       365.6663      -563.0193      -667.1135
      -232.5551      -375.7235      -414.9001      -688.9294      -961.5276
      -744.3556      -467.0491      -359.1017      -601.2836       53.79761
       1133.907       626.1725      -251.5027      -405.9357      -220.1095
       168.7338       153.1542      -139.8156      -285.4265      -374.1810
      -173.9786      -436.2321      -148.5498       1138.189       1092.033
       91.80505      -446.4365      -987.0726      -834.2142      -163.6487
       8.640991       99.11646       392.6305       744.0934       220.2653
      -562.4059      -24.22821       99.51306      -490.0652       63.30420
       394.2585      -36.45719       42.81384      -126.8142      -374.8955
      -600.1266      -702.6750       168.2524       1118.142       1164.019
       481.1682      -949.2949      -1841.255      -1033.349       123.6523
       455.7820      -24.15782      -97.10107       432.4017       44.05743
      -360.2021       364.4148       547.9236       112.3257       666.2568
       1048.871       456.4092       380.5156       795.2788       797.2911
       500.5457      -77.35718      -698.4491      -801.6890      -32.35107
       682.9004       630.2218      -24.97809      -587.2119       536.4688
       1762.178       1161.867       318.1840      -409.2225      -822.4519
      -267.9863      -97.44116      -1011.400      -1607.354      -1260.535
      -188.2742       249.0422       272.8159       795.1465       542.3181
       562.6609       794.3619       189.3864       190.2476      -362.3049
      -734.8325       921.9624       1233.766      -12.03406       292.3765
       859.3518       427.0947      -330.4043      -642.4113      -145.0623
       511.9683       863.5958       598.5925      -519.2522      -1144.379
      -396.2156       884.2322       1101.399       108.1282      -568.3987
      -627.6812      -498.8992      -812.3943      -1172.859      -501.1478
       276.4702       760.5251       1026.969       847.8483       396.5688
      -133.1668      -263.5728       229.6519       556.9277       26.63745
      -475.8731      -84.81812       431.0525       559.5330       147.2093
      -128.5166      -216.4353      -630.8030      -315.9097       205.8879
       348.8818       632.3071       96.23486      -829.9850      -768.0208
       52.23730       209.0293      -853.4453      -1604.044      -685.9612
       601.7407       930.5798       934.0796       973.2716       398.9680
      -313.2076      -461.0080      -173.6615       334.0818       354.3928
      -165.9829      -673.1122      -733.9908      -98.72705       516.6534
       810.0685       394.8772      -382.9302      -511.3618      -116.0095
       580.2349       912.4257       166.9021      -555.1829      -748.7281
      -701.0093      -250.9909      -5.298218      -446.7841      -258.1539
       325.2446      -135.3715      -571.2301      -289.2913      -290.0276
      -810.0996      -956.5496      -64.59656       621.9999       55.02905
      -684.9008      -511.7991      -189.3770       195.5715       859.3015
       525.6967      -145.0260       323.2856       961.0078       795.2202
      -184.8180      -832.1786      -97.10449       750.6202       273.8967
      -290.3557       166.6204       840.0063       825.9967      -109.1292
      -743.5212      -477.0947      -632.2791      -1059.598      -796.8685
      -256.9392       2.329712       506.9524       815.1772       235.5315
      -490.4167      -620.3474      -31.27686       784.9136       1151.048
       997.5710       329.3828       183.3223       942.2545       158.8865
      -1119.029      -375.5646       305.9381       153.3982      -95.27930
      -1043.398      -1383.120      -683.5474      -451.1211      -85.58350
       515.3972       1003.133       1139.902       656.2678       225.3109
      -74.83740      -110.8536       238.6230       924.5554       1453.101
       736.2351      -329.9766      -749.7378      -977.3850      -637.6657
       169.6354       551.3069       932.2859       1103.389       441.6605
       90.09583      -61.86975      -421.0685      -63.98004       302.6928
       37.31873      -443.9784      -521.5468      -93.87390       209.2190
       672.4573       1042.913       97.13110      -799.1917      -113.5276
       564.9032       205.4246      -216.0758       264.1382       1225.746
       1180.810       352.4063       36.71899       327.0605       419.8526
       272.9891       455.2861       774.1216       620.2360       277.9935
       48.94775      -537.9094      -295.9255       1028.870       1818.880
       2169.299       2156.506       872.5828      -870.9385      -1868.114
      -2318.682      -2586.799      -4958.146      -8694.875      -12303.41
      -17661.10      -20490.94      -14989.88      -1467.406       14865.07
       28162.23       34518.06       29920.38       18717.98       9261.979
       764.8535      -8449.477      -15434.01      -19861.52      -21772.52
      -17190.82      -7344.857       3218.312       14693.59       22733.79
       18840.20       5078.293      -8076.078      -12377.59      -8513.664
      -4389.128      -1830.117       2131.127       6002.705       6907.527
       3484.030      -1580.442      -2663.292      -977.3633      -3412.992
      -10105.27      -14293.90      -10471.04      -251.1934       8048.721
       10802.90       7224.806      -1867.230      -5844.368      -604.0254
       6275.629       8985.643       7525.773       6092.078       5427.668
       5647.617       5974.823       1994.070      -5569.367      -15472.30
      -23076.43      -18476.50      -7998.590      -988.7148       5902.887
       13125.39       16327.60       12235.54       3270.559      -4768.225
      -9391.027      -11762.80      -13016.15      -8947.232      -205.2676
       6151.455       8444.490       9175.258       9945.301       8688.360
       5116.988       1828.571      -845.8672      -3681.020      -5325.453
      -5015.541      -4983.318      -5179.204      -3955.196      -1752.162
       1765.953       5496.674       4260.402      -2135.164      -5940.988
      -4151.058      -2557.096      -1048.738       2879.207       3890.536
      -606.1758      -6693.283      -8897.709      -5748.409      -2012.667
      -2461.137      -4045.934      -281.1973       7041.215       9747.284
       6342.823       2946.844       1499.225      -652.0000      -4099.299
      -5835.700      -5258.371      -5605.463      -6444.449      -4732.491
       1844.488       10911.33       14120.64       7910.542       599.3175
       157.8992       760.3730      -2039.521      -4349.203      -5649.610
      -5039.127      -831.6152       4994.066       8686.096       7239.085
       2138.312      -4214.191      -10290.66      -10744.65      -5566.671
      -1952.873      -734.9188      -297.0625      -1349.996      -1663.264
       574.3320       3973.150       5651.867       3641.966       654.4778
       244.2903       1570.095       691.3198      -2127.860      -1168.665
       2466.746       3423.036       3620.229       4383.147       4455.890
       4967.190       4657.208       1849.461      -3209.402      -7590.559
      -6623.536      -3363.475      -3583.601      -4415.803      -3958.334
      -3495.419      -646.9424       1723.880       813.6416       1471.856
       3647.566       3834.548       4078.253       4464.200       2576.505
      -94.26123      -1821.241      -2005.702      -1246.846      -1342.152
      -193.3325       2488.642       2147.632       1004.732       2601.618
       2051.218      -1717.966      -3841.138      -3989.093      -1884.356
       2979.566       6861.038       5956.797       833.1733      -1309.514
       394.9932      -318.7490      -2025.385      -2681.033      -4742.389
      -6465.693      -4719.828      -1407.815       815.1702       308.6670
      -3168.486      -4061.944       966.5469       7185.266       10694.79
       10384.05       5691.213       1025.214       387.7471       744.7368
       1076.455       1810.236      -86.28711      -4136.066      -8277.242
      -10239.34      -8144.146      -4522.451      -1668.763       1358.049
       5005.633       7088.223       7605.896       7927.579       5455.231
       255.8535      -3253.592      -3167.166      -1665.522      -2953.748
      -5299.027      -3699.745      -1111.738      -789.2759      -1490.073
      -1612.812       274.5337       2566.574       2083.751       900.6689
       2523.166       5289.902       6250.999       4005.195      -576.2119
      -3609.984      -2407.192       313.6501       1007.428       118.7842
      -1340.169      -2603.550      -2658.002      -1284.483      -477.1992
      -156.2715       3244.264       6912.912       6290.900       4630.131
       4575.771       4301.397       2556.620      -67.15869      -1306.459
      -368.0884       104.9463      -2385.965      -6533.174      -8924.766
      -9392.684      -7889.480      -5840.832      -5826.084      -5426.901
      -4167.723      -3160.035       574.5391       5556.785       7884.492
       8731.176       9176.346       7636.171       4540.364       1891.121
      -1471.887      -5911.131      -6497.003      -3076.353      -454.0405
       1395.664       2841.300       3559.004       5541.836       6856.714
       4316.101       277.5112      -1537.461      -1576.986      -1372.450
      -579.4180       1449.666       3501.285       2462.724      -1348.071
      -3035.664      -2109.284      -2557.771      -4336.492      -4532.800
      -3095.241      -1903.769      -1708.170      -2403.304      -3193.296
      -2331.943      -385.2859       815.1597       1056.727       1498.194
       2981.028       4161.764       3663.692       1753.840       511.6257
       750.2472       869.9813       227.5354      -945.6228      -546.1953
       1759.863       3713.334       4716.092       4979.838       4833.589
       3876.519       660.9414      -3920.311      -6906.623      -8210.248
      -8286.523      -6281.804      -4080.714      -2575.250      -1807.318
      -2226.426      -1945.894      -243.6445       1670.254       2692.677
       2140.277       1593.690       1252.235       137.8450       268.2065
       2184.510       2771.842       1177.600      -170.0974      -955.7295
      -1372.785      -483.7509       575.1656       212.2744      -1806.711
