     0.02500000      -44617.87       32428.89      -12345.00      -12345.00
      -29.99999       225.1000      -26.20000      -12345.00      -12345.00
       0.000000       19.78000      -12345.00      -12345.00      -12345.00
      -12345.00      -12345.00      -12345.00      -12345.00      -12345.00
      -12345.00      -12345.00      -12345.00      -12345.00      -12345.00
      -12345.00      -12345.00      -12345.00      -12345.00      -12345.00
      -12345.00      -30.19290      -68.82820       1323.000       0.000000
      -31.59500      -68.73200       0.000000       105100.0       0.000000
      -12345.00      -12345.00      -12345.00      -12345.00      -12345.00
      -12345.00      -12345.00      -12345.00      -12345.00      -12345.00
       155.7199       356.5892       176.6383       1.400074      -12345.00
      -12345.00     0.05009227       0.000000       90.00000      -12345.00
      -12345.00      -12345.00      -12345.00      -12345.00      -12345.00
      -12345.00      -12345.00      -12345.00      -12345.00      -12345.00
      2008        13        10        50        53
       600         6    -12345    -12345     10205
    -12345    -12345    -12345    -12345    -12345
         1         7        13    -12345    -12345
    -12345    -12345    -12345    -12345    -12345
    -12345    -12345    -12345    -12345    -12345
    -12345    -12345    -12345    -12345    -12345
         1         1         1         1         1
PACH    -12345          
        -12345  -12345  
-12345  -12345  -12345  
-12345  -12345  -12345  
-12345  -12345  -12345  
-12345  -12345  -12345  
-12345  -12345  BHN     
ZL      -12345  -12345  
[...]
      -188.2545      -162.0434      -162.9446      -144.0551      -138.5947
      -122.5909      -132.2847      -107.2411      -95.01669      -70.62762
      -73.13313      -46.40387      -34.25587      -19.36878      -27.80151
      -4.191296       1.563194       30.38210       37.65109       55.15115
       64.65759       79.51019       80.18539       102.7607       91.60089
       118.6725       168.7898       289.4004       538.7456       1030.881
       1669.887       2235.664       2309.803       1604.794      -107.0117
      -2067.915      -2360.697      -880.9407      -44.61865       491.3867
       1946.235       1554.166      -1389.667      -3083.681      -1963.942
       420.2993       1678.526       1219.865       524.9460       647.9839
       756.6965       448.2163       962.1343       1263.947      -111.8696
      -998.7169      -355.0139       724.6794       1141.428       864.2063
       287.4956      -1271.326      -2768.399      -1654.529       1401.339
       2990.733       1792.660       26.47607      -957.2181      -519.3452
       373.9382       581.0396       1103.262       636.0271      -1140.983
      -1226.579       328.3464       1084.971       881.3615       750.8208
      -360.9260      -1123.010       656.6138       1833.628       456.6342
      -395.2313      -356.1458      -607.1270      -156.2271       608.9326
       1180.092       2357.165       1723.715      -800.8774      -2142.518
      -1856.426      -505.7739       544.8301       896.3452       1529.165
       1514.287       1215.693       1345.445       748.4917      -290.5703
      -1357.199      -2045.707      -1229.900      -481.3691      -498.3036
      -114.0073       642.0229       877.5062       553.9059       26.49518
      -90.79150       637.5588       1121.457       344.4762      -400.5021
      -140.1393       93.06781       60.24310       187.4471      -497.6531
      -997.0871      -263.7881       562.5166       996.8867       1172.243
       594.9708      -204.8276      -131.5095       180.5725       457.8674
       965.5942       818.0098       901.2788       1147.276       236.0332
      -361.3257      -498.6836      -1286.787      -1287.185      -1079.672
      -1267.382      -476.8813       753.2217       1148.006       1024.350
       1235.332       724.5054      -756.6976      -832.2302       338.1363
       372.4199      -1068.941      -1767.131      -1423.294      -1127.866
      -844.1992      -193.6333       351.2698       432.1265       692.6392
       882.3788       444.5875      -23.68066      -654.2769      -1748.705
      -1654.417       38.46191       796.4500       509.7396       310.0737
      -547.7920      -1154.984      -212.2046       582.2650       163.9097
      -592.8425      -772.5118      -479.9116      -416.6372      -605.4478
      -833.8350      -1437.608      -1399.718      -947.6980      -1057.280
      -227.6743       1405.333       1909.361       1006.738      -333.4402
      -985.1099      -1048.803      -733.0427      -406.1023      -592.7266
      -905.9243      -1056.092      -896.3007      -324.0356       285.2127
       177.6172      -721.0771      -753.9248      -462.7170      -771.6783
      -268.5599       628.9807       508.7222      -543.4307      -993.2312
      -344.1666      -486.9005      -425.8935       144.5862      -152.1344
      -191.2112       197.9880       489.1997       625.8334       33.00635
      -1015.662      -1347.469      -517.9926       295.3997       594.7285
       673.3665       247.6233      -374.4232      -507.5387      -427.4152
      -266.9098      -222.7258       367.5266       1074.867       153.2363
      -867.3228      -1044.925      -1588.699      -1520.738      -605.7786
       185.9380       320.7835       158.2178       283.9259       327.8622
       175.3008       46.99324       15.92444       148.2000      -125.7100
      -788.8662      -1238.203      -1067.269      -721.7684      -283.5078
       1079.916       2203.056       1635.629       619.7571       55.75354
      -298.6084      -297.5405      -123.6766      -337.5820      -346.6215
      -10.11784      -18.47375      -28.82959       587.0415       1461.802
       1426.542       467.6318      -352.6665      -758.6375      -536.1466
       129.8770       483.6279       526.0737       803.2344       761.8446
       290.8339       232.9328       256.5281      -164.1719      -1017.574
      -1388.619      -1064.429      -888.4014      -152.4879       264.6256
      -491.6804      -465.2383       312.0635       1061.945       1763.050
       1283.721       450.0834       562.9497       770.7361       859.3938
       924.0187       334.2622      -533.2107      -476.1021       815.1648
       1349.080       146.7930      -794.7627      -1178.492      -1452.124
      -1225.750      -615.1882       305.3750       1138.817       1405.339
       1448.098       1116.499       318.2527       261.2078       642.6436
       508.3047       238.0677      -50.08289      -2.855713       662.4817
       1293.028       1010.781      -226.7988      -954.4482      -748.1841
      -562.4944      -533.8585      -357.2000      -252.5885       192.3044
       1177.513       1010.091       236.1301       57.04974      -147.3510
      -298.4745      -440.9655      -564.2009      -569.0776      -835.4480
      -901.6636      -350.8845       61.73206       53.00452       230.1049
       469.4214       614.1761       525.0837       493.7339       1268.590
       1703.498       1144.042       429.8497      -189.8774       107.7918
       448.3467      -282.1455      -674.1543      -713.5333      -628.4357
      -84.36084       477.9371       557.5728       113.2109       141.8262
       249.5750      -206.0256      -329.6924       110.7507       485.6833
       694.5368       276.5883      -599.3781      -529.8208       20.44800
       337.2383       1167.239       1707.015       973.3844      -26.11768
      -811.8999      -1286.472      -615.2439       458.6680       1399.350
       2099.829       1497.083       765.1475       515.8926      -674.9529
      -1346.133      -408.6262       439.9043       671.7041       614.5338
       325.5007       437.3813       539.2474       415.0604       293.9549
       71.60348       40.88303       11.13287       90.56589       121.8237
      -375.1013      -586.9118      -5.572754       911.9358       1302.968
       814.4359      -48.24408      -207.2527       393.8835       366.4869
      -195.5056      -487.7453      -298.0811       789.7769       1438.257
       1023.692       523.5984      -12.54730      -147.0679       33.61569
       95.01404      -4.537598      -693.6536      -1049.642      -891.3064
      -1034.893      -596.4335       248.8651       433.0942       415.0753
       338.7493      -86.76270      -1015.557      -1428.814      -580.1765
       455.9624       1391.881       1594.313       304.4848      -177.7156
       387.3759       39.48499      -497.0252      -432.8923      -81.35919
      -14.02332      -507.0261      -403.5960       56.56494      -443.4087
      -923.0308      -448.0071      -61.76929      -55.21143      -319.0586
      -1369.141      -1842.966      -1081.608      -881.4403      -790.3882
       200.5073       1277.366       1324.895       55.69238      -640.8156
       214.0755       407.2195      -507.8774      -846.8253      -660.1243
      -462.5513       324.0234       1069.700       404.6091      -762.1880
      -1252.002      -669.3507      -2.509399      -335.8572      -446.9636
      -343.0676      -624.9023      -982.9395      -1313.664      -1672.048
      -1276.712      -703.2024      -815.8202      -457.3574       367.0118
       608.0602      -30.00586      -609.3359      -162.9688       85.02612
      -831.8378      -970.1249       298.2058       731.4871       515.1063
       265.4038      -623.4106      -1266.703      -677.0284      -70.19490
      -95.67102       281.9114       770.5688       819.1897       706.9093
       370.4236      -237.0728      -817.6794      -634.5015      -158.7234
      -137.8961      -631.7855      -779.1280      -15.94714       602.9313
       16.71094      -1174.647      -1087.248      -6.152344      -311.5361
      -884.6008       129.1274       845.3401       488.9370       447.9973
       352.1823      -32.10242       156.8840       459.3470      -57.53076
      -874.7314      -1286.955      -982.0377      -396.3271       206.9077
       653.6898       769.8965       343.4712      -243.4230       159.0809
       528.2151      -389.8540      -986.0804      -513.1857      -95.88477
      -416.1187      -1117.242      -1206.083      -613.5504      -145.5483
       713.9639       1281.289       1148.638       1365.839       1127.251
       98.03979      -358.8784      -506.3518      -684.2983      -151.7073
       563.7974       734.9921       635.6856       54.50562      -643.9097
      -810.0723      -884.7773      -1121.018      -857.0042      -588.6595
      -471.8746       14.81750       106.7149      -187.9336      -201.0203
      -830.3179      -1419.405      -505.4429       725.4736       1093.329
       1153.161       901.0817       393.5053       164.2790       208.8975
       342.5128       328.7594      -137.1592      -359.2432      -728.0786
      -1457.129      -1250.692      -304.2526       146.4870       215.7212
       282.7579       241.1433      -63.20215       186.8143       686.6893
       270.4420      -46.07272       105.9237      -343.2042      -601.7996
      -397.4866      -535.1674      -249.4009       610.6423       125.9104
      -600.5728       110.8673       651.2912       212.8942       125.7539
       707.0410       827.7090       230.6628      -203.0988      -367.3494
      -559.7239      -198.6421       503.9725      -79.85583      -607.3188
      -193.3361      -155.7535       252.6881       843.6468       322.7227
      -292.3746      -124.9278       212.6010       71.94336       122.4233
       608.3926       555.7897       498.4575       996.5469       663.4805
      -254.0385      -525.2464      -17.00830       615.4072       615.5144
       363.0809       592.2640       551.4784       31.59033       339.2800
       1062.431       444.4588      -285.3719       121.7790       175.9593
      -128.3179       336.7861       730.9740       779.6263       184.3951
      -394.6136       179.6340       1001.817       1395.913       1228.559
       848.5950       755.8254       747.1223       1036.640       1297.060
       945.1855       10.14426      -207.4031       165.6058       96.91260
       372.9788       851.9294       845.6650       583.3046       272.4209
       429.8112       627.3671       640.6543       690.3275       690.5475
       83.29431      -450.5615      -247.4216      -313.5417      -681.8469
      -621.5139      -540.8585      -277.1606       697.2754       1260.539
       928.7576       723.2218       461.9912       502.7058       730.1379
       696.1357       916.0299       850.2983       120.3641      -206.6592
      -543.1606      -1228.046      -1097.013      -349.4579      -249.7833
      -87.70215       633.7072       643.9254      -163.5294      -296.8574
      -188.9005      -138.6702       838.5969       1481.906       610.2158
      -303.6274      -729.6885      -756.1938      -368.6228      -25.12241
      -138.4385      -56.51318       771.4604       1136.743       519.3829
       406.5565       501.7937      -69.44836      -222.5206       146.7578
      -526.7129      -1632.951      -1826.257      -1658.347      -1852.752
      -1792.805      -1189.453      -439.3255      -173.2427       139.8750
       94.94995      -839.4429      -1162.966      -681.2040       171.2292
       1089.353       956.3462      -28.58887      -811.4133      -1134.431
      -995.1304      -441.2231      -172.0190       64.35193       327.3135
       242.4214      -241.1819      -708.1232      -717.7607      -473.3350
      -1048.143      -2050.244      -2012.416      -1441.266      -466.6577
       913.1501       1195.419       1044.962       576.2468      -369.0808
      -896.0693      -1321.827      -1697.749      -1477.556      -609.1655
      -3.699219      -340.3384      -888.1223      -1074.180      -1259.981
      -2085.257      -2044.112      -666.1078      -44.65363      -54.67566
       659.3038       682.9829      -26.00073       57.20068       658.8445
       1016.731       373.5015      -717.6230      -649.1162      -1069.602
      -2591.847      -3140.585      -3595.582      -3771.672      -1106.012
       2673.893       5524.271       7606.355       7789.432       4205.364
      -1596.922      -6472.256      -9205.359      -8190.707      -1161.402
       10375.35       21211.86       28301.09       32428.89       31131.93
       18661.38      -3841.320      -25770.92      -39791.38      -44617.87
      -38887.62      -24580.53      -7271.008       9000.445       20910.26
       26446.46       24588.88       16273.36       5297.082      -3584.609
      -6332.078      -5148.277      -5950.613      -9150.949      -11697.11
      -8216.170       1399.574       9384.105       12618.20       11335.40
       5884.305       74.21582      -2857.736      -3084.031      -3594.477
      -4663.739      -4324.693      -984.4688       3315.861       6124.652
       10812.05       12036.43       2915.785      -9113.625      -15584.00
      -14871.60      -10559.96      -2683.895       8564.375       15751.56
       14355.54       9139.612       4100.751      -2716.914      -8275.660
      -8982.271      -4849.538       416.7769      -682.7725      -3495.436
      -5006.068      -7434.947      -3601.675       4114.504       8061.930
       10228.78       9224.031       3938.118      -1383.777      -5033.115
      -6484.906      -4888.358      -3765.776      -3271.888       768.9189
       5196.915       4087.527       473.1575      -47.05566      -2589.043
      -6072.514      -253.3340       5588.830       3110.359       1822.598
       2298.216      -1098.514      -4263.165      -3498.875      -4118.775
      -8388.609      -7421.847      -950.6729      -993.7500      -5982.372
      -3105.521       3820.201       4060.070       3807.930       7793.855
       7687.234       4556.008       6344.798       6703.572       63.73047
      -4578.283      -4145.438      -3706.246      -5767.867      -8390.836
      -8758.504      -6967.111      -3292.969       2711.391       6808.293
       6934.949       4698.744       769.0830       2125.945       7467.949
       5442.667      -494.8516      -3940.066      -6498.736      -7809.230
      -6832.486      -4517.922      -897.2249       1749.959      -915.4473
      -5145.895      -4939.993      -2500.494       443.6313       2868.773
       1826.859      -854.7832      -2641.486      -2630.643       1189.816
       3766.098       4259.113       6427.456       5557.314       2883.538
       1334.129      -2919.555      -7709.133      -7900.012      -3013.244
       1946.722       2887.588       3902.529       6324.463       5201.127
       1596.956      -230.9023       1744.545       2070.780      -3907.322
      -8230.508      -5718.541      -1793.510       865.6602       3765.127
       4286.717       1220.082       432.1238       1576.055      -590.3799
      -2547.956      -1888.044      -2920.378      -2480.029       764.5430
       1700.926       2364.412       4625.244       4967.813       4089.891
       4372.080       4510.941       3703.366       794.8584      -3519.771
      -4514.613      -5409.053      -6616.746      -3449.938      -779.4565
      -343.0645       2936.305       5627.536       5017.519       4349.169
       1464.105      -4165.670      -6719.806      -5528.368      -2799.099
       1330.904       4025.834       2594.447      -657.5879      -2803.825
      -2718.276      -732.8613       3239.129       7159.787       6177.021
       1183.904      -2324.340      -2946.693      -1080.458       1686.892
       3136.367       2978.504       1947.385       891.0679       835.5107
       2761.246       5979.919       6537.689       2433.399      -3046.830
      -6279.140      -6195.948      -3011.717       693.1680       2098.935
       2458.106       3115.106       1385.947      -1406.149      -1984.834
      -1245.682      -2581.555      -6531.674      -7979.176      -5251.623
      -2684.331      -904.4509      -393.7490      -2022.729      -3725.921
      -3942.271       381.3008       7740.031       10860.15       7288.973
       1373.167      -1440.434      -988.9412       457.5376       1116.410
       1074.461       1043.259       256.4802      -559.5657       313.8694
       1140.533       31.84229      -1555.028      -1115.048       1505.467
       4014.006       4333.634       2904.541      -215.7686      -4515.932
      -7273.131      -7077.988      -4272.671      -628.4087       1192.367
       2156.278       3194.226       2640.240       1731.039       2620.142
       3366.959       1626.196      -1022.268      -2025.853      -2520.274
      -2489.907      -912.4983       730.6145       730.5649      -1131.087
      -2858.378      -3283.279      -3574.653      -3700.271      -3258.939
      -3537.406      -3767.408      -2186.169      -208.1025       1692.667
       2645.061       1600.183      -170.9495      -1199.480      -1099.795
      -500.3176       130.7837       954.7754       1406.150       2443.086
       3966.406       3382.849       1344.026      -383.9321      -1814.027
      -1332.789       110.5776      -195.6152      -1261.187      -2459.460
      -3018.797      -1372.175       573.8740       1613.977       2326.643
       2390.725       2038.560       2537.136       2301.662      -502.6836
      -3665.168      -5010.168      -5304.068      -5116.516      -5310.986
      -5905.733      -4715.925      -2847.291      -1672.238       1031.297
       4138.496       5327.496       5529.452       5364.926       3420.372
       1065.411       853.4456       931.2136       355.0229       1799.581
       3325.306       2439.167       1011.560      -681.0024      -2169.775
      -1523.829       231.2363       1737.234       2379.228       1435.089
      -572.5923      -2375.942      -2600.921      -5.628906       2875.250
       3861.986       4903.723       6275.400       6069.141       4869.423
