     0.02500000      -12411.51       14483.12      -12345.00      -12345.00
      -29.99999       225.1000      -26.20000      -12345.00      -12345.00
       0.000000       19.78000      -12345.00      -12345.00      -12345.00
      -12345.00      -12345.00      -12345.00      -12345.00      -12345.00
      -12345.00      -12345.00      -12345.00      -12345.00      -12345.00
      -12345.00      -12345.00      -12345.00      -12345.00      -12345.00
      -12345.00      -30.19290      -68.82820       1323.000       0.000000
      -31.59500      -68.73200       0.000000       105100.0       0.000000
      -12345.00      -12345.00      -12345.00      -12345.00      -12345.00
      -12345.00      -12345.00      -12345.00      -12345.00      -12345.00
       155.7199       356.5892       176.6383       1.400074      -12345.00
      -12345.00    -0.02619761       0.000000       0.000000      -12345.00
      -12345.00      -12345.00      -12345.00      -12345.00      -12345.00
      -12345.00      -12345.00      -12345.00      -12345.00      -12345.00
      2008        13        10        50        53
       600         6    -12345    -12345     10205
    -12345    -12345    -12345    -12345    -12345
         1         7        13    -12345    -12345
    -12345    -12345    -12345    -12345    -12345
    -12345    -12345    -12345    -12345    -12345
    -12345    -12345    -12345    -12345    -12345
         1         1         1         1         1
PACH    -12345          
        -12345  -12345  
-12345  -12345  -12345  
-12345  -12345  -12345  
-12345  -12345  -12345  
-12345  -12345  -12345  
-12345  -12345  BHZ     
ZL      -12345  -12345  
[...]
       34.28857       40.47392       31.40558       46.00574       48.11362
       54.80956       55.92816       72.79126       71.07437       75.47707
       69.37582       87.72281       97.34985       105.8560       99.19659
       114.1251       122.7008       134.1046       129.8475       149.1107
       191.6611       369.7393       798.2793       1739.235       3324.451
       5082.162       5701.640       4051.101      -33.45898      -6060.242
      -9972.475      -5131.681       3344.129       3735.749       211.2024
       927.6278       709.6543      -2422.539      -3511.457      -1211.364
       2381.312       3665.649       285.7729      -2827.898       53.48999
       1826.648      -502.6475      -352.3325       2082.562       3065.384
       1106.514       911.8740       963.9067      -2700.236      -3433.733
      -1989.987      -1903.581       909.1699       4729.547       5712.828
       3701.721       70.40723      -2347.046      -2846.804      -2702.144
      -2055.538      -1060.266      -165.3748       383.8092       50.16162
       879.2031       1636.910       818.6038       304.9983      -1282.283
      -586.7979       1821.389       2012.931       1470.245       708.9204
      -666.7173      -2763.727      -1972.568       682.5991       1615.780
       2841.462       2678.727       709.5278      -991.6504      -2901.607
      -2580.981      -280.2412       985.6279       1748.946       626.6100
      -699.7094       351.5549       989.7246      -174.1372      -1387.166
      -1278.060      -700.2256       1115.136       2962.191       1025.468
      -1413.394      -1328.975      -881.4301      -300.9258       1215.575
       1321.240       329.9701       587.3151       31.16418      -908.6520
      -159.1824       472.4095       128.8110       229.1782       200.9772
      -222.9419       47.07898      -313.0757       315.0667       999.5947
      -1320.919      -1459.269       3.121216      -449.1721      -386.9365
       145.5771       2329.824       3930.822       1460.786      -1322.950
      -2044.897      -2974.301      -3436.879      -1735.868       543.7065
       2332.553       2409.802       350.2486      -200.9988       684.9360
       257.4885      -271.3784       448.9502       1717.502       1331.649
      -727.9429      -2152.304      -3223.328      -2177.062       1093.553
       1932.004       672.3551       391.6226       957.8838       2001.811
       1827.086      -1048.025      -3132.038      -2426.599       24.45996
       2530.667       2343.860       1103.898       104.0032      -1154.484
      -1254.880       38.13483       421.7833      -146.4690       161.4870
       98.97882      -515.2229       126.2173       1656.844       1925.375
      -47.00244      -1300.298      -678.1079       531.3999       1122.718
       110.3863      -274.5739       472.6453      -832.6572      -2143.344
      -259.5005       2087.906       2382.117       1272.105      -50.41650
      -990.8344      -971.4064       4.698975       783.7073       869.7444
       59.70459      -1150.081      -1682.240      -433.9021       711.4293
       114.4895       90.65527       1140.620       1285.531       519.3938
      -361.1575      -890.0318      -327.8318       373.4028       374.8047
       381.2833      -246.1644      -661.9755       78.96533       1012.423
       1135.340       359.2139       108.6750       491.7603       476.3494
      -47.74707      -974.6462      -1485.009      -1131.505      -554.0859
      -907.2841      -831.3964       493.4763       636.4929      -485.2567
      -443.7137       4.609863      -891.6018      -942.4126       340.3127
       323.7378      -841.6497      -1018.517      -311.6449      -286.2374
      -3.909424       506.6812       82.25891      -223.7866      -581.2144
      -2091.457      -2719.337      -1682.463      -255.6539       335.6636
       197.9347      -101.6017      -214.4468       1004.844       1808.032
       717.8647      -692.5930      -1117.322      -671.0166      -1124.274
      -1819.996      -1224.410      -495.3140      -423.3063      -194.5691
       525.4757       722.6558       51.15552      -739.3120      -1528.471
      -1516.385      -964.7810      -510.2729      -514.8159      -1554.735
      -2457.988      -2111.503      -1070.093      -105.6066       224.5800
       268.8811       87.60173      -10.01578       207.1985      -28.48193
      -651.6392      -1169.533      -1315.602      -959.2151      -1080.501
      -925.7015      -235.6947       145.6379       812.0616       718.0068
      -585.8115      -1597.729      -2351.841      -2584.501      -1686.653
      -29.51001       958.7407       998.1980       1069.875       461.6815
      -493.3086      -226.0291      -234.9110      -725.8713      -235.9362
       458.2389       330.4717       345.7626       381.4042       71.09277
      -573.4908      -733.0316       122.6936       53.00146      -633.5663
      -720.7444      -508.2622      -256.5660      -143.3396       68.46533
       260.2053       876.3323       919.4104       1021.446       1675.041
       883.3896      -308.3274      -1051.046      -1116.603      -596.9434
      -781.3616      -412.3768       83.00732      -131.7202       326.9517
       911.5906       643.5674       671.9753       1048.634       824.2966
       540.6052       714.4752       680.3162       89.14331      -137.9707
       920.8242       2004.764       1451.901       263.7692       173.8588
       77.04150      -47.99219       787.3490       750.5143      -7.613525
       559.3232       1388.676       662.0167      -171.6482       585.4844
       648.5442      -477.5464      -738.9644      -625.2283      -825.3743
      -841.6824      -452.0376      -309.4973      -719.2976       401.1611
       2432.146       2636.151       1567.575       461.8748      -556.2887
      -801.4629       331.5010       1433.731       1180.858       846.8069
       1053.309       615.4792       426.0889       1385.231       1118.524
       78.96967       30.09448       686.0835       1150.849       953.5837
       677.0518       167.8356      -227.9417       85.29639       462.3218
       514.7065       607.4871       596.2732      -310.2510      -1066.178
      -960.4756      -249.7461       789.2891       1072.666       946.5635
       1673.823       2064.137       1084.879      -377.4878      -1139.235
      -780.2825       415.6853       1055.054       650.0141       424.5080
       20.42047      -325.6240      -53.11072      -346.7373      -411.6602
       415.4798       371.4841      -746.8416      -823.4609       415.7930
       1614.590       1758.919       1279.049       863.8672       681.0692
       309.6895      -1126.347      -1835.141      -1111.763      -552.4081
      -304.3616      -422.7677      -139.2523       83.75562      -630.5229
      -504.8589       102.7225      -295.5236      -104.0293       1252.200
       2038.350       1795.521       1297.979       638.4425      -61.62872
      -123.2797       254.6622       267.9861      -436.5068      -1688.763
      -1703.070      -124.1644       855.5371       86.27075      -1449.266
      -949.2506       859.7501       114.6406      -1062.790      -284.4822
       388.5108       88.40027      -399.2765      -440.9276      -561.1895
       130.6238       1474.196       777.1246      -377.0165       40.37524
       580.2325       77.89050      -305.2856       247.8339       315.9124
       393.5544       715.7784       40.14551      -1035.270      -1583.111
      -1184.137      -345.3235       173.7587       129.6879       188.3735
       1078.046       1167.534       406.9153       439.8573      -15.78271
      -1203.654      -1404.729      -641.8335      -203.1224      -23.13452
       302.9288       36.95796      -104.9479       246.3865       564.4158
       548.3831       579.4727       1039.840       1108.714       729.9118
       297.0966       191.9223       18.77136      -495.2168      -916.6472
      -835.0829       218.9297       1058.872       676.6566      -52.66650
      -760.0813      -1281.429      -1148.773      -946.4318      -808.5259
      -287.7500      -45.96729      -421.4337      -694.2550      -264.5474
       818.5601       1565.386       1489.124       798.9941      -128.4111
      -221.5614       25.37292      -305.6980      -236.2788       258.9045
       397.0862      -31.02881      -882.2788      -1123.400      -523.2332
      -543.1101      -918.9882      -539.9209      -62.18372      -91.25708
      -679.6791      -631.6426       503.6385       669.7545      -17.36754
       60.55595       75.53003      -192.7700      -254.5524      -487.2688
      -630.8683      -608.9768      -691.9202      -1078.108      -1186.243
      -449.9457      -18.39478      -490.6580      -1115.967      -815.5524
      -21.41968      -357.4797      -599.1295       457.6863       898.7568
      -230.2017      -1088.670      -958.4380      -519.8721       329.9785
       399.9717      -18.34106       750.5466       1325.096       595.5432
      -554.8618      -1771.434      -2002.450      -1004.600      -458.6392
      -451.4604      -704.4626      -546.9937      -588.1152      -1253.137
      -763.2572      -31.66646       207.6646      -207.9912      -982.7329
      -840.0779      -986.7961      -1075.196      -430.9949      -335.8418
      -648.3228      -777.9717      -1099.252      -1361.806      -420.3337
       540.0808      -266.9922      -1081.144      -113.2925       987.4067
       1169.130       967.9676       18.16846      -563.6097      -177.8745
       180.6221      -397.2744      -982.7845      -236.7557      -270.5223
      -348.1807       731.8345       930.9493       74.89111      -1085.394
      -1664.685      -1415.189      -534.9275       619.0054       1314.455
       880.8484      -376.7275      -486.4778      -392.4746      -1070.908
      -441.0339       653.4032       545.9235      -148.4015      -489.1246
      -302.9349       89.17896       1040.872       1501.922       540.2771
      -38.71252       217.1140       81.02081      -429.4974      -154.4812
       957.1213       1125.432       509.0702       98.77820      -388.9634
      -800.3242      -632.8716       135.0647       445.9380       293.8762
       839.8203       1464.550       1391.864       1289.652       1295.090
       777.9968       237.0859       364.7595       352.4450       245.2611
       295.6516      -267.4938      -363.6265       580.4072       945.7213
       668.1917       569.5992       592.2488       431.8539      -171.5841
      -220.3943       590.8843       800.9888       523.0439       482.3391
       757.3535       1190.852       839.5188       109.3736      -19.34692
       182.8911       796.8906       1603.800       1366.850       446.8171
       439.1201       617.1581      -14.05118      -234.6055       615.7205
       1073.210       715.5322       1166.664       2018.837       1855.520
       647.4713      -656.6729      -723.2335      -18.49385      -28.79681
       52.55469       696.5009       466.6638      -319.5984      -453.2052
      -70.01825      -57.36981      -34.77100       676.5273       832.3367
       196.9343      -78.86084       158.8000       290.4791       439.3770
       895.4429       1135.032       1786.551       2395.341       1717.829
       473.8564      -773.5420      -1577.200      -1612.983      -1501.648
      -1149.300      -1064.591      -1848.751      -1709.997      -749.0908
      -561.6747      -526.3921       68.74463       460.7637       182.4937
       171.3628       1010.052       1442.656       846.4600      -7.756836
      -791.9612      -1152.579      -944.1321      -545.8658      -206.8991
       22.00854      -251.3960      -995.8002      -885.4028      -177.7761
      -576.5017      -1073.895      -493.4019      -265.7277      -244.6077
       518.5527       641.4315       172.8607      -68.02539      -1176.783
      -2319.713      -2004.398      -1325.536      -1006.576      -457.2931
       154.9966       60.06763      -938.2205      -1532.604      -779.1022
       162.8425      -48.81458      -732.2396      -522.4103       106.8713
       355.2952       441.1057      -169.9307      -1052.515      -758.2212
      -343.0083      -630.2466      -825.2982      -807.0487     -0.5345459
       1056.700      -79.92090      -1808.146      -1384.318      -1207.456
      -624.8042       1584.777       2037.163       1852.344       2028.793
       824.8086      -571.9619      -1580.230      -2693.921      -4208.858
      -3480.173      -676.3571       25.22363      -329.0604      -400.9966
      -1022.737      -1960.548      -1916.967      -1911.398      -4499.217
      -8050.656      -8250.135      -1963.348       6610.449       11368.68
       13462.89       14483.12       12068.54       7380.930       1216.832
      -6190.375      -8877.520      -6780.646      -5430.521      -6075.814
      -6571.438      -4785.800      -1266.408       3364.541       9235.512
       12921.48       10803.84       6310.388       1852.871      -2826.114
      -3232.295      -427.6768      -2379.660      -6582.650      -6307.382
      -3804.544      -698.2168       3616.295       5283.045       3716.786
       3875.995       3918.541       234.5146      -2783.272      -2688.016
      -308.6113       2935.854       5224.703       6799.715       7222.905
       5560.709       400.4219      -7386.539      -12411.51      -10800.03
      -3643.979       2882.187       4619.665       3517.635       510.1865
      -3360.790      -3698.229       15.45410       3136.305       5049.598
       7073.852       6839.397       4600.380       1043.740      -3750.816
      -5421.784      -4167.301      -3738.059      -2276.857       525.5562
       376.2659      -426.4473       3014.295       6686.275       7055.250
       4783.096       481.3652      -2104.356      -2545.049      -5096.168
      -7388.588      -5942.024      -3706.697      -1748.375       2747.381
       7065.838       7332.257       5557.454       657.1309      -5211.961
      -9047.760      -11554.51      -7448.139       544.0176       4999.275
       7301.293       9786.076       9630.506       4724.985       753.3398
      -848.6230      -3759.320      -6233.736      -6574.254      -6592.891
      -6814.711      -4184.634       717.0293       4361.203       7030.763
       7178.019       1876.974      -4690.605      -6768.742      -6608.055
      -6818.084      -4404.944       267.2686       3379.671       3951.357
       3931.338       4847.463       5335.372       3574.705      -103.4219
      -4525.525      -8297.232      -10082.77      -8920.812      -4399.663
       576.3701       1772.955       1258.164       3176.953       4939.195
       5243.689       6312.387       4905.792       519.1362      -1814.931
      -1900.380      -1646.983      -694.3273      -149.8853      -1159.679
      -2518.608      -2839.455      -3467.285      -4287.322      -2607.852
       530.0391       2055.032       1530.946       334.8125      -1065.923
      -975.3701       1641.100       2034.339      -1139.576      -2974.502
      -2514.815      -1348.212       1124.950       2124.145      -79.87207
      -1019.032      -774.2531      -578.0815       852.3091       2269.307
       2994.351       1340.678      -631.2578       1147.269       3504.248
       3391.232       2448.884       1386.914      -622.3545      -2279.115
      -3927.146      -6484.275      -7545.096      -7154.774      -4779.688
       487.3945       5060.932       6903.414       6949.029       5431.359
       2979.021      -661.0371      -4621.707      -5342.611      -2817.924
       173.4600       1484.171       526.4160      -1019.501      -1548.832
      -794.0234       779.0225       2338.791       2800.684       3213.036
       3685.286       2136.990       424.6575      -463.3809      -2270.105
      -3875.562      -4174.115      -2411.801       512.1812       1738.891
       834.2489      -47.01794       287.7070      -879.8379      -4009.740
      -5523.028      -4408.968      -1098.386       3233.553       6439.613
       7762.074       6700.104       3790.753       1286.118       293.1396
      -168.9573      -996.9033      -1659.660      -2219.201      -2245.636
      -1576.360      -1304.520      -2046.057      -2641.343      -1726.820
      -176.3745       1481.023       2461.472       1740.035       191.5283
      -1014.976      -1936.792      -2107.524       86.35742       2172.097
       1281.752      -212.6094      -1474.779      -2426.961      -1830.378
      -769.5161       579.9375       2868.830       5876.385       8572.918
       8640.847       5968.954       2359.253      -1190.765      -3948.336
      -5121.670      -4202.317      -2103.763      -87.04199       1892.554
       3473.139       3204.986       1350.395      -523.8242      -1833.182
      -2258.105      -1568.405       92.68896       1148.388       912.4520
       425.1926      -555.9407      -1273.500      -1084.410      -1126.590
      -1155.137      -2291.700      -4621.544      -5202.158      -3826.586
      -2044.248      -416.0161       1121.442       2208.840       2726.629
       3865.756       4762.384       4410.555       3403.228       1505.708
      -594.1533      -1797.109      -1812.503      -1040.046      -653.0269
      -229.5393       897.2998       1292.696       446.8623      -366.2515
      -1524.485      -2420.579      -2370.338      -3010.654      -3282.849
      -2006.457      -1306.236      -1444.736      -1002.840      -484.7451
       116.4414       1818.773       3346.749       3852.958       3494.118
       2338.833       1465.706       1823.631       2846.755       3808.443
       5104.807       4799.799       1405.764      -2045.610      -3237.597
      -2602.056      -1513.983      -973.8081      -1092.283      -1200.879
      -1726.218      -2621.408      -2202.873      -738.4786      -201.3701
      -819.4370      -1810.158      -2805.893      -3210.847      -2424.837
      -1192.471      -379.1123       929.3926       2878.419       3624.942
       2881.166       2164.394       1737.436       1011.623       283.5123
      -45.51505      -49.81128      -407.7476      -893.8811      -813.9380
      -450.3524       20.99316       782.3916       895.9197      -87.28711
