     0.02500000      -28252.66       28383.91      -12345.00      -12345.00
      -30.00499       227.3200      -28.08000      -12345.00      -12345.00
       0.000000       20.85000      -12345.00      -12345.00      -12345.00
      -12345.00      -12345.00      -12345.00      -12345.00      -12345.00
      -12345.00      -12345.00      -12345.00      -12345.00      -12345.00
      -12345.00      -12345.00      -12345.00      -12345.00      -12345.00
      -12345.00      -30.27030      -67.72450       1286.000       0.000000
      -31.59500      -68.73200       0.000000       105100.0       0.000000
      -12345.00      -12345.00      -12345.00      -12345.00      -12345.00
      -12345.00      -12345.00      -12345.00      -12345.00      -12345.00
       175.6151       33.50843       212.9931       1.578957      -12345.00
      -12345.00     0.05900298       270.0000       90.00000      -12345.00
      -12345.00      -12345.00      -12345.00      -12345.00      -12345.00
      -12345.00      -12345.00      -12345.00      -12345.00      -12345.00
      2008        13        10        50        55
       480         6    -12345    -12345     10294
    -12345    -12345    -12345    -12345    -12345
         1         7        13    -12345    -12345
    -12345    -12345    -12345    -12345    -12345
    -12345    -12345    -12345    -12345    -12345
    -12345    -12345    -12345    -12345    -12345
         1         1         1         1         1
RINC    -12345          
        -12345  -12345  
-12345  -12345  -12345  
-12345  -12345  -12345  
-12345  -12345  -12345  
-12345  -12345  -12345  
-12345  -12345  BHE     
ZL      -12345  -12345  
[...]
       958.2888       1611.298       494.9861      -943.5696      -1539.179
      -793.8082       82.93396       148.5674       201.6838       1137.223
       625.6890      -829.4417      -452.0685       651.2708       504.3210
       134.6436      -21.26416      -645.4331      -604.8470      -309.1768
       673.5724       724.5327      -1918.562      -1926.255       1011.602
       1515.274       38.19629      -114.1823      -19.43036       291.5677
       201.1087      -19.21765       367.5989      -1084.631      -421.8960
       147.3209      -381.7500       1633.959       734.5483      -1754.118
      -985.7509       324.8482      -230.1545      -834.9637      -547.6379
       268.8730       552.4678      -20.78625      -320.8564      -1256.229
      -193.6515       933.0181      -626.5881      -757.4996      -267.0691
       470.5511       775.7070      -762.4967      -871.7322      -20.33655
       370.0026       505.7461       522.8672      -1482.549      -2015.536
       1688.700       1055.324      -836.5767       476.6682      -282.4252
      -778.9617      -322.4897       597.1421       1325.271      -336.8831
      -1393.584      -806.7547      -78.49612      -100.1871       17.27332
       259.8616       507.8990       169.6263      -661.6053       174.8322
       446.9160      -554.1331      -1082.618      -559.9709      -56.67676
       574.6633       709.4351      -1065.754      -884.5420       1682.931
       813.5204      -792.4286       199.2410      -597.3745      -862.3975
       87.66541       198.9551       617.5372      -44.12097      -587.1805
       210.3935       510.1785      -226.8177      -322.4978       1092.251
       1172.726      -717.2139      -476.3516      -234.2029      -844.8645
       349.0427       859.2168      -671.4310      -774.9463       1356.218
       1114.355      -726.0887      -588.9939       361.0856       492.4426
      -171.7501       406.5845       821.3447      -1319.386      -1160.373
       1109.982       1344.688       205.9492      -1188.351      -234.8258
       615.7447      -260.5635       121.7117       1301.706       1379.794
      -496.5868      -795.5005       491.9988       1223.153       496.0983
      -947.6494      -134.5862       723.2324       799.4614       595.3278
      -16.00701       34.22772      -104.6066      -294.3674       717.2144
       745.5602      -291.5847      -401.2056       747.6636       1302.127
       136.9124      -1270.102      -772.9279       1016.125       525.4059
       403.9196       46.08521      -1404.126       533.6450       1934.729
       562.3789      -973.9712      -1254.279      -172.5034       1073.538
       894.9004      -476.5374       194.8970       687.0428      -187.3928
       436.0186       1052.343      -461.1729      -1436.138       286.8916
       1107.182       391.2991      -254.7035      -101.7559       541.6293
       338.3094      -113.1554      -239.2780       135.2453       161.6500
      -679.3058      -153.4572       281.1112       121.6545       623.4414
       216.5440      -171.8818       460.8732       991.3461      -217.7958
      -983.7527       67.62036      -373.4258      -532.7766       875.3651
       414.4690      -765.0671      -149.3822       52.52216      -128.6609
       23.29578      -123.9155       885.5252       407.8096      -1725.908
      -636.4768       1232.156       903.0674      -344.6301      -945.3342
      -679.4268      -203.0176       141.0465       116.6434       75.46106
      -113.9199      -525.1091      -636.7531      -481.6208       182.1722
       911.4921       128.1458      -1522.661      -665.1238       1394.627
      -225.4634      -1349.485       141.2850       55.67700       647.4378
       276.9980      -1291.478      -634.5903      -625.0391      -221.3774
       811.4220       24.43622       303.4036      -43.53247      -1182.582
      -446.9167       331.3610      -11.30682      -696.3561       585.6442
       833.2383      -933.8450      -326.4372       350.2723      -440.0675
      -269.9072      -670.8467      -795.6880       844.7526       585.5772
      -379.3965      -194.4785       224.2339      -228.3740      -921.4297
       425.9011       786.5767      -1023.660      -850.8445       902.6096
       713.8962      -954.8586      -691.7898       88.81641       629.7679
       767.9248      -511.2654      -1014.597      -166.0757       1125.466
       196.2451      -969.1228      -621.1755      -113.8770       895.9642
       370.7666      -179.9165      -83.07851      -143.2241       188.1810
      -287.4550      -839.5265       463.3068       1033.717      -165.5524
      -76.18433       47.87842       626.5992      -158.0696      -1429.506
       480.9700       568.4283      -175.3634      -409.6854      -662.0479
       322.9340       579.6215       296.1313      -658.6019      -752.3608
       820.8831       765.6117      -94.39136       113.5270      -107.7889
      -330.7756      -228.3713      -877.2271      -384.5303       1282.942
       649.1973      -1281.519      -481.6221       1287.631       795.0229
      -786.9385      -406.6810      -204.2477      -690.2815       612.5413
       1615.661       369.8779      -1460.034      -1483.163       319.7522
       1160.168       214.2319       117.5344       244.1981      -715.5739
       70.96069       1042.843      -341.6199      -561.5542      -885.0604
      -869.9985       1139.587       1184.103      -110.2480      -66.93362
       470.4945      -443.4465      -859.6664       198.9143       193.0273
      -331.6353      -110.2417      -443.6958       378.5098       1486.272
       244.6008      -60.93091       272.6768      -706.4285      -498.9965
       99.96045      -541.8105      -713.8677      -211.1027       330.5818
       570.5425       111.3889      -479.7317      -707.7517       201.4517
       1804.780       846.5315      -840.4225      -454.1304      -272.6985
      -53.22192       1001.999       74.71216      -1336.325       449.7086
       335.4449      -1231.078       449.6259       742.0625      -677.9525
      -246.2045       135.8605       60.44879      -330.3394      -116.2869
       1238.915       114.6609      -1388.853       85.70105       699.6993
      -158.6840      -88.92627       377.2008       514.8122      -300.4944
      -359.7742       444.9949       621.2446       302.6777      -1538.763
      -714.8149       1525.782       563.4068      -548.6890       387.4341
       707.4598      -666.6943      -243.7239       951.9426       823.3018
      -274.2379      -675.2860       205.0581      -511.9661      -373.2240
       682.4054      -527.4185      -304.6007       612.9015       150.3896
       499.6453      -185.1103      -407.3486       1525.390       165.2937
      -1294.668      -418.0052      -915.1891       201.7566       1200.124
       706.2214       991.1865       203.1478      -431.5312      -37.12451
      -546.3639      -518.0781       147.3771      -11.05518       795.1493
       873.8831      -316.0439       162.9546      -99.14331      -124.1549
       745.8712      -266.9287      -879.9976      -901.7075      -526.2219
       351.6265       599.6906       667.9821       193.8898      -368.6393
       53.36475       337.6861       87.41650      -248.2986      -1140.651
      -436.9455       515.7039      -521.5662      -279.3173       717.6785
       701.7476       1032.486       862.7931       232.1990      -1078.957
      -1741.765       299.4331       1149.207      -241.9604      -428.7360
       385.6500      -143.7200      -493.3193       653.1746       455.1229
      -12.62329      -380.6772      -761.0436       509.1017      -183.9250
      -853.3442       1060.023       1990.569       448.2273      -1432.322
      -1108.744      -601.1801      -633.9115       36.31409       423.6487
       559.6996       53.93640      -446.1714       1089.661       595.5408
      -459.2495       1284.016       446.3242      -1513.367      -1235.523
      -246.8623       1112.793       881.7946      -508.3068      -59.98114
       416.2268      -520.1385      -70.75806       1321.966       572.2009
      -1221.745      -837.4944       626.8622       467.2169      -409.7708
      -293.0637       1161.801       1681.697       492.3945      -856.8936
      -694.6091       731.7284       664.6084      -819.8093      -1260.130
       172.0847       910.1254      -23.91321       57.53027      -621.2441
      -968.2651       2119.809       2028.616      -1116.614      -1209.496
      -388.4363      -200.4873       480.3871       608.3509       113.6641
      -555.6089      -295.7566       962.5948       693.6179      -718.4410
      -353.9421       897.7274       79.13586      -605.9808       261.2325
       341.1499      -172.4165       1716.026       1590.358      -1711.783
      -1496.353       75.95850       981.6418       532.4067      -781.8066
      -517.6754      -476.6462       333.3796       423.2278      -801.9012
       179.8032       525.0536      -198.6695       382.8743      -297.9482
      -372.1940       801.6541       110.7153      -841.6832      -885.6212
      -26.83301       1589.116       1490.693      -852.5269      -1233.485
       598.9682       535.6715      -740.5051      -186.0640       541.7690
      -953.2776      -1048.234       111.7124      -713.9021      -790.0284
      -271.2926       122.1431       1213.176      -281.4902      -431.7290
       1789.046       434.0850      -1204.277      -1449.244      -221.3992
       1157.465      -394.0359      -683.0934       338.4371      -87.30420
       68.60614       232.3936      -183.9976      -378.3762      -536.8289
       529.5334      -402.7100      -2018.731      -156.4255       1199.792
       364.0612      -257.8477      -204.7358      -407.8982      -617.5315
      -708.2091      -704.3385       205.1428       978.5646       155.3804
      -1237.528      -735.5719       176.3901      -1174.345      -500.7717
       1572.369       192.6067      -1326.339      -236.5901       504.8016
      -257.9841      -26.89587      -214.3599      -1176.611      -140.1375
       199.8900      -522.0051       130.5539      0.9622803      -96.34375
       1053.164      -166.5708      -2078.048      -1206.106      -211.8459
       67.64917       461.7488       84.50464      -486.1866      -223.0981
       769.3785       448.1819      -409.9361      -66.42065      -38.34375
      -576.2247      -472.0929       386.9252      -103.1440       396.5244
       1647.062      -265.3037      -1695.998      -600.6490       337.9625
       13.12891      -275.3630      -424.6743      -912.7697      -662.1572
       1363.948       2231.086      -7.970947      -909.1824      -582.6157
      -349.7966       144.9483      -108.8701      -76.62866       254.3199
       385.8142       347.9279       236.3237      -148.3031      -718.6179
      -532.5593       165.0071       237.2268       88.60327       1051.617
       1122.059      -249.5157      -239.2725       1104.013       677.6531
      -923.4255       421.4854       1133.839      -340.1204      -491.5131
      -211.1870       155.9824      -98.43494      -59.46198       247.6110
       12.26514       903.9768       1110.451       10.91418      -436.2152
      -527.1207      -549.1998      -93.58350       590.8633       428.7594
      -480.6453      -80.32080       1201.202       1315.169       270.6619
      -1276.779      -940.9844       589.7949       962.4965       689.3385
      -646.4812       465.5200       2040.966       413.3611       993.1388
       764.2231      -1949.775      -870.7080       1673.731       1626.849
       45.01434      -343.7673      -84.40308      -466.4303      -105.9753
       656.4858       520.4178      -868.7114      -51.01880       1160.218
       321.9646       646.7173       531.4150      -1123.612      -1359.409
       755.7012       796.8134      -677.5350       120.4395       738.4946
      -310.5551      -982.2112      -45.72339       935.2278       782.1249
      -202.1059      -236.3728       496.4287       1084.487       1463.322
      -455.6311      -1351.158       160.8739      -223.3728      -895.1339
      -272.6382       303.8311       1943.132       2212.179       123.8896
      -1470.277      -1799.104      -65.82935       1030.218       157.2823
       316.2075      -444.8398      -2407.517      -1441.495      -1432.344
      -5445.070      -7691.809      -6642.333      -3618.962       1760.186
       8552.941       15638.97       20992.08       23902.77       24400.19
       18780.56       3704.859      -14369.60      -22687.35      -19349.08
      -14281.19      -10388.36      -3922.920      -2435.355      -10411.85
      -12839.15      -7200.906      -10677.31      -17562.08      -8040.152
       14206.97       28383.91       24959.27       7733.789      -13471.03
      -15252.10      -907.2598      -1505.635      -4915.512       11214.51
       25563.38       17238.43      -5838.035      -19874.86      -6522.566
       16098.57       20890.62      -426.4375      -28252.66      -21143.23
       7473.564       12033.86      -5375.611      -11285.01      -3049.449
      -4273.599      -2014.069       7866.963       1673.595      -5221.283
       2924.382       5488.469       5.307617      -1633.638      -1442.452
       3115.099       6758.550       131.2129      -6142.816      -5803.641
      -5550.456      -5058.699       4379.203       17034.55       10926.59
      -8070.764      -13030.57       1944.504       16630.71       7356.622
      -6322.771      -2076.297       660.9414      -5987.650      -8686.678
      -8018.104       895.7383       17496.91       11527.33      -5401.774
      -5330.633      -4695.268      -10596.86      -9957.009      -308.8086
       9956.578       15546.01       9034.526      -5492.717      -10703.07
      -5516.953       660.9258       1062.303       4763.828       7061.947
      -4669.839      -8918.898       2272.722       8052.707       154.9805
      -2497.301      -1368.453      -9102.559      -1310.980       12882.04
       4023.119      -8310.642      -5009.757       1873.175      -1.958984
      -5232.417      -3904.326       6611.078       13903.77       5854.118
      -7140.790      -6028.603       1623.866      -1471.858      -3051.555
       2712.949      -728.1675      -4872.802       4391.190       6661.478
      -3254.448      -1650.225       4127.096       1191.655       737.7314
       3323.440       3233.764      -2043.862      -6167.711      -3218.278
      -1267.000      -3989.811      -4378.734       1071.324       2808.396
      -2063.587      -2150.049       3637.673       4606.163       328.1523
      -2611.938      -6724.662      -8203.549       4239.832       14133.20
       2477.869      -5047.524       3983.814       1266.583      -3520.484
       5391.056       5046.050      -2784.399      -2545.885      -289.2490
      -3442.432      -4213.313       1146.676       2984.159       2452.102
       468.5244      -3099.300      -1230.730       4144.797       5557.237
      -364.4648      -5477.037      -4722.108      -3337.360       2975.740
       5091.409      -4468.232      -3157.895       4523.406      -1445.864
      -4232.035       2021.008       3568.643       200.6436      -4034.660
      -2900.304       4672.610       7333.690      -909.8867      -3163.152
       1773.171      -2105.346      -732.0547       2714.451      -6015.988
      -7194.412       778.2861       591.8291      -2675.941       4092.568
       10248.83       3276.945      -4195.197      -4561.493      -2552.304
       1057.201       3375.979       832.2329      -696.1162      -1109.300
      -2159.754       1651.049       4359.682       2344.481      -555.3682
      -3851.392       1175.541       6627.349       730.0649      -2922.535
      -1047.895      -2916.884      -4250.383      -911.8164      -1132.874
      -2487.831       412.6223      -313.0439      -3255.968      -738.3008
       6482.623       9847.165       1130.650      -7774.770      -5695.936
      -2710.520      -1349.751       2606.488       59.64160      -4027.596
       625.8726       2462.337       1635.843       2286.297      -1055.858
      -1545.110       1536.070       454.4629      -2123.210      -4401.030
      -1052.019       5485.814       2491.278      -3421.604      -4949.689
      -2342.191       2922.454       2488.640       379.4937      -1050.391
      -1134.542       1175.668      -1873.181      -1140.692       3426.826
       864.3271       1759.741       6109.948       2418.941      -1537.287
      -1636.931      -751.2886       2179.726       1747.593      -1754.860
      -1365.744      -707.1108      -2913.952      -1297.344       3224.412
      -801.2227      -3802.872       4335.246       3465.266      -4175.069
      -4372.521      -3877.917      -1116.219       975.0676      -1625.271
       230.2578       4076.714       4077.765       1520.382      -2010.724
      -3665.002      -3381.619      -351.2930       4093.482       4727.834
       3315.143       399.4991      -1296.865       1810.095       1049.315
      -5095.783      -3264.893       4240.390       3411.771       268.3774
       1029.051       2794.949       952.0117      -3702.352      -1002.852
       386.4482      -3296.404      -3454.083      -2995.488      -185.6289
       3588.253       1386.370      -3156.632      -664.5737       3515.806
       845.4414      -1706.192      -1141.185       156.2021       1100.849
       2026.213       3558.527       468.2463      -2145.432       807.3354
       1597.881       544.2959       1231.566       1594.695       929.0610
       1279.591       1470.260       881.4448      -869.0453      -900.1992
       3585.655       2522.289      -4304.613      -5284.708      -485.7554
       2215.700      -362.9075      -108.8203       4135.630       1175.023
      -1105.834      -1618.486      -5928.495      -2508.458       2068.109
       557.7104      -181.9714       403.6060       2546.758       2015.553
      -1975.137       1033.522       4926.113       252.4863      -2990.279
      -888.3760       305.0718       2012.430       3427.950       1911.648
       903.5403      -169.5229      -1402.717      -1319.276       6.698730
      -1010.103      -1003.596       1732.246      -842.6355      -716.3264
