     0.02500000      -28528.47       23540.95      -12345.00      -12345.00
      -30.00499       227.3200      -28.08000      -12345.00      -12345.00
       0.000000       20.85000      -12345.00      -12345.00      -12345.00
      -12345.00      -12345.00      -12345.00      -12345.00      -12345.00
      -12345.00      -12345.00      -12345.00      -12345.00      -12345.00
      -12345.00      -12345.00      -12345.00      -12345.00      -12345.00
      -12345.00      -30.27030      -67.72450       1286.000       0.000000
      -31.59500      -68.73200       0.000000       105100.0       0.000000
      -12345.00      -12345.00      -12345.00      -12345.00      -12345.00
      -12345.00      -12345.00      -12345.00      -12345.00      -12345.00
       175.6151       33.50843       212.9931       1.578957      -12345.00
      -12345.00    -0.02453426       180.0000       90.00000      -12345.00
      -12345.00      -12345.00      -12345.00      -12345.00      -12345.00
      -12345.00      -12345.00      -12345.00      -12345.00      -12345.00
      2008        13        10        50        55
       480         6    -12345    -12345     10294
    -12345    -12345    -12345    -12345    -12345
         1         7        13    -12345    -12345
    -12345    -12345    -12345    -12345    -12345
    -12345    -12345    -12345    -12345    -12345
    -12345    -12345    -12345    -12345    -12345
         1         1         1         1         1
RINC    -12345          
        -12345  -12345  
-12345  -12345  -12345  
-12345  -12345  -12345  
-12345  -12345  -12345  
-12345  -12345  -12345  
-12345  -12345  BHN     
ZL      -12345  -12345  
[...]
       42.66199       451.2393      -92.43042      -843.6620      -522.8654
       29.52100       2036.575       1226.439      -700.5063       596.9193
       85.98120      -1311.386       450.5803       858.4456      -879.8460
      -314.5930       1344.118       665.1497      -1129.409      -642.7894
       460.6914       92.79272      -948.7159      -968.1365       1042.708
       811.0037      -1018.144      -778.9597      -70.32825       473.0188
       931.5922       514.1699      -1410.087      -2092.391       1093.087
       2634.041       509.9058      -836.0376      -820.0967       472.8251
      -73.68079      -837.0503       911.3861       132.6589       257.9607
       1474.739       165.9199      -1159.348      -1553.895       240.8367
       1513.328       289.9949       280.0554       101.0075      -337.0756
       443.9554       5.333496      -537.8953      -1063.959      -281.5664
       2259.253       559.8052      -1197.196      -338.7964       251.7543
       250.1393      -921.9133       210.5769       1322.591      -333.1187
      -1240.021       526.9858       1422.845      -651.1532      -46.20361
       1510.412      -172.4177      -1051.950      -756.5439       29.44678
       774.9420       184.2105       108.3491      -563.7354       137.2991
       1916.301      -283.6677      -1501.705       1148.165       1048.626
      -584.5469       157.9763      -677.7809      -1198.504       1551.874
       778.9561      -1866.798      -776.5298       326.3242       697.4065
       1381.464       198.2004      -889.9163      -820.9089      -1169.975
       59.51367       1494.897       147.2052      -731.7764      -240.5286
      -160.2465      -226.0103       565.7480       754.4561      -1056.540
      -1743.423      -211.7058       1314.084       626.3103      -17.38202
       726.5361      -622.0988      -386.3622       1000.724      -397.5588
      -1299.412       64.68274       795.0669      -192.1814       265.9902
       898.4794      -618.3585      -676.0623       57.47852      -1075.661
      -28.34961       764.5730      -1396.626       23.60376       1741.950
      -479.3694      -1212.884      -274.7468      -119.2327       288.2081
       4.883301      -722.5171       520.0520       1443.280      -149.3945
      -1830.862      -880.7353       797.9268      -987.9901      -317.7188
       2400.519      -212.1033      -1822.463       409.1605       648.2906
       134.5748       634.3998      -396.4668      -479.5742       428.6865
      -1040.472      -689.4705       1170.152      -158.8884      -1332.179
       318.6528       1668.005       1044.069      -333.4597      -1045.856
      -455.3529       618.7603       604.1432      -91.44714      -572.8685
      -426.8219       117.0403       1421.785       1113.927      -1268.899
      -1003.214       343.2625      -248.7078       12.23657       415.7375
       205.7615       149.2585       126.8055       416.5372      -171.8786
      -117.4771       632.9062      -724.7601      -666.5291       1159.818
      -155.7087      -1736.398       190.0522       1705.906       625.1373
      -377.5001      -81.16302       436.9598      -268.0975      -989.5198
       112.1243       1088.238       228.9924      -423.7225       169.0038
      -397.2838      -367.1367      -8.763428      -415.2461       923.8491
       981.3966      -476.6633      -38.78125      -381.8057      -804.2532
       334.5328       653.9973      -316.4615      -611.5188       348.2831
       742.8557      -356.1465      -1241.792       729.0635       1751.378
      -152.7262      -649.7205       100.0884      -386.5347      -1345.438
       191.5767       1290.311       151.2858      -111.4730       7.636230
      -570.9417      -65.56409       774.8223      -342.5906      -1138.830
       809.5991       1252.036      -1016.673      -1285.006       376.9442
       663.2901      -196.8054       371.0483       782.2378      -528.5518
      -861.0735      -558.4387      -641.3628       1084.278       1437.937
      -1106.696      -1359.636      -130.2222       926.6187       340.4292
      -688.7809      -458.6006      -442.0629      -248.2504      -228.0108
      -284.9629       204.0674       293.4937      -194.6459      -1015.259
       66.21155       1199.618      -722.1125      -473.6493       1097.465
       89.32532      -484.8535      -157.5488      -3.030762      -986.4137
      -1314.985       715.1287       1294.278      -1103.485      -1910.219
      -53.84851       699.1582      -373.4255      -544.0322       262.0063
       1111.522       962.5176      -741.9778      -1667.977      -603.7865
       840.3700       168.3389      -1827.985      -467.0461       1192.953
      -269.5627      -992.9358      -394.7820       617.0384       527.1308
      -143.1194       165.7759      -805.0638      -820.7983       762.3779
       606.7661      -550.2703      -1162.220      -328.8127       1102.453
       92.49866      -265.0455       405.7985       263.5063       417.5881
      -60.95166      -781.2427      -1900.481      -1267.010       753.2493
       973.7705       655.3395      -146.3008       53.04517       1087.439
       166.7297      -667.3169       104.1602      -1370.175      -1401.082
       1491.281       706.6362       162.8416       1731.246       418.9482
      -515.8767       665.0516       359.6439       732.2671      -96.82520
      -1974.356       470.1125       219.0496      -1930.452       299.0063
       1909.287       169.5381       271.4438       1513.988      -787.6973
      -1672.850       621.9854       1627.646       1507.674      -352.6660
      -1421.599       533.5854       371.3982      -983.7237      -96.36548
       874.2433       379.0607     -0.1235352       312.0929       315.1189
       1121.164       296.4229      -576.6754       265.0483       1277.024
       552.7224      -1703.833      -11.45264       1472.729       106.7076
       206.2725       827.7769       692.4773      -478.2891      -1404.845
      -746.9531       1199.871       1322.830       215.9634       672.7874
       585.2713      -105.2342      -172.5250      -59.28735      -314.3161
      -610.2117       301.2058       938.2917       492.2722       470.7816
       753.9183       193.1281      -576.6085      -42.96777      -311.8682
      -1718.079      -515.4883       715.9570       1291.916       965.4302
       687.1970       1216.738      -585.2712      -924.3117       89.56027
      -255.1675       71.41340      -22.19818       130.8329       635.0021
      -98.10962       262.9700       246.2582       23.07202       1228.289
      -136.7310      -1419.762       152.3763       442.9247      -214.7998
       644.8758       675.6039      -615.0588      -816.0657       452.0669
       1026.483      -424.1812      -1120.240      -101.5664       276.9278
       583.2031      -1019.881      -1235.984       1769.918       701.9082
      -883.8799       347.0966      -125.2310      -999.2305      -1031.277
      -449.3474       158.1646       1125.784       1255.944      -437.2557
      -22.21313       1132.640       715.0343      -207.7810      -966.3480
      -390.0370       650.0760       269.7632      -1196.773      -1686.500
      -327.1758       1435.902       984.3703      -253.6902       11.71945
       107.7019      -295.0801      -900.3583      -599.7931       888.5601
      -517.0647      -1165.793       1267.908       1115.186      -689.3281
      -1756.520      -1399.760       690.0489       298.8098      -957.6865
       121.1367       1635.565       1253.699      -859.0022      -558.4539
       588.9678      -739.7041      -1433.149      -339.5426       305.7185
       85.84167      -371.2194       559.1936       637.2759      -1614.573
      -629.3303       1224.953       170.1906      -456.4472       214.5593
      -211.3462      -1472.992      -44.13452       1812.944      -542.3120
      -1329.640       954.0680       497.4515      -512.6254      -547.6712
      -369.1244       933.7379       403.5100      -1698.224      -484.9158
       1171.733      -707.8972      -588.4331       1293.214       481.0718
      -1219.500      -1619.397      -306.9341       925.2079       700.4280
      -108.1859      -142.3386       546.7809      -543.5811      -451.2634
       1051.040       388.2487       416.1281       533.2737      -936.7183
      -1821.786      -96.34863       1906.946       665.4698      -630.2748
      -352.3074       158.9929      -229.2751      -430.6375      -26.14795
       3.670044       666.6312       428.5750      -459.4393       525.7676
      -99.79321      -1346.553       378.5234       1455.762       730.2657
       73.85779      -117.6431      -141.8506       139.3334      -178.8331
      -468.3845       1112.449       739.5054      -728.6123       541.4553
       1742.971       607.6498      -492.6878      -222.6707       36.53320
      -954.8253      -1366.678       1196.957       2170.764       130.1602
      -1017.438      -802.7440       315.9818       702.0430      -432.5879
      -1314.081      -487.1484       860.2657       864.3776      -410.8657
       60.48199       192.1780      -996.7452       232.4194       979.4226
       18.41748      -1255.718      -422.7593       1938.819       320.2922
      -839.1881       105.9698      -113.2910      -191.5547      -742.2480
      -1031.724      -177.0135       633.6571      -415.5460      -509.4490
       1661.610       386.9741      -1677.209      -226.5751       67.73779
      -1408.544      -283.2243       416.4077      -1266.474      -729.4806
       366.4969      -246.8268       266.6235       55.97375      -900.7967
      -75.63950       229.9186      -427.8638      -1034.758      -584.6650
       336.3889      -438.6343      -294.5777       92.39746      -1017.118
      -989.4138      -530.0603       177.6329       449.6184      -752.8372
      -656.7711       12.19238       294.7094      -20.38281      -1304.607
      -1058.583      -735.7667      -630.0833       297.6128       255.7922
       657.4675       322.1719      -780.5196      -192.6031       419.3746
       3.171143      -874.2451      -1147.812       393.4838       867.2786
      -772.0148      -668.6505       26.50195      -1026.300      -630.2000
      -148.9192      -1302.224      -17.38031       747.1207      -662.0405
       176.6204       695.1646       254.8561       303.4939      -544.5475
      -70.90430       151.0100      -863.6160       323.5532       1060.458
      -390.8906      -1035.922      -42.93457       1195.667       1785.263
       432.5259      -1078.451      -498.5347      -280.7217      -789.7009
      -907.2432      -607.2153       843.0845       1521.729       651.6062
       361.4722       1030.674       1011.066      -64.81299      -1061.221
      -320.5376       952.4683       417.6245       492.5366      -713.8652
      -1700.559       1117.047      -71.91064      -1781.351       1447.386
       715.9707      -279.3789       3173.286       718.3950      -2303.586
       1470.721       1909.972       310.6942       1343.755      -1013.542
      -3180.392      -48.28955       1706.256       494.2241       1466.310
       2056.457       652.7549       1036.104       1564.868       267.1885
      -1067.985      -878.3403       799.6504       1634.974       652.9805
      -488.2350      -326.8966       223.3289       691.8755       681.8337
       119.3850       360.9276      -133.4227      -532.0059       1329.208
       394.7898      -1856.328       104.9519       1265.286       135.0131
       122.2070       515.8118      -58.15967      -36.40137       1147.429
       479.3217      -740.9623      -37.15381       1322.319       1114.604
       50.28711       226.8333       587.7043       829.3279       14.67944
      -65.95258       589.9001      -769.0667      -274.7742       945.8540
       664.3911       800.1016       1022.431       1006.200      -100.9641
      -1035.746      -780.1093      -643.2990      -390.4973       18.07666
       1455.617       2051.204       686.4458       1253.483       2703.256
       2363.599       719.1614      -316.8948       541.3364      -714.4385
      -3961.508      -6822.477      -10410.64      -11519.24      -8722.408
      -3915.656      -2434.363      -7668.521      -5073.988       6971.527
       10444.87       4012.115      -6234.387      -14681.33      -15307.02
      -231.0469       17906.71       13953.31       7286.500       14158.63
       3220.645      -21447.71      -10109.68       23333.50       21407.88
      -3091.756      -2512.258       5316.852      -11734.27      -19395.28
       741.7217       4561.012      -5228.410       9498.422       23540.95
       9848.730       1971.604       8297.384      -1736.107      -12189.08
       1718.434       19440.76       8519.359      -24292.98      -28528.47
      -3470.107       7821.695       9742.745       5798.908      -8283.738
      -8743.467      -7092.723      -14883.67      -3293.379       14736.07
       12478.46       2034.805      -11943.84      -17663.29      -2529.512
       13900.18       19196.65       14430.82       688.9648      -5626.762
      -3120.930      -8557.084      -13529.90      -2900.199       8722.068
       9383.225       10265.19       6499.986      -6312.129      -14183.15
      -9927.741       4033.861       11217.78       2733.574      -2234.416
       930.7487       532.1919      -2174.404       642.1680       3801.954
      -2110.699      -7991.486      -4795.887       1273.715       534.9272
      -684.5957       6191.904       7181.562      -7804.287      -6744.229
       13348.89       429.2148      -19446.79      -896.5996       12391.37
       4804.222       130.9150      -2349.041      -703.8174       1745.442
       906.4111      -2356.466      -4540.180       4468.561       7196.370
      -2403.305      -3049.229      -1451.293      -1156.827      -2118.483
      -5863.997       2743.588       8053.020      -1907.361      -3245.237
       4180.432       3514.612      -4387.522      -4442.921       5569.838
       2099.561      -11340.15      -6190.329       4395.616      -869.7764
       383.9375       11272.05       7788.041      -2388.992      -3550.455
      -16.75977       12.31738      -4400.833       743.0391       10264.51
       1127.988      -9697.174      -6700.519      -6383.667       532.5723
       7924.356      -573.7803      -3011.551      -1291.623      -421.2673
       3265.604      -2281.375      -8046.603      -2410.294       3507.434
       2143.535      -418.0557       4123.648       7074.524      -1070.314
      -4503.975       51.64282       1168.873       1448.273      -611.3428
      -5136.774      -4834.069       2652.803       11401.85       6208.016
      -5640.635      -9298.694      -2792.738       4388.107       3053.105
       1959.912      -479.3936      -4924.830      -2614.868       1815.503
       3488.136       1635.298      -1998.158      -1726.454      -911.6357
      -552.8379      -1989.114      -5051.321      -3327.398       806.9326
       5501.935       3330.604      -3778.363      -1452.624       1752.014
      -2854.113      -1915.715       4665.715       4448.491      -2440.924
      -3570.442       1753.780       839.0156      -1511.851      -1584.373
      -2290.037      -43.78027       2020.655       1226.595      -4427.825
      -4736.764       8363.553       10647.87      -4677.186      -7647.396
       3844.778       2917.244      -2713.999      -356.7194       1151.254
      -1366.435      -6375.869      -3545.227       3155.865       2763.881
      -62.31982      -868.1250       2582.085       3667.833       415.7886
       283.2158       1508.901       1463.549      -1694.402      -2720.818
      -917.3674      -865.5713       897.9102       2840.176       1375.086
      -1327.160       718.0244       3162.487      -528.4878      -2586.620
      -367.2665      -342.5883      -705.3623       2011.324       5550.955
       2389.892      -4031.716      -1230.483       752.1475      -4588.315
      -4171.598       558.9131       2415.503       3564.259       4577.944
       2748.147      -3053.730      -4379.705       871.3770       4077.507
       1092.785      -808.2344       3632.399       1052.285      -7722.028
      -6917.684      -1171.002       2757.648       4071.483       369.0869
      -3279.685      -1570.744       1906.003       1543.309      -648.6621
      -2126.976      -960.3506       4068.230       6557.365       3510.108
      -720.1284      -92.66504       1230.933      -1013.519      -1487.374
       423.3091       805.8271      -1306.435      -3375.135      -3326.237
      -1611.826      -2439.285      -989.6187       2985.021       2028.115
       893.6260       1795.050       2376.239       1752.015      -227.3806
      -1075.355       1016.669       3556.657       1955.824      -1558.368
      -91.58569       1843.386      -535.6260      -4139.044      -4902.575
      -1981.690      -1187.836       1162.890       6101.959       2307.241
      -3824.598      -2831.611       391.3050       180.8268      -1312.243
       686.0068       2155.755       309.1936      -1434.515       1886.193
       3610.282      -464.4209      -2732.708      -2770.900      -1574.258
       1910.094       2975.937      -195.4375      -2778.868      -1643.932
       4001.207       4447.486      -2122.831      -1431.276       1386.099
      -1495.571       269.2520       4755.938       4909.394       1073.593
      -2267.497      -2488.085      -2036.177      -3297.610      -3024.454
       1712.313       3353.526      -321.4548      -403.1833       2018.247
      -759.0365      -1019.524       1630.726      -505.5518      -2535.160
      -752.9224      -203.1367      -3065.969      -2234.553       1937.653
       3167.770       3480.689       2767.866      -106.7905      -1193.951
      -1136.684       431.4464       1137.595      -1037.784      -1619.452
       19.36304       574.0658       192.4312       297.0405      -1362.984
      -1786.628      -353.7034      -232.8541      -12.55493      -163.0537
      -2001.692      -1858.079       2116.583       2440.999      -200.1082
      -608.0403      -230.9814       2293.099       3383.638       370.2549
      -2759.866      -4298.294      -681.1553       4869.523       1264.673
