     0.02500000      -24708.90       18733.80      -12345.00      -12345.00
      -30.00499       227.3200      -28.08000      -12345.00      -12345.00
       0.000000       20.85000      -12345.00      -12345.00      -12345.00
      -12345.00      -12345.00      -12345.00      -12345.00      -12345.00
      -12345.00      -12345.00      -12345.00      -12345.00      -12345.00
      -12345.00      -12345.00      -12345.00      -12345.00      -12345.00
      -12345.00      -30.27030      -67.72450       1286.000       0.000000
      -31.59500      -68.73200       0.000000       105100.0       0.000000
      -12345.00      -12345.00      -12345.00      -12345.00      -12345.00
      -12345.00      -12345.00      -12345.00      -12345.00      -12345.00
       175.6151       33.50843       212.9931       1.578957      -12345.00
      -12345.00    -0.04448025       0.000000       0.000000      -12345.00
      -12345.00      -12345.00      -12345.00      -12345.00      -12345.00
      -12345.00      -12345.00      -12345.00      -12345.00      -12345.00
      2008        13        10        50        55
       480         6    -12345    -12345     10294
    -12345    -12345    -12345    -12345    -12345
         1         7        13    -12345    -12345
    -12345    -12345    -12345    -12345    -12345
    -12345    -12345    -12345    -12345    -12345
    -12345    -12345    -12345    -12345    -12345
         1         1         1         1         1
RINC    -12345          
        -12345  -12345  
-12345  -12345  -12345  
-12345  -12345  -12345  
-12345  -12345  -12345  
-12345  -12345  -12345  
-12345  -12345  BHZ     
ZL      -12345  -12345  
[...]
      -2940.366      -1095.544       657.1069       3155.375       627.2002
      -4505.260      -2475.654       2105.516       474.1716      -1098.883
       1198.641       3303.088       1905.202      -4023.066      -4052.171
       651.5605       2405.937       3441.666       462.5366      -2958.733
      -604.6355       1338.096       377.6611      -1553.373      -1243.823
       2561.102       877.4419      -2323.121      -344.4780       1923.997
       1766.458       236.2828       454.8145      -507.9165      -639.4204
      -400.1484      -1879.012      -643.9236      -1563.404      -935.8145
       3031.177       834.3970      -2379.646       140.0782       1282.305
      -674.4314      -124.6165       1295.238       950.6265      -35.00781
       631.1506       268.1586      -1249.394       1248.064       1047.391
      -926.4451       1455.789       977.6469      -460.2801       197.3523
      -356.4182      -278.0654       1119.929       1285.175      -2305.117
      -2647.777       541.3895      -20.09888       530.1113       1590.111
      -161.9420      -427.3571       863.2454      -220.1506      -1881.651
      -138.9445       871.1200       85.96167      -711.5631      -200.0498
       1503.350       11.18604      -1295.489       486.3123       1159.923
      -702.9861      -669.5349       827.6516       737.0219       392.8135
      -529.9417      -483.6793      -25.55737      -719.6747      -655.3145
       1066.423       1797.705      -34.66602      -1981.328      -433.2634
       981.6118      -1442.776       66.52148       2721.266      -626.7783
      -2599.963       359.1879       676.5345      -390.4463       1362.035
       287.5659      -1457.262      -685.1066       232.3550      -222.4532
      -473.7162       523.7829       503.6760      -986.4209      -2335.533
      -137.0483       2268.836       445.5851      -325.3308       92.36597
      -1459.198       337.1616       2381.307      -111.7056      -1008.633
      -1032.501      -1101.457      -262.2173       336.0178       1604.555
      -235.3311      -2061.617     -0.9959106       551.0330      -223.8130
       692.4126       691.0759      -994.8235      -1233.942       173.1262
       617.6859       555.0721       338.4583      -881.9028      -1089.167
      -663.5110      -351.2661      -5.512863       192.6025      -251.1244
      -425.6001      -488.6677      -947.7297      -322.7923       526.7753
      -35.41754      -40.30078      -173.6513      -740.0884       819.4479
      -3.737915      -1052.584       1624.235       665.2275      -2484.621
      -993.5881       404.5001      -620.3021      -222.3862       659.7036
       1211.547       1264.139      -439.7446      -1914.207      -926.8167
       1021.440       1102.591       865.9016       113.8391      -1038.537
      -363.4592       549.4268       1202.025      -604.3074      -1490.659
       227.3066      -798.6838      -1420.722       514.2122       592.4822
       311.0468       861.0453      -290.2693      -274.0470       774.5464
       3.689941      -887.9752      -845.1167       96.94458       1163.703
       163.0200      -1178.880       182.0957       73.85571      -1521.655
       399.6716       1226.213      -230.4370       67.97400      -155.2374
      -605.2983       1025.006       1810.405       290.0991      -1097.033
      -551.9837       269.3459      -576.1934      -240.3855       982.2161
       289.1888      -1.992188       137.5654      -1480.352      -463.9971
       2122.284       1403.559      -518.4390      -1088.916      -434.8269
      -701.1860      -424.3311       1497.003       1566.904      -333.2183
       115.3479       1460.463      -1049.106      -1603.409       847.3276
       178.8682       626.7271       1806.634       222.2778      -960.6259
      -313.3701       255.9569      -574.0181       418.5359       1705.566
      -127.5502      -1079.481       1141.920       1481.483      -1480.709
      -1299.374       1360.798       201.7583      -1525.318      -392.6597
       103.6855       353.4884       426.8306       530.2565       689.6344
      -603.4647      -581.5930       2.467224      -201.6263       401.3264
       557.9775      -656.1720      -456.4771       1186.176       241.8355
      -570.1707       1030.336       457.6145      -1071.001      -452.4821
       556.9820       275.6270      -383.7664      -576.4463       106.2197
       1148.787       749.3593       311.4009      -585.5642      -1575.210
      -415.8923       1035.426       1125.193      -140.3406      -284.5884
       333.7886      -908.3423      -660.4545       987.0071       705.5637
       237.8312      -172.7666      -612.3378      -360.1762      -5.109497
      -84.15942      -1101.833       57.23352       794.3708      -1175.356
      -265.8640       1375.894       179.3304      -904.2037       560.4346
       871.0839      -902.6749      -177.2587       658.2836      -122.6777
       306.1993       745.6797       352.4557      -451.1345      -1292.571
      -559.5691      -73.63611       231.1462       896.6255       344.3199
       349.3007       73.18396      -293.0121       245.2030      -560.0471
      -904.7196       665.1448       1126.791      -12.34570      -1397.002
      -1672.101       57.68652       1202.369       875.1245       211.6400
      -748.0674      -4.163818       1375.631       710.2855      -194.8293
      -64.89136       278.6270      -1129.814      -1340.554       327.2096
       376.2129       800.0044       1574.106       1588.828       1127.415
      -727.1990      -1271.424       336.6240      -1058.945      -2129.420
       18.95924       29.49988       184.2048       1402.578       1020.871
       46.68103      -120.2346      -202.2061      -1837.684      -1911.991
       90.84473       525.0753       16.37524       318.0964       1090.750
       982.6785      -473.8013      -314.3687       1569.589       664.9931
      -555.0847       166.7330       46.04330      -158.9881       259.1926
      -389.0061      -1672.845      -753.3372       1173.920       862.4570
      -572.0352      -532.6492       800.6758       1226.033       226.6624
      -690.5807      -544.3801       561.4801       935.5786      -479.6483
      -248.4958       1021.059      -199.3123      -1051.664      -43.41260
       290.3967       426.3635       976.8107      -158.6936      -916.0506
       6.216553      -167.7304      -436.3921       550.3467       1372.996
       1273.438       603.9768      -490.3010      -1230.384      -457.1752
       414.4893       312.9031      -18.65796      -322.0913       427.5144
       1168.824       926.2772      -31.29272      -665.2788      -404.6121
      -654.0210      -253.0621       516.5251      -279.3014       39.94189
       1844.212       914.1509      -1302.432      -1364.356      -893.5149
      -1298.396      -542.5259       1813.744       1148.932      -624.8911
       185.4824       544.6440       1136.355       495.7285      -1637.999
      -1009.490       850.4985       642.9146      -256.5944       397.1045
       101.6245       113.3625       709.7598      -511.2356      -583.7354
      -742.7817      -1296.979      -314.8950       696.8293       1255.850
      -470.5364      -218.5622       876.1519      -778.8784      -609.0342
      -1082.300      -406.3159       849.9194      -432.0320      -377.3064
       396.0121       660.3704      -150.3205      -154.6492       1114.674
       95.88525      -1561.798      -408.4434       1212.760      -100.2112
      -907.3398      -345.3867      -1041.462      -13.81128       1166.251
      -232.4216      -1332.538      -766.0840       818.1077       1200.596
       15.66187      -1105.210      -1218.175       7.789001       577.5355
      -204.9468      -850.3645      -698.0590      -237.4236       112.7734
      -172.8298      -318.8557      -334.1547      -710.9855      -191.2578
       553.2998       1048.453       201.6153      -225.1182       454.4482
      -700.1299      -2202.413      -1509.048       311.0270      -204.6401
      -352.3772       908.2280       238.5983      -472.3916      -235.9638
       319.9869       92.33215      -359.6895       106.7886      -879.1843
      -1410.454       396.9949       623.5393      -895.3774      -113.1782
       426.7428      -348.6777       73.61743      -474.6380      -502.2772
       438.7180      -173.1350      -252.4825       204.3418      -427.0442
      -1362.391      -882.9188      -60.51514       538.2122       1030.745
      -143.8492      -239.0291       521.9316      -548.7858      -980.2965
       80.72263       249.3627      -16.68518      -278.6294      -131.3052
       1519.455       1176.862      -621.8356      -389.1465      -264.1151
      -543.6983      -81.08527      -332.0650      -167.2659       409.0646
       490.3145       444.6245      -1081.702      -1632.846       1282.635
       1474.204      -685.6382       660.7370       539.5151      -837.0461
       507.4050       813.2971      -54.78345      -532.9070      -386.1953
       396.3906       1370.629       950.4855      -780.2200      -223.9300
       147.3164      -666.4020       401.7747       742.2079       29.55475
      -412.3181       230.8750       1464.657       95.22046      -1516.079
      -405.6320       327.6448       7.025879       295.6454       73.69971
       989.6218       2082.063      -155.8440      -1307.431      -32.63037
       703.7898       1042.337       1041.417       505.1072      -652.4174
      -782.1265      -140.4446      -688.8898      -118.0947       1432.403
       421.1055      -732.5649      -248.6344       130.1653       630.0546
      -58.90094      -160.1837       584.9543      -758.5884      -544.7136
       1277.597       646.9746       358.3392       346.3717      -416.1794
       320.3044       737.3837      -22.37585       17.83569       506.4043
       809.7134       692.0476      -43.06628      -433.0919      -24.14038
       402.8040      -241.7905      -241.9840       110.0478      -59.96777
       188.5277      -52.72144       156.0465       532.8180       167.6226
      -436.2857      -90.48114       171.1583       121.6888       155.6425
       151.6892       1059.758       437.4395      -865.7958      -505.4893
       95.78113       709.6808      -24.71558      -955.5847       237.0667
       445.6360      -943.6993      -509.6829       1092.380       638.9968
       47.74854       1278.256       401.3679      -956.3584       189.5873
       681.7463      -661.6941      -991.7246       61.87698       358.3605
      -336.6573      -31.06934       1175.421       602.6589      -114.1448
      -432.0903      -1707.767      -1069.064       1061.796       654.1919
      -10.55139       349.5876      -1132.903      -778.3440       620.5634
       329.0042      -269.8629      -673.6523       216.3794       464.5063
       320.6931       731.1941      -258.9336      -1563.511      -841.5210
       968.5525       1201.731       684.6003       87.25439      -825.4336
      -1013.050       504.0752       1689.644       461.0698      -545.3223
      -321.7781      -149.3028       142.5709       241.8105       396.1409
      -37.34448      -888.5815      -996.5801       370.8096       1757.072
       909.5518      -34.07690      -66.45801      -923.1583      -921.6469
       205.9658       317.7295       871.5547       1760.177       605.6501
      -852.2133      -45.81439       498.9931      -102.8066       976.2135
       167.3994      -2052.752      -1480.243      -471.3511       1315.573
       1982.018      -344.3556      -614.6633       1254.396       1156.064
      -614.3533      -674.3884      -966.7131      -1424.882      -41.27014
       476.8857       241.8914      -248.7130      -740.2008      -246.9402
      -660.7452      -561.7759       579.2603       758.2401       482.7973
       68.39758      -52.56592       1693.964       1922.394      -1218.928
      -1361.336       1002.887       1295.853       674.5383      -155.7251
      -1235.413      -1678.401      -112.6841       1238.951       225.1101
       358.7117       473.6333      -1602.434      -1023.207       949.6410
       665.0337      -569.5129      -509.3730       157.5056      -587.9115
      -504.9146       398.0400       839.3589       973.7554       567.1235
      -404.6454      -940.4212       58.55103      -735.7506      -803.7728
       704.2883       161.8525       571.5347       1405.424      -268.1465
      -1499.239      -1563.701      -974.7349       918.4053       714.5347
       403.1038       1409.724       1273.981       1809.688       2250.762
       2126.455       902.7285      -1406.875      -3108.891      -4659.236
      -6396.480      -6658.516      -2016.367       6783.227       14988.58
       16709.96       6687.117      -10068.95      -23693.84      -24708.90
      -11982.39      -3987.416      -5595.304      -1934.930       4107.203
       4192.318       4235.547       8371.312       7362.176      -1379.915
      -3222.872       525.9797      -1021.992       4883.055       18733.80
       14158.93      -10312.06      -20712.53      -8908.996      -2351.238
       2580.902       14535.08       14058.02       9361.059       11682.12
       9364.729       387.2031      -10357.55      -14391.46      -11279.43
      -6653.931       278.9756       2306.660      -1838.877      -1854.250
       1118.953      -1805.699      -8291.804      -4854.482       8680.621
       15415.29       5642.400      -6707.342      -4808.351      -181.1157
      -2020.982      -1090.577       2098.502       2115.544      -169.1113
      -3400.802      -5095.086      -2749.386       241.4653       681.4297
       3451.799       4447.650      -2343.281      -5743.146      -3461.761
      -2871.748      -998.7246       2393.663       2486.563       2083.047
       5441.238       8697.357       7101.714       4512.142       390.4277
      -7979.934      -9004.385      -4299.427      -2141.892      -1640.125
      -1392.793      -1458.459      -6529.970      -4406.164       5715.614
       4958.641      -2195.947      -5289.192      -2316.064       2537.939
       4951.422       5074.720       2983.171       3776.275       1725.452
      -5092.432      -5093.304      -2460.665      -2317.903      -1271.673
       518.6727       420.3857       17.28223       4646.170       6712.186
       793.0806       225.9590       2904.802      -250.0037      -1554.417
      -963.8936      -3767.039      -6735.838      -4939.355       557.8945
       737.4819       213.9238       5709.893       5994.882      -233.7761
      -1815.995       390.8398      -647.4453      -2173.342      -1434.966
       470.4062       2783.229       4121.921       4959.832       3245.795
      -3412.842      -7152.213      -4038.085      -2701.478      -3723.463
      -2905.858       1840.871       5402.858       1644.314       1254.004
       4959.288       3970.204       2357.846      -144.1826      -3284.342
      -2918.399      -198.9126       2193.844       2421.907       2166.337
      -111.3042      -2622.230      -1570.257       435.8330       3304.015
       3192.665      -910.1143      -2318.982      -2131.378      -4067.602
      -2806.488       482.7794      -237.4897      -574.5170       990.1937
       64.69092      -1699.504       485.9160       3037.398       1263.078
      -990.2550      -574.3984       1139.811       2650.716       1081.805
      -775.3813       348.2366      -609.3995      -798.5171       923.5215
       2471.896       3538.229       2909.574       4276.028       3144.345
      -3376.029      -6628.220      -2949.916       48.37207      -2309.000
      -3716.098      -1757.540      -429.8638      -100.7617       2590.375
       4764.805       3262.454       2890.849       2644.074       1747.761
       1610.732      -1122.148      -3502.601      -1254.811       231.2783
      -1711.658       686.6299       3210.735       2695.369       4066.984
       1905.257      -1111.104      -1048.915      -1143.950      -497.5161
       377.2964       1091.315       28.23877      -2272.701      -664.8042
       1866.448       1089.533      -626.1279      -2719.776      -2382.420
       446.1484       1983.478       2435.372       2590.548       169.9160
      -2506.214       573.9255       2097.735      -235.0638       300.0371
       1250.012       39.24725      -273.5032       328.3491      -1268.083
      -2568.697      -1548.361       160.3264       1108.946       1332.540
       935.7441       863.2673       1047.246       451.9116      -847.6035
      -2020.612      -1981.433      -407.7598       2111.862       1716.464
      -922.2568      -1070.721      -1295.096      -1966.800      -519.5596
       1060.736       1837.180       1796.935       154.1562       342.8948
       1668.331       26.76685      -1003.062       51.36133       2850.742
       3596.244       335.6328      -2549.636      -2805.718       413.0261
       1538.619       188.7920      -805.2822      -2585.042      -2506.385
      -600.7773      -866.9160      -1709.163      -384.7354       1623.811
       2072.669       124.3159       656.1953       2351.482       1155.484
       234.9863      -1680.101      -2195.870       827.5623       1074.915
       118.1532       866.4012      -48.44263      -1209.721      -617.4940
      -222.0226      -298.9751       792.5371       1497.803       335.4673
      -1255.756      -892.7792       557.5552       160.8457      -2733.538
      -4050.374       552.3105       4353.208       2235.327       406.3397
       710.4595       292.6284      -1107.550      -1409.002      -102.4233
      -577.9082      -1783.968      -643.7334       1679.783       1610.192
       82.83496       1496.424       1521.869      -1778.781      -2789.206
      -755.7344      -433.7158      -1735.639      -1137.761       254.5596
       1641.808       1172.214      -1030.643      -1598.529      -911.8438
      -85.99976      -721.0112      -1151.289      -1762.238      -3263.478
      -902.4867       923.9188      -1044.030      -97.52271       1137.711
       204.9481       281.1132      -66.61133      -720.1396      -2281.114
      -2345.487       1086.607       897.1196      -2014.518      -1183.533
       679.3823       570.3059      -520.7607      -492.6423       454.5442
