     0.02500000      -36652.60       42295.21      -12345.00      -12345.00
      -29.99500       214.4300      -15.87000      -12345.00      -12345.00
       0.000000       12.04000      -12345.00      -12345.00      -12345.00
      -12345.00      -12345.00      -12345.00      -12345.00      -12345.00
      -12345.00      -12345.00      -12345.00      -12345.00      -12345.00
      -12345.00      -12345.00      -12345.00      -12345.00      -12345.00
      -12345.00      -31.51150      -68.98430       1231.000       0.000000
      -31.59500      -68.73200       0.000000       105100.0       0.000000
      -12345.00      -12345.00      -12345.00      -12345.00      -12345.00
      -12345.00      -12345.00      -12345.00      -12345.00      -12345.00
       25.68212       291.0651       111.1965      0.2309162      -12345.00
      -12345.00      0.1204300       90.00000       90.00000      -12345.00
      -12345.00      -12345.00      -12345.00      -12345.00      -12345.00
      -12345.00      -12345.00      -12345.00      -12345.00      -12345.00
      2008        13        10        50        43
       270         6    -12345    -12345      9778
    -12345    -12345    -12345    -12345    -12345
         1         7        13    -12345    -12345
    -12345    -12345    -12345    -12345    -12345
    -12345    -12345    -12345    -12345    -12345
    -12345    -12345    -12345    -12345    -12345
         1         1         1         1         1
SASO    -12345          
        -12345  -12345  
-12345  -12345  -12345  
-12345  -12345  -12345  
-12345  -12345  -12345  
-12345  -12345  -12345  
-12345  -12345  BHE     
ZL      -12345  -12345  
[...]
       29.58556       79.68491       70.24493       92.00458       140.7605
       172.7623       130.7140       191.0981       179.3610       142.4017
       170.0381       259.6562       261.2474       207.1071       166.3242
       229.8932       242.5423       277.4457       271.3644       291.5159
       269.9288       260.0771       256.3712       292.5099       322.2917
       335.3993       278.7626       292.3936       312.5106       378.5299
       371.9766       352.5804       354.2124       391.5259       398.8466
       400.9318       358.8481       325.2224       314.0330       359.4905
       347.3008       372.9276       402.7539       467.1167       471.3271
       431.6002       403.4202       406.3328       399.5931       429.0878
       375.6445       378.8116       450.2451       478.2745       376.8751
       311.8911       292.7518       321.1355       375.6665       433.7231
       430.0182       408.1656       379.2253       424.9274       402.9269
       337.2411       311.0401       315.8819       269.2921       260.7444
       265.7416       295.6823       301.5530       290.2468       267.1533
       285.4382       266.4305       266.2480       256.6921       229.0251
       208.8074       227.3453       185.3136       177.8969       163.9520
       198.3960       230.4915       186.1355       111.2932       132.5670
       114.2629       101.5034       104.3427       140.5289       158.4194
       180.2196       154.7552       166.1927       151.2407       123.5934
       70.35938       71.24286       110.7920       113.6833       72.85294
       94.33376       60.14424       43.60434       73.49042       96.08023
       65.39151       59.69078       55.68448       67.97845       84.44894
       123.5332       109.7998       100.2555       70.63390       50.29412
      -2.101891      -28.52089      -11.03353       11.19385      -6.582977
       2.820557       37.40414       64.63766       10.43667       18.15194
       10.62608      -5.065704      -36.15907      -50.24750      -70.07364
      -103.6165      -121.5217      -104.1133      -79.46945      -38.94543
      -79.79247      -56.81689      -90.31079      -142.6157      -148.1211
      -154.4080      -153.1833      -120.8481      -147.1181      -142.7542
      -134.2019      -129.0035      -183.2019      -200.3824      -181.4351
      -197.1790      -219.7732      -200.9025      -232.4222      -280.6310
      -299.8188      -204.5609      -170.5944      -174.2188      -175.8755
      -203.6499      -249.7024      -302.0899      -311.7803      -228.6743
      -269.9230      -294.5204      -216.4688      -203.9365      -273.6295
      -252.1217      -202.2794      -231.6517      -324.7245      -313.0599
      -278.6847      -259.9683      -213.9080      -185.2167      -206.1193
      -166.8541      -184.9056      -261.6555      -299.7811      -297.9243
      -283.0312      -210.7695      -173.1556      -158.1035      -154.2202
      -133.8847      -105.2153      -165.5097      -264.1213      -229.8445
      -191.6855      -194.9962      -207.4408      -187.8178      -150.8812
      -105.8770      -57.07047      -30.71513      -68.72391      -103.4772
      -144.1525      -171.7566      -169.4767      -118.5015      -96.02075
      -87.53975      -50.45953      -83.67685      -164.5406      -147.1498
      -97.50681      -69.18265      -73.63031      -96.93744      -129.2163
      -129.7165      -129.8478      -105.8557      -57.51743      -53.92566
      -99.83136      -110.5964      -142.9418      -136.3105      -52.79166
      -41.25189      -165.5486      -207.4158      -138.9351      -76.36560
      -112.6061      -151.0969      -195.1855      -164.0375      -70.72787
      -64.09686      -127.0926      -135.8730      -111.8553      -130.2002
      -209.6866      -183.0564      -158.4720      -126.3703      -75.36053
      -124.2206      -209.3175      -223.3499      -210.8851      -177.6185
      -135.2039      -117.0842      -159.8711      -190.5038      -196.3913
      -203.9857      -217.0250      -176.6204      -137.3654      -181.0505
      -270.2579      -277.1124      -191.9926      -159.9559      -174.2696
      -143.0323      -174.7825      -225.5417      -207.6086      -191.3782
      -225.2019      -198.6029      -119.3521      -127.4299      -189.8290
      -201.1531      -199.2660      -154.1483      -120.4348      -133.1548
      -114.8202      -115.8110      -180.2932      -199.2890      -172.4154
      -116.1543      -56.11729      -18.20163      -45.50983      -134.5369
      -166.1552      -135.6859      -100.2624      -50.16871      -13.77893
       6.517998       1.200867      -33.68182      -64.34207      -89.54498
      -70.60456      -30.94465       8.064194       36.87032       45.60809
       23.26359      -6.349861       3.443321       47.19983       31.62384
       16.71217       23.15527       30.38052       57.03238       70.58289
       76.99335       106.1586       121.5723       139.6299       94.42084
       38.36859       21.06117       29.04886       37.88672       85.19659
       149.8213       421.1792       819.5281       596.5540      -71.06689
       959.2766       1844.977       246.9502       1121.314       3337.387
       3884.676       5788.161       5274.837       2247.743       2809.770
       3209.904      -2508.855      -12302.73      -17481.52       4210.345
       1871.025      -16507.74       13880.93       10173.54      -5980.144
      -2371.059      -10087.87      -4998.842      -6881.060      -1752.784
       1130.848       3383.047       37368.14       31891.98      -8870.289
      -17540.42      -9354.705      -1439.195      -9704.033      -4319.027
       17262.21       4397.654      -12999.55      -4443.070      -5485.058
      -3297.712       2241.412      -2549.069       3810.241      -1963.311
       3641.416       4573.066      -17264.34      -6151.183      -2104.016
       874.1836       20931.25       9797.295       2166.488       5808.649
      -1494.887      -6161.537      -3203.333       6749.374      -709.2988
      -10662.81       1773.176       10031.08      -3803.342      -6199.820
       11090.44       5781.271      -7794.627      -660.6250       6391.341
       679.6016      -10042.63      -10352.03      -5745.854       2647.333
       4858.539      -2712.957       6958.375       7835.760      -3737.927
      -688.4673       5148.582      -2245.369      -859.2168       9577.751
       4014.307       4252.336       7648.426      -4057.975      -6756.471
      -5235.900      -6932.776       3196.226       1106.015       785.7407
       4957.898      -4470.592       5600.993       9056.509      -3159.307
      -4561.585       1576.613       1430.809      -7520.072      -5169.567
       1355.831       939.7715      -5471.267      -5128.279       3373.586
       9252.173       5254.915       2829.819       1445.569      -6448.879
       217.4678       7251.417       678.9497      -2231.164       8917.946
       4606.996      -11522.87      -5224.262      -2155.113      -1119.221
       1496.829       1491.728       228.1152       2223.784       4538.599
      -6247.398      -1404.758       4508.042      -2099.674      -74.12695
      -336.3516      -10563.23      -8960.027       2554.258       1845.481
      -969.9697       1098.749       1113.226      -150.5176       2134.879
       3173.497      -1445.254      -3238.539      -1171.199      -1179.420
       1183.541       5305.587       5781.808       1235.527      -2599.869
       1934.125       2147.033      -3890.878      -4103.803      -1694.173
      -1598.649      -532.4399      -388.8103      -1743.343      -394.2695
      -2631.551      -2502.032      -1138.547      -1806.326      -72.55811
      -1078.403      -2330.391      -5040.668      -6740.700      -4692.583
       1221.227       5231.085       4005.663       6011.001       660.0898
       1003.098       5810.311      -4425.383      -6190.385       5143.573
       4846.265      -4346.833       2044.297       7771.360      -2438.612
      -3600.175       4563.292       3038.377      -3449.897      -6071.704
      -2789.110       1193.509       22.68848       2434.652       956.0327
      -1513.996      -3146.494      -5559.745      -571.7151      -262.9268
      -1977.896       2625.598       2164.428      -1171.607       328.0413
      -484.8550      -2106.504      -153.1338       2556.371       722.0520
      -1377.399       1644.163       1914.793       1810.303       1669.929
      -473.4133      -1250.139      -800.7812      -568.8303      -1216.789
      -1516.365      -1249.733       108.7391       69.38477       788.8223
       4068.854       5486.253       558.1445      -160.4736       5636.328
       1814.087      -2570.979      -3325.125       533.6562       5123.941
      -1825.911      -5073.937      -523.9258      -898.2145       228.6228
       1324.969      -2191.667      -1988.657       1852.195       2046.349
      -1019.020       438.5648       259.7878      -393.3828      -2302.672
      -658.9553       2718.353      -3596.488       472.0327       1659.334
      -858.3625       846.9683      -249.1064       5588.477       2583.835
      -2276.830       2091.837       176.9806      -411.9990       2241.870
       1161.262       1263.195       14.08289      -1151.538       475.1260
      -1434.593      -4129.261       2685.675       2627.578      -4394.916
       2705.152       305.9087      -3807.924       3461.900       678.4160
      -4028.962      -1657.219       4553.000       896.8589      -1798.312
       5625.707      -686.3132      -1337.705       3127.038       822.5483
       115.6543      -3318.627      -2411.668      -4472.861      -4402.376
       1584.241       951.3252       2208.956       4923.708      -240.0227
      -2423.468       3090.128      -1604.343      -7850.445       2481.703
       3416.164      -5677.462      -4424.374      -644.6167       3880.662
       483.2607      -579.6758       5687.859       1700.237      -2291.214
       1175.008       3355.668       746.8457      -4460.907      -2221.362
      -907.4297      -4200.493      -1823.036      -118.6113       4690.166
       2929.558      -2187.273       1534.291      -2459.482      -1564.285
       2086.935      -1637.117      -648.7178      -1317.704      -3368.369
      -1679.935      -136.7540      -542.9639       1718.801       7489.633
       4076.906      -957.4727      -2156.454      -2197.210      -234.0503
      -2481.724      -713.7002      -1263.759      -2098.133       2575.493
      -851.2461      -2683.948      -3664.729      -1845.696       2644.793
      -1154.264      -645.7734       1841.454       2131.326       2566.260
      -66.73291       240.3672       3246.341       3339.501      -921.2072
      -1382.325       3363.921       3118.579      -2622.524      -2131.424
       1722.414      -2622.774      -1575.470       5380.297       2766.119
      -230.4956      -622.3506      -4108.477      -1097.855      -411.4189
      -5131.226       3062.838       4436.704      -5475.916      -2766.428
       1780.418       1257.271      -862.8999      -129.3086       5436.431
      -357.4822      -1293.291       4326.414      -1789.165      -3803.850
      -130.3643       3720.163       290.4238      -5352.988       220.2119
       702.0801       256.9111       3977.865       2141.527      -538.7263
      -580.2383      -1545.378       48.98053       1944.584      -3270.445
      -182.4150       5857.806       1211.469       1317.198       3359.880
       228.5420      -3777.406      -1233.967       2780.669      -646.1636
      -1094.154      -1611.177      -2126.119       2239.013       4999.841
       283.8887      -4427.320       252.7563       2547.977      -325.3484
      -257.3506       1502.489       1162.052      -1332.499      -2665.546
      -296.1320       331.5044       86.36914       4087.374       4477.818
      -1277.919      -2151.746       1713.806       136.5383      -1729.840
       969.4590       4550.646       2450.090      -2057.388       3490.893
       2554.449      -3281.878      -1687.485      -3282.499      -284.9111
       2125.957      -894.2188       3208.255       2498.465      -1219.006
      -2140.939      -5062.539      -1325.829      -607.6909      -3571.076
       4095.271       4093.418       286.0625       2746.245       4234.912
       6710.496       8072.385       9790.812       4545.700       153.7852
       1950.461      -9170.539      -23057.55      -24217.50      -22426.34
      -26536.40      -27806.69      -17450.66      -9700.641      -15727.61
      -24428.70      -31142.23      -32749.64      -26770.84      -20831.35
      -2683.500       28175.94       40207.36       34925.20       32679.33
       19755.62       17413.23       42295.21       38257.36       24022.32
       31828.25       27593.68       5526.426      -3824.426       14720.71
       27351.51       18854.10      -2745.789      -31852.76      -18200.85
       1469.258      -30855.70      -29230.87       2527.941       322.0605
      -1957.617       19608.33       25402.22       224.7812      -13501.06
      -26013.85      -36652.60      -10356.75       7731.212      -5158.708
      -1518.650       4373.358      -6089.645       3767.361       11627.81
      -2675.982      -145.8672      -1444.320      -17442.69      -25064.86
      -15114.35       9527.464       6017.723      -9952.203       8372.863
       15944.19      -7298.833      -2728.369       4055.250       3806.105
       11566.53      -5040.420       3985.426       24466.68       12350.40
      -6569.449      -5992.562       25951.88       26824.56      -3036.247
       653.6348       13441.01       461.9531      -21793.88      -26959.02
      -16987.00      -14763.19      -7514.789       9917.479       8771.305
       7928.684       17079.91       1692.074      -22827.14      -14806.17
       2940.633       6038.078      -2043.709      -11094.48      -2527.477
       10431.99       697.7617      -14405.55      -1386.236       11504.33
       6411.230       6026.480       19307.36       21777.50      -2407.477
      -8176.022      -296.6738      -3623.871      -5723.172      -8982.689
       2762.697       8106.213      -8149.712      -4359.858      -2168.744
      -8143.018      -3707.205      -8668.172      -3673.402       8953.935
       5401.507       2369.663       1262.407       85.75391      -2366.957
      -14859.14      -15742.28      -4267.207      -2452.207       10705.24
       22599.07       8857.020       5993.672       22359.36       35650.49
       11722.97      -19915.31       3530.316       12660.80      -22003.32
      -23386.46      -3669.625      -12221.14      -22736.92      -15442.84
      -4200.062      -1500.157      -4010.937       2963.548       620.7227
      -8052.255       1399.641       12239.26       7764.510       3481.656
       14960.09       11433.49      -14335.86      -8719.422       6746.724
      -6600.197      -7800.555       3650.104       8016.146       10473.81
       8049.855       9325.828       9198.672       2774.164      -4579.252
      -11421.09      -2308.626      -431.8047      -14076.98      -3503.254
       9762.306      -1573.375       619.4688       6403.646      -4076.211
      -512.6836       7427.268       4131.136       1751.046      -4776.601
      -1926.602       14791.58       6559.453      -5426.791      -3842.629
      -7911.586      -10252.61      -14530.46      -10131.47       182.1836
      -5846.887      -14833.04      -10810.17       3664.211       12429.34
       6072.285      -2352.812      -486.6562      -1869.865      -9686.541
      -4410.568       5964.522       3130.958      -2379.520       6051.775
       10335.08       7198.098       10959.88       8480.301      -1484.333
      -5284.659       1665.029      -265.5820      -11611.52       1061.063
       8591.131      -5861.114      -3535.311       670.4688       2135.023
       8162.195       5258.109       4299.006      -2364.300       147.1641
       5912.748      -9682.141      -5977.288       5928.644      -2795.382
      -4699.443       432.1514      -3808.356      -4603.385      -1154.652
      -2178.037      -1572.201      -6020.053      -7120.020      -3239.062
      -2233.571       2762.913      -1795.754      -3554.555       6095.084
       5983.016      -3206.112      -3440.980       10892.60       9451.711
      -280.1641       8512.391       11608.44       7054.162       4470.499
       915.8237       62.79785      -2501.596       3233.580       630.8262
      -10409.20      -5642.621      -3437.709      -3864.463      -7285.605
      -1602.698       4883.296      -5551.100       5206.258       12020.65
       179.5918      -2360.879      -9039.467      -6645.086      -1334.253
      -3110.999       703.2129       144.5059       6478.621       10661.15
       6571.086       3539.809      -8440.369      -7931.361       906.8828
      -4711.434      -8687.309      -6163.473      -4941.730       633.7656
       3994.124      -870.8545       2531.701       6572.228       4439.707
       5698.415       4217.987      -1633.201      -2091.232       5255.355
       4878.765      -698.0352       743.5664      -6669.457      -9192.361
       1342.273       882.8538      -2496.664       1093.962       830.1582
      -6237.754      -1975.037       7097.402       1004.206      -3264.553
       8143.014       14117.91       1901.883      -4207.795       5552.966
       4742.688      -5730.531      -1616.273       6967.590       7946.323
       4663.286       859.0879       649.6230       3583.027      -2842.695
      -10766.53      -989.6157       2866.287      -7653.132      -7662.481
      -326.6934      -2923.764      -4682.038       3240.701       7058.229
       285.2903      -1801.167       2854.235      -3107.351      -4423.426
       438.3447      -5562.388      -5271.606      -18.65845      -1030.388
       69.50073       418.8032       1642.471       2897.751      -735.9199
      -1450.352      -2359.471      -2219.451       3957.690       2981.323
      -12.37109       5100.499       3953.142      -163.8730       4540.875
       8666.656       5488.892       1332.342       1856.795       1804.822
      -421.2324      -2652.006      -6581.125      -4260.683       1687.441
