     0.02500000      -43019.92       51103.31      -12345.00      -12345.00
      -29.99500       214.4300      -15.87000      -12345.00      -12345.00
       0.000000       12.04000      -12345.00      -12345.00      -12345.00
      -12345.00      -12345.00      -12345.00      -12345.00      -12345.00
      -12345.00      -12345.00      -12345.00      -12345.00      -12345.00
      -12345.00      -12345.00      -12345.00      -12345.00      -12345.00
      -12345.00      -31.51150      -68.98430       1231.000       0.000000
      -31.59500      -68.73200       0.000000       105100.0       0.000000
      -12345.00      -12345.00      -12345.00      -12345.00      -12345.00
      -12345.00      -12345.00      -12345.00      -12345.00      -12345.00
       25.68212       291.0651       111.1965      0.2309162      -12345.00
      -12345.00      0.1046023       0.000000       90.00000      -12345.00
      -12345.00      -12345.00      -12345.00      -12345.00      -12345.00
      -12345.00      -12345.00      -12345.00      -12345.00      -12345.00
      2008        13        10        50        43
       270         6    -12345    -12345      9778
    -12345    -12345    -12345    -12345    -12345
         1         7        13    -12345    -12345
    -12345    -12345    -12345    -12345    -12345
    -12345    -12345    -12345    -12345    -12345
    -12345    -12345    -12345    -12345    -12345
         1         1         1         1         1
SASO    -12345          
        -12345  -12345  
-12345  -12345  -12345  
-12345  -12345  -12345  
-12345  -12345  -12345  
-12345  -12345  -12345  
-12345  -12345  BHN     
ZL      -12345  -12345  
[...]
      -209.2090      -162.4714      -144.4076      -82.02380      -88.37134
      -98.32605      -131.0434      -93.35110      -130.8228      -100.9292
      -85.96420      -102.0698      -143.0168      -76.06454      -90.57990
      -61.78040      -51.90033      -74.67700      -130.3693      -82.61887
      -118.8975      -95.56921      -76.14697      -44.91364      -33.16815
       47.81183       68.65653       63.74039      -33.42136      -4.919006
       36.62468       70.75827       25.26760       2.122871      -42.45934
       12.98470       48.23526       78.05786       49.28238       106.8519
       115.9527       135.7273       111.5534       120.7144       109.8871
       135.9751       83.27295       97.59415       94.93286       119.0873
       90.09367       84.43982       85.59042       175.4431       147.6848
       131.2754       154.3503       210.9840       209.9881       208.2585
       147.4621       206.9862       202.0446       188.2630       164.0246
       163.5001       146.6125       234.7686       255.5829       246.3766
       161.2751       211.0446       256.4794       270.5927       251.8887
       306.2111       250.3164       245.9479       236.9514       283.6791
       287.2347       285.9232       254.7388       300.6654       296.6832
       339.9926       277.0944       260.3162       211.5348       204.1445
       240.3201       310.1646       263.7373       282.0084       283.0795
       306.3138       290.6007       320.8953       259.4113       242.4265
       178.8184       176.5745       155.6149       135.6339       148.7543
       238.8640       199.1000       206.9824       174.0124       181.9603
       197.7654       202.7833       160.7629       143.4948       25.15258
       2.412804       11.02953       71.48409       79.17542       80.34631
       12.22855      -10.90111      -19.09336       19.09560       9.146164
       79.91903       46.87952      -54.67319      -115.4207      -44.22562
      -85.25925      -109.7901      -46.74338      -5.456573      -122.2997
      -121.9863      -142.6041      -127.0168      -121.8651      -154.0881
      -191.1548      -152.6655      -206.5477      -196.6836      -199.8794
      -131.6928      -108.9992      -139.3471      -199.1414      -236.2084
      -333.7405      -281.2977      -263.3984      -265.1477      -288.1730
      -244.8886      -215.6153      -180.5969      -227.2825      -165.9117
      -153.6320      -198.9509      -268.6823      -267.9866      -320.1110
      -338.5300      -383.3123      -315.7908      -266.9269      -231.6906
      -245.9821      -193.5308      -233.1445      -262.8260      -264.1212
      -234.7227      -258.4879      -150.5270      -164.2976      -279.8702
      -330.3617      -243.0350      -237.4749      -200.8988      -181.0672
      -174.0233      -254.3778      -258.6310      -262.4794      -211.2583
      -196.1959      -186.9545      -211.2973      -149.8853      -186.3987
      -175.6274      -154.1913      -116.2574      -154.9610      -164.4566
      -173.7538      -126.3413      -148.3633      -101.6349      -103.9614
      -134.1364      -195.6452      -137.4580      -105.4811      -40.38268
      -43.40074      -30.84262      -62.79874      -76.82111      -131.0425
      -71.93739      -41.12444       3.912325      -6.755310      -7.120644
      -31.58629       27.94569      -10.61024      -30.06282      -14.86313
       40.06128       32.27353       66.02034       23.30222       35.34995
       58.83047       110.4153       73.16035       43.60946       1.170532
       42.75000       40.04706       106.9913       124.2124       126.4869
       122.9558       169.6386       91.12658       34.16391       10.85632
       37.37554       31.70078       64.08846       2.159163       1.381798
       9.157593       90.61365       116.1584       123.3572       109.8575
       112.9174       22.63541      -16.08371      -53.70689      -33.52594
      -30.83604       31.36353       4.262104      -21.42966      -20.24773
       16.45461      -18.59000       37.11937       57.47754       44.42558
      -24.11544      -7.275467      -23.88243      -41.55316      -83.11090
      -77.97037      -129.0402      -100.4800      -91.19913      -50.39657
      -39.77161       23.41182       5.372269       10.03088       25.19053
       15.65571      -39.39052       25.94417       5.361511      -20.16516
      -91.79956      -237.7344      -811.6978      -1242.021      -218.8068
       656.6592      -1571.771      -1306.673       4310.644       3312.921
      -4815.410      -3375.894       1033.324      -7293.348      -13804.26
      -9846.856       656.2949       8771.221       7062.086       17853.43
       18349.20       7575.426       3791.945      -18266.32      -8994.047
       9767.211      -18396.11      -8100.645       15507.81       113.2500
       2900.295       11353.54      -859.5859      -20530.40      -6536.678
       13795.64       2944.751       2299.567      -1419.256      -11016.91
       2442.275       9321.514      -1029.657      -819.5703       16388.86
       8034.199      -25671.07      -8286.566       19260.20      -9077.521
      -10264.55       20239.68       2763.277      -6953.391       7469.215
      -12221.48      -16005.63       8509.236      -3808.432      -9371.576
       12227.04       3439.664      -11230.23      -311.0703       10406.73
       6740.706       499.4382      -2113.403       2229.219       4638.071
      -3764.407      -5960.824      -1345.323       5710.542       3052.215
      -8779.625      -3656.680       59.13477      -855.6406       7718.767
      -1340.411      -6897.072       2345.103       2322.660       4182.779
       6314.846       3313.299      -3897.565      -6403.817       4523.909
       20.59375      -7967.672       6193.940       5974.443      -3611.886
       3881.337       3706.824      -4383.358      -1096.553      -3587.424
      -6679.334      -175.0059       3737.924       5400.004       5581.139
       7193.328       4995.843       3182.118      -1180.744      -7839.135
      -8630.495      -5823.752       2941.165       2521.051      -614.2119
      -1276.534      -4059.697      -3138.256      -2789.070       249.5466
      -77.29395       3344.320       7064.968       1659.104       2140.266
       271.2520      -4144.549       2074.566      -451.4414      -6350.071
      -2389.910      -6068.176      -2421.684       2738.000      -1505.898
       6504.176       10977.65       3770.803      -3691.707      -2999.727
       2763.598       3229.885       1862.687       2953.829       373.5312
      -4978.842      -2437.371      -4458.512      -8526.725      -1336.553
       3055.085      -847.0887      -1458.731       3211.745       1269.411
      -5048.836      -3167.310       2653.679       1087.095      -1019.480
       1648.981       1087.683      -417.8701      -1069.759      -4166.047
      -1913.677       3100.344       1056.951      -1023.493       1143.890
       2074.380       2076.832       1174.188      -2599.417      -899.3940
       3056.602      -2042.526      -1951.428       3764.584       29.76782
      -1747.171       1948.278       740.5377      -305.4241      -776.4263
      -2062.660      -1812.670       54.54492       4679.945      -226.5303
      -7171.258       600.8535       3207.990      -6363.589      -6316.592
       8655.480       6353.048      -9168.296      -1975.124       5502.997
      -2015.431      -4315.309      -802.4583       1778.238      -2684.609
      -3863.057       2111.887      -1383.480      -338.9463       4977.498
      -173.4072       82.59570       4616.825       5782.723       3550.776
       1966.965       844.1543      -5166.032      -5488.385      -2465.333
      -4821.666      -2225.950       2029.463      -402.1956      -2286.274
       2066.324       5423.308       358.2614      -703.2948       1515.146
      -1057.589      -870.8003       889.9170       3046.920       2504.721
      -1060.241       2135.368       1188.882      -3561.777       3128.252
       945.4121      -7545.578       2098.080       4051.551      -7103.211
      -5124.848       1687.325       4274.112       3967.063       1982.064
      -1774.396      -726.1279       2451.489      -1349.342      -1578.840
       1788.021      -2026.071      -4517.059       973.4824       4393.723
       2153.893      -682.1533      -950.6921      -542.6729       1766.494
       4220.437       1483.969      -936.4478      -42.83643      -1234.483
       1827.484       3223.553       381.9434       3248.359      -1997.928
      -2367.480       281.6777      -7904.192      -4869.073       2178.098
      -931.1123      -451.5234       6954.156       6078.566       1360.769
       3087.306      -607.6211      -1012.752       1506.118      -5076.956
      -116.0571       3809.749      -5329.249      -5264.913      -1058.744
      -2284.979      -4818.014      -145.7266       6871.984       1643.217
      -3767.728       1276.273       5740.446       952.6123      -3784.516
       2027.655       2930.711      -1533.322       584.8479       390.3374
      -3180.454       832.1328       3618.980       1095.606       1269.013
      -2295.665      -976.4985       4653.266      -3121.812      -4633.137
       6213.025       4670.665      -3083.310      -3714.525       2694.180
       4684.997      -3011.156      -3263.469       3527.889       2872.424
      -3417.486      -2353.394       3122.362       474.3149      -2976.332
      -4.135010       1641.883      -1409.121      -6511.765      -3142.664
      -574.6680      -5976.157       344.1719       4772.863      -803.6660
       2837.518       7960.890       1805.015      -801.6523       3299.067
      -1891.881      -2336.438       1886.410      -2682.087      -1462.849
       1396.630      -424.4048      -560.6113      -2404.003       402.8633
       2463.125      -2569.551      -2569.914       942.6404      -338.3354
      -868.5469       2556.433      -1363.180      -2316.450       2088.665
      -3490.223      -201.7939       4705.117      -3687.232      -612.6572
       7616.067       1466.393      -5307.856       286.8149       3853.308
      -2766.707      -965.5903       3977.805      -1712.764      -1568.012
       389.7605      -2205.179       1151.202      -734.0583      -1772.179
       3292.932      -1302.241      -2841.237       3643.210       2726.018
      -3122.472      -1608.574       2604.708      -3312.462      -4059.564
       3742.729       797.7715      -4517.241       1126.112       6536.888
      -3306.916      -6631.808       6275.016       2103.742      -6773.235
      -299.4253       519.1853      -2405.898       1278.790       3001.908
      -906.6339      -1608.349       1694.930      -771.6626      -2439.764
       1200.696      -1351.614      -3363.572       2794.940       2629.743
      -2759.702       260.8623       2991.956      -3143.432      -4792.110
       2819.451       4672.092      -386.1835      -386.0652      -450.6323
      -1027.920       1518.985       1488.194      -525.1592      -2166.501
      -1201.932      -1347.042      -4281.438      -2349.442       2752.971
      -1508.153      -5258.117       3657.520       4527.709      -781.2852
       2532.763       1933.362      -2619.344      -1846.613      -3219.708
      -7119.867      -156.9756       5893.442       1977.372       2455.746
       1381.305      -2109.512      -1375.427      -4242.708      -5455.230
      -1561.569       351.1504      -2304.908      -4366.724       1027.799
       5045.651       2547.438       1998.587       2829.083       3548.083
       13.54297      -5236.877       1669.244       8176.191       3816.422
       4247.656       7035.922       7133.566       11044.09       15489.66
       18467.07       19435.23       15783.72       4707.808      -663.4805
      -3074.195      -17966.08      -19707.53      -5146.073       1014.953
       3232.070       5576.754      -3221.293      -17754.02      -29826.02
      -33053.39      -7251.805       25415.14       22539.45       5139.922
       15781.31       25976.70      -3596.969      -34153.43      -25514.14
      -1225.553      -2583.787       3264.047       26639.43       15838.20
      -17097.34      -35269.70      -10549.88       11789.68      -25417.39
      -43019.92       2709.221       15744.99      -31477.46      -32750.02
       26879.71       29813.07      -19233.51      -3134.055       43524.71
       34728.16       9648.363       10894.92       29891.36       27837.03
      -7122.184      -22391.11      -12146.34      -11542.77      -22735.73
      -14167.75       10189.71       1402.490      -9312.742      -13249.80
      -35122.25      -13603.87       26858.98       18085.61       4088.125
       28915.75       51103.31       36491.38       3404.668      -17113.45
       11788.87       32864.57      -7108.984      -27723.09      -9141.086
      -10056.78      -31148.09      -29164.09      -4862.839       1362.941
      -3232.203      -5749.518      -5119.146       12394.84       12959.68
      -23315.09      -21207.64       20516.73       11715.57      -16690.66
      -2741.160       18372.45       11652.09      -4084.401      -1113.902
       12066.87       7766.096      -9772.336      -5952.464       2549.445
      -15145.93      -11352.37       18500.85       18090.32       9722.602
       16187.56       13265.78      -2146.547      -26080.22      -31616.24
      -5605.383       13789.68       7900.752      -7580.050      -8542.902
       10228.31       10712.40      -11746.59      -8794.158       7224.605
      -11217.52      -24624.21       1053.514       7944.528      -4937.807
       1481.467       7701.539       13258.90       13186.43       2708.789
       9080.896       3275.304      -9731.381       7039.007       542.5508
      -16615.92       9187.830       18433.48      -6212.498      -8464.438
       9414.840       8290.844      -14518.88      -17339.23      -6019.848
      -9539.906      -5622.236       6717.383       10619.09       8106.286
       4283.838       7284.260       629.4531      -14953.25      -11681.44
       727.5078       10870.63       16589.14       6695.428      -6375.988
      -11185.89      -18889.80      -7131.412       12776.86      -968.8535
      -4996.477       9464.759      -106.4844      -15009.78      -10324.52
       6851.251       5967.492      -4880.479       7974.627       15099.51
       1520.430      -3516.188       7103.473       16534.43       16849.69
       10739.42       1152.275      -3840.785      -5208.180      -11376.66
      -19041.02      -16487.98      -13800.32      -19145.19      -7728.230
       13742.62       12331.22       4597.992       12695.59       15357.31
       2585.069      -6061.625       1555.087       8058.525      -2009.490
      -1195.675       7978.355      -4785.279      -10553.84       4020.077
       3437.434      -7694.833      -3205.877       9504.482       3503.688
      -10739.84      -2189.427       2096.336      -15780.11      -12900.27
       6902.887       1392.186      -7520.831       395.0186       5459.857
      -759.8379      -10219.56      -3481.804       7019.063       2330.620
       1120.136       4506.519      -2395.672      -5256.741      -3005.104
      -4941.648       925.0098       5327.947      -2310.455      -3853.178
       7131.943       8971.000      -2791.217      -71.86914       6839.091
      -5331.938      -3048.939       7157.507      -1755.167      -1556.729
       4706.013       2709.814      -4026.965      -15302.96      -10665.22
      -3346.959      -8455.777      -3998.811       4426.213       5548.975
       3100.667       5131.336       3471.408      -6619.141      -8173.512
      -3580.158       1368.880       4103.965       4291.248       6159.801
       8170.160       11064.56       6698.699      -7412.840      -8347.898
       1363.612       987.8301      -390.6523       8174.105       12657.28
      -1381.603      -4443.928       10340.16       6582.421      -294.0222
       518.3433      -3259.127       2583.327       5878.980      -2187.442
       155.4355       7024.902      -2069.785      -16086.13      -12485.90
      -4852.197      -10109.77      -6686.243       3310.426      -2498.051
      -9063.761      -3348.686       4114.096       6593.366       4135.760
       2939.307       7534.535       5234.771      -4456.756      -5033.480
       812.4692       1668.901       382.7563      -224.4717      -3486.730
      -7326.092      -2593.361       2599.686       2685.327       5931.065
       157.8130      -5197.275       4254.009       917.9199      -10573.73
      -300.0830       5592.165      -683.9976       3517.736       645.9009
      -3566.218       3947.028       734.2764      -5106.730      -943.7998
       1856.504       6973.514       6606.808      -2652.433      -4994.509
      -455.4663       2505.896      -1211.809      -4769.395       2807.831
       6512.030      -3311.900       1288.230       14322.07       8046.239
      -2826.385      -1597.443       3844.860       304.5254      -7476.297
      -1866.024       2628.549      -2156.912       1165.698       342.5479
      -4648.485      -795.3223       3438.185       3155.616       491.0771
       2273.032       5455.504       2385.633       389.1699      -1924.456
      -5532.285      -2532.115      -409.1475      -1065.270       3520.117
      -294.9019      -3806.676       7701.648       5700.347      -3506.225
       2490.359       3516.798      -906.9600      -840.0449      -5965.963
      -4562.677       3132.571       2007.334       1533.870       2089.529
       1454.029       4330.723       2112.391      -6951.213      -8705.742
      -3368.502      -1834.382       2435.583       4849.134      -1507.453
      -2507.516      -1774.988      -2475.833       1304.244       1828.450
      -1978.488      -2435.104      -268.4102      -1328.435      -3651.750
      -3013.061       966.1846       3913.423       2986.396      -108.4360
       680.4722       3540.381      -519.6567      -362.9316       5726.676
       6744.970       6207.218      -187.5732      -5885.139      -460.7372
       221.9570       185.3203       3590.656       1232.028       386.3008
       2038.323       2085.923      -2430.257      -2670.471       5500.589
