     0.02500000      -27657.57       38040.24      -12345.00      -12345.00
      -29.99500       214.4300      -15.87000      -12345.00      -12345.00
       0.000000       12.04000      -12345.00      -12345.00      -12345.00
      -12345.00      -12345.00      -12345.00      -12345.00      -12345.00
      -12345.00      -12345.00      -12345.00      -12345.00      -12345.00
      -12345.00      -12345.00      -12345.00      -12345.00      -12345.00
      -12345.00      -31.51150      -68.98430       1231.000       0.000000
      -31.59500      -68.73200       0.000000       105100.0       0.000000
      -12345.00      -12345.00      -12345.00      -12345.00      -12345.00
      -12345.00      -12345.00      -12345.00      -12345.00      -12345.00
       25.68212       291.0651       111.1965      0.2309162      -12345.00
      -12345.00     0.05657136       0.000000       0.000000      -12345.00
      -12345.00      -12345.00      -12345.00      -12345.00      -12345.00
      -12345.00      -12345.00      -12345.00      -12345.00      -12345.00
      2008        13        10        50        43
       270         6    -12345    -12345      9778
    -12345    -12345    -12345    -12345    -12345
         1         7        13    -12345    -12345
    -12345    -12345    -12345    -12345    -12345
    -12345    -12345    -12345    -12345    -12345
    -12345    -12345    -12345    -12345    -12345
         1         1         1         1         1
SASO    -12345          
        -12345  -12345  
-12345  -12345  -12345  
-12345  -12345  -12345  
-12345  -12345  -12345  
-12345  -12345  -12345  
-12345  -12345  BHZ     
ZL      -12345  -12345  
[...]
      -17.87602      -28.82037      -4.517426       82.87183       142.1859
       170.4777       128.2943       44.79012      -23.82245      -5.463539
       16.33522       64.70964       73.59421       84.70442       52.27006
       6.882080       13.37704       82.76895       107.3589       127.5059
       89.43699       50.83075       2.088926      -13.58733      -2.877289
       52.78830       68.12657       67.13193       13.90218      -37.38908
      -48.54600      -5.399979       16.24187       66.23636       95.58215
       124.3367       94.23161       38.60670      -13.42223      -22.85961
      -35.69895      -5.293251      -19.33109      -62.50027      -86.64320
      -18.92645       47.54114       102.4449       119.5468       143.1327
       112.2116       63.51301      0.5217590      -41.02191      -83.62698
      -104.4200      -114.3572      -51.87424       18.42902       87.34940
       97.81769       93.74785       75.35143       84.33904       55.88230
      -1.336182      -47.73532      -43.63483      -54.55212      -47.56112
      -41.45359      -6.285370       17.73903       41.55769       23.61545
       2.873810      -25.08575      -18.44166      -17.42213       4.564163
      -11.36848      -36.80092      -47.35078      -12.02971      -9.946725
       7.020126      -10.35146      -51.30426      -76.31599      -42.33575
      -59.15363      -57.96412      -40.65498      -20.86621      -24.94144
     -0.9128137      -3.442337       7.330231       23.91688       44.64511
      -11.26651      -43.78043      -54.47751      -33.69306      -22.97988
      -7.149879      -34.41260      -57.00085      -86.21741      -92.40051
      -87.76171      -1.528152       46.06989       44.37814       25.34108
       20.62670      -6.249043      -4.011635      -22.78778      -37.90001
      -77.15710      -99.31104      -134.4760      -116.2760      -70.28292
       12.78642       68.14630       103.2543       90.93796       74.63011
       1.854950      -40.89039      -40.60316      -3.500202      -12.60621
      -22.02840      -42.07113      -11.76035       27.42233       80.52350
       86.36876       93.23746       62.92819       64.68433       72.11708
       84.35056       61.97397       41.12225       9.785599       32.03029
       60.46295       121.0235       115.7061       111.9001       107.4134
       97.31725       40.49100       20.86156       17.55424       52.74863
       48.69598       83.89157       90.90811       84.33163       59.98090
       72.99136       52.52912       44.42885       11.91074       25.66820
       10.61230      -25.41095      -79.99086      -79.86913      -78.31209
      -36.77135      -28.79024      -24.85571      -34.48532      -3.203979
      -18.89740      -41.68011      -76.44293      -75.32532      -68.20084
      -37.59697      -69.76532      -112.2482      -149.8256      -151.6273
      -155.8667      -102.8383      -61.34016      -63.36096      -113.2046
      -118.8364      -129.2351      -96.82925      -64.85565      -65.96225
      -135.1279      -161.1320      -144.7283      -93.51819      -88.83185
      -77.64059      -97.50897      -105.9626      -123.3042      -112.1413
      -103.0663      -73.74105      -53.56920      -12.72343      -36.14609
      -44.76387      -48.30008      -31.34933      -60.58659      -62.63599
      -59.55330      -34.07724      -49.07281      -37.49737      -43.96843
      -27.09310      -34.78353      -30.95621      -60.60266      -60.09856
      -87.32681      -73.17801      -47.73905       7.735384       8.266825
       10.06634      -16.05061      -21.66429      -50.58609      -38.21396
      -35.93044      -18.73700      -54.37976      -78.60873      -106.7418
      -70.47610      -9.056152       64.60091       33.10443       9.285820
      -22.60037      -44.17513      -60.36708      -9.913662       3.153309
     -0.1929626      -29.59002      -14.67429      -30.71249      -14.62888
       18.08179       87.40875       76.06586       21.96841      -58.78119
      -68.18231      -42.39355       10.85839       9.942154       40.99576
       72.20111       128.0262       135.0933       132.3281       98.49686
       93.07832       60.06592       48.99863       31.89793       57.53604
       65.13562       114.6308       156.9648       196.2017       193.2942
       214.0515       218.3281       247.8763       223.3837       212.8921
       190.0016       174.8611       135.9825       149.7349       171.8590
       230.0014       246.4805       239.7700       211.4822       247.8814
       248.2030       262.2239       270.2048       287.7845       276.0062
       294.3301       271.1112       277.6309       278.9968       298.2717
       284.3685       281.1098       252.2404       247.8715       230.7700
       261.6797       252.2668       260.9948       242.4100       256.9355
       277.4969       312.1581       312.6859       309.2733       266.2623
       273.4376       259.1292       232.8780       188.1147       200.7219
       205.9720       213.3700       192.0679       212.2837       216.5592
       255.2763       290.6153       330.2442       285.2981       232.4419
       175.0425       156.0815       139.0956       180.3233       168.9090
       159.0282       143.1921       158.4171       164.0276       197.5250
       198.7098       216.4249       165.2129       137.5643       142.3901
       172.2807       135.4250       122.2707       111.7218       131.3400
       128.1219       124.1515       67.31383       54.84061       56.51529
       71.45488       44.14255       66.51048       76.14067       65.66031
       38.09933       54.56787       49.54527       50.39500       6.715106
       4.860687      -12.66220      -42.23642      -106.1584      -137.1522
      -132.4459      -80.89894      -64.55492      -23.91963      -34.85236
      -69.34958      -117.2844      -142.4870      -177.4895      -169.2443
      -159.9136      -142.2909      -177.8291      -217.6329      -264.7587
      -244.4844      -214.9777      -167.8048      -156.6874      -167.8256
      -223.1738      -253.2098      -270.8361      -256.7179      -260.8596
      -237.9290      -249.5042      -248.2852      -253.4974      -220.6904
      -224.6785      -252.1749      -293.6586      -307.6908      -324.5673
      -257.2668      -207.1939      -176.4175      -188.5057      -208.8775
      -242.1465      -225.2098      -209.1394      -195.6508      -236.0812
      -279.7017      -325.3251      -313.2553      -269.9386      -186.4960
      -129.8832      -91.52557      -122.0956      -161.6777      -208.0966
      -242.6164      -267.9506      -234.9282      -241.2488      -233.7761
      -219.4329      -209.5043      -226.7542      -198.9396      -176.3077
      -151.0275      -159.5467      -168.6262      -228.8678      -254.1433
      -256.3323      -226.8890      -240.8806      -255.2863      -277.9716
      -262.0378      -240.1029      -199.6844      -201.5870      -220.5142
      -303.3907      -337.3080      -320.6186      -251.1693      -234.0619
      -267.4875      -284.0258      -242.0084      -248.0217      -238.9274
      -255.2603      -296.0262      -368.6395      -380.8451      -385.0862
      -392.1803      -381.0243      -316.9891      -308.6060      -280.1356
      -248.5089      -228.9221      -262.7872      -313.9392      -366.9626
      -385.7434      -399.2698      -377.4651      -379.5769      -370.3228
      -372.0724      -319.6061      -264.6633      -232.3854      -225.6694
      -220.2738      -281.2271      -330.4182      -336.0659      -287.2532
      -272.6115      -259.2827      -284.7891      -295.8694      -283.2469
      -263.4269      -264.4551      -249.7396      -250.5356      -217.0291
      -197.5965      -164.5074      -157.2003      -147.3852      -130.1073
      -98.14795      -117.3309      -128.8611      -147.7449      -147.4188
      -132.7101      -82.49595      -42.41021      -1.459297      -6.949471
      -12.31871      -29.91835      -5.831070       18.09649       38.88530
       30.70576       34.57602       24.59500       47.39578       73.60483
       113.2017       120.4543       129.1093       92.32451       59.89001
       65.85376       129.7977       154.4099       182.3667       184.4201
       201.7760       213.8069       229.8259       210.4073       197.6675
       187.8441       232.7307       222.4614       196.6690       167.9647
       172.7702       200.3069       252.1053       279.5002       320.4558
       323.0886       321.6757       329.8552       341.8993       291.9985
       303.5099       313.3149       314.2695       318.3413       316.5232
       325.0818       358.2297       349.3833       378.4047       392.8344
       418.3643       419.1797       402.3162       396.4550       417.3608
       394.0900       370.9429       377.8308       416.0094       415.1675
       418.4191       402.0527       396.3948       385.6172       398.6313
       415.0823       445.7697       497.4508       549.6838       509.4736
       437.8652       380.0388       368.4618       374.5579       411.8295
       428.9615       430.8025       416.4690       421.9478       421.2322
       429.7812       444.1040       459.3135       439.0747       414.2292
       347.4662       299.5560       283.8789       365.0430       471.8813
       542.1459       523.7080       462.2595       374.0383       319.4322
       315.4771       347.5652       341.8934       346.2504       325.3812
       320.5906       321.5865       334.3607       350.8544       369.4269
       338.1460       327.6783       294.3849       250.8671       205.7398
       212.8747       217.7690       206.0856       214.0454       250.8608
       240.5228       220.7023       197.9074       185.3656       144.2350
       136.4940       137.0349       130.9691       104.7200       80.75761
       31.75509       15.87030       37.85144       83.79506       53.81682
       26.42506      0.6733704      -45.46802      -64.52102      -29.18353
      -43.83139      -64.78104      -96.71140      -104.1774      -103.7926
      -98.13531      -116.1615      -99.40686      -101.6624      -106.5165
      -125.8689      -142.8450      -158.8372      -160.7489      -197.1851
      -190.7870      -192.3947      -182.9708      -173.3138      -171.9220
      -190.4866      -176.0797      -179.2082      -145.0945      -142.2209
      -175.7330      -217.3647      -226.9938      -237.3318      -234.7601
      -229.9326      -168.5907      -150.3106      -155.2560      -154.5658
      -165.3465      -193.6981      -181.6110      -186.8670      -175.4223
      -160.3303      -157.5634      -175.5947      -161.0925      -165.8890
      -179.2609      -187.1886      -161.3235      -140.7354      -127.0268
      -143.2269      -139.2858      -175.4069      -193.9420      -178.1522
      -138.9092      -102.2922      -79.11243      -106.0853      -107.7324
      -135.0072      -147.8966      -128.7183      -82.12970      -91.60901
      -120.0471      -148.4952      -135.9973      -106.0107      -60.37775
      -30.34741      -30.60315      -87.07352      -85.28270      -65.10471
      -22.67747      -25.79317      -50.93419      -48.11488      -17.22083
      -30.12564      -4.134087       16.45000       19.84908      0.2685852
      -10.64777      -34.48961      -10.56811       17.41028       37.02252
       29.98308       21.05089      -20.68237      -25.47816      -28.41696
      -8.666550       34.68774       81.86034       66.55801       41.12393
      -9.366083      -9.140732       14.55286       66.66005       74.65294
       60.44040       2.292740      -30.99969      -43.47607      -16.66300
      -1.309631       44.91742       75.55547       86.26205       31.50900
       1.996796      -30.05754      -12.96251       5.706619       17.78141
      -9.500290      -38.10828      -88.16089      -108.3613      -92.62004
      -15.75781       5.340787       9.702854      -5.401978      -36.76819
      -96.94434      -88.28053      -64.00839      -30.69995      -41.38858
      -68.63382      -113.5438      -113.9254      -107.8460      -82.35092
      -90.13086      -93.28433      -97.10538      -86.31796      -91.53210
      -79.00092      -102.4912      -97.78186      -102.2379      -110.4597
      -143.0695      -153.4636      -128.3995      -87.02060      -99.50775
      -135.3317      -169.9399      -126.9167      -138.1445      -339.1489
      -947.1699      -3466.004      -10287.62      -18418.28      -20507.03
      -21531.55      -27657.57      -18889.31       9303.344       22645.73
       17496.65       25416.29       33007.53       12764.96      -13372.00
      -11713.83      -3709.102      -22303.91       1995.809       29595.36
       3640.242       23530.54       38040.24      -2046.105      -20005.37
      -4422.322      -816.6602      -19556.55      -9981.090       3965.543
      -18005.95       4295.883       32141.11      -4104.320      -24820.20
      -3454.187       5800.202      -7474.795       1326.098       22814.76
       10900.25      -7742.466       3650.255       5069.537      -1294.707
      -1599.766      -12929.81      -8952.063       718.9453      -6263.019
       3037.836       12879.12      -4349.693      -2184.268       3767.430
      -6497.409       3644.433       6171.586      -14109.91      -10285.55
       2020.996      -10887.11      -4582.773       15266.86       8303.726
      -511.6992       5552.380       846.3066      -7676.843       683.3142
       1537.958      -6402.100      -940.4844       8076.553       7653.513
       2650.312      -1460.707      -6314.690      -2959.294       1806.217
      -4034.587      -5902.050       1698.410       6777.221       425.9697
       2346.171       6983.463      -1198.085      -1155.034       4372.201
      -5979.461      -13292.39      -7349.460      -5056.902      -5065.598
      -278.6211       9631.148       9926.371       2730.986       4298.072
       725.3945      -4268.463       1875.936       8913.960       3380.987
      -1252.469       8517.733       4806.600      -8689.408      -9137.907
      -702.9626       1715.495      -3671.017      -1984.707       3782.215
      -2036.516      -8852.424      -42.62793       7655.515       1058.688
       303.1143       7699.077      -481.5625      -5021.352       3540.917
       2878.258       1908.999       255.8684      -66.15259       726.4397
      -1907.866       1909.978       4306.593      -2066.469      -6195.487
      -2756.920      -1765.798      -2738.558      -2337.725      -3028.021
      -6634.111      -5292.196       3893.562       6818.930       4427.928
       8493.508       4519.733      -3548.231       481.0381       5250.853
       1665.967      -1976.026       1959.589       4130.180       2310.324
       2174.232       4914.905       3599.164      -3013.272      -3563.514
      -2090.229      -4593.908      -2163.673       1552.784      -440.1488
      -562.5161       728.9863       766.6707       618.7633       489.7432
      -1576.000      -1716.770       1722.302      -2296.822      -2726.439
       3011.600      -134.9194       756.2041       4222.727       3298.658
       419.0820      -2434.276       3399.328       1057.301      -3313.154
       3815.443       3091.157      -1916.573      -2321.884      -567.2129
      -2569.994      -5361.299       797.7285      -2070.873      -7221.747
       1776.762       3631.479      -461.6316      -1508.445       156.6533
       1759.788      -4293.093      -1714.287       4429.447       1536.563
       3960.826       3486.304       233.2598       2543.734       2575.443
       1037.426      -2109.337      -371.7603       308.7793      -4923.822
      -2786.507       2094.115       3658.045       1497.880      -1107.233
      -2957.625      -4461.400      -1102.473      -1150.773      -4206.283
      -1815.960      -2991.586      -3923.496       1621.163       1679.348
      -1080.592       2256.514       2526.276       426.2690       16.29004
       2068.779       5665.303       2769.303       4895.824       8176.023
       343.3467      -3257.442      -2.119873      -225.0039      -3335.809
      -2321.630       3094.213      -2615.614      -4232.726       4129.177
      -999.8945      -5229.797      -1177.438      -2518.720      -4137.029
       1700.914       6899.680       7158.812       3089.444       53.63574
      -337.3503      -1610.103       231.3298      -367.2354      -2689.672
      -2248.782      -1387.425       686.9771       1331.678       1839.338
       3407.410      -1045.475      -4419.648      -783.2432       1991.667
       2967.500      -513.7222      -3464.189       1624.968       3219.460
      -2002.360       582.1934       1368.314      -8026.361      -4827.295
      -534.1758      -4921.816       328.6836       4645.203       1726.870
      -42.88623       1756.163       3693.648       1701.402       3150.531
       3103.154      -1976.975      -196.0068       4378.883       1452.616
      -3379.755      -148.6567       2571.499      -1850.680      -3603.688
       731.8307       916.1328      -2342.826      -2081.859      -3019.356
      -879.4449       999.1083      -1808.548       1985.571       2206.416
      -3101.323      -1390.585       436.3329       308.4600      -1002.625
      -3010.955      -1997.205       1588.856       2807.544       590.4219
       1099.997       3758.661      -1523.962      -4429.183       1810.578
       1219.387      -4645.072      -4997.614       1768.484       1767.676
      -2660.793       1208.959       44.88892      -2567.981       1329.670
      -55.12134      -1798.676       3002.297       1563.999      -6078.478
      -2107.073       2889.417      -2604.727      -2952.764       212.8866
       1413.432      -1516.049      -3292.631       2258.599       647.0205
      -4862.981      -2810.340       3488.204       3970.023      -2018.690
      -4076.980      -3361.335      -3071.952      -2589.440      -1704.477
       1538.173       2642.014      -686.2683       128.3849       967.3970
      -2753.693      -349.0759       2316.346      -1852.159      -2520.250
       1206.689       939.2410      -1728.722       463.3491       1565.334
      -309.6283       421.8486      -1150.539      -2756.627       894.2410
