     0.02500000      -89565.53       113307.9      -12345.00      -12345.00
      -30.00004       216.3999      -17.80000      -12345.00      -12345.00
       0.000000       13.42000      -12345.00      -12345.00      -12345.00
      -12345.00      -12345.00      -12345.00      -12345.00      -12345.00
      -12345.00      -12345.00      -12345.00      -12345.00      -12345.00
      -12345.00      -12345.00      -12345.00      -12345.00      -12345.00
      -12345.00      -31.02070      -68.74750       1316.000       0.000000
      -31.59500      -68.73200       0.000000       105100.0       0.000000
      -12345.00      -12345.00      -12345.00      -12345.00      -12345.00
      -12345.00      -12345.00      -12345.00      -12345.00      -12345.00
       63.69256       358.6689       178.6769      0.5726707      -12345.00
      -12345.00      0.1563246       0.000000       90.00000      -12345.00
      -12345.00      -12345.00      -12345.00      -12345.00      -12345.00
      -12345.00      -12345.00      -12345.00      -12345.00      -12345.00
      2008        13        10        50        45
       200         6    -12345    -12345      9857
    -12345    -12345    -12345    -12345    -12345
         1         7        13    -12345    -12345
    -12345    -12345    -12345    -12345    -12345
    -12345    -12345    -12345    -12345    -12345
    -12345    -12345    -12345    -12345    -12345
         1         1         1         1         1
TALA    -12345          
        -12345  -12345  
-12345  -12345  -12345  
-12345  -12345  -12345  
-12345  -12345  -12345  
-12345  -12345  -12345  
-12345  -12345  BHN     
ZL      -12345  -12345  
[...]
       135.5591       142.6555       133.0663       142.6071       137.2772
       145.5551       133.1454       142.3926       128.1705       133.3177
       121.5112       129.8791       120.8738       126.9651       115.4498
       128.8006       117.7029       124.4802       113.7130       121.0775
       115.2667       122.1851       107.7447       114.3994       101.4007
       106.7348       94.00485       96.81671       87.21381       88.97955
       71.09604       71.92281       57.15927       58.47878       46.18674
       49.06265       35.27044       34.47569       21.93201       25.14447
       9.696520       5.106991      -6.733562      -7.058769      -21.77351
      -23.59021      -35.86104      -35.59219      -50.68132      -56.63568
      -66.04762      -71.71545      -90.09030      -94.65533      -109.3528
      -111.3143      -125.8079      -131.5839      -144.8180      -149.1208
      -164.7178      -166.1297      -181.4841      -187.1039      -205.1625
      -210.3013      -221.7398      -224.1823      -234.6482      -235.2670
      -244.3044      -244.8749      -252.7698      -251.9301      -264.9707
      -270.4684      -272.6421      -271.7128      -281.0099      -280.3829
      -284.0684      -282.3947      -287.2710      -290.8845      -297.6178
      -295.7560      -304.3391      -304.5660      -310.4207      -314.8257
      -319.6351      -321.4617      -332.0389      -330.0740      -336.1117
      -336.5082      -343.0404      -347.7429      -357.8398      -358.2981
      -365.7854      -369.4048      -375.9384      -376.1565      -389.0330
      -394.5762      -398.3727      -393.7251      -400.8441      -402.1316
      -410.2878      -415.2219      -414.9978      -414.3684      -420.0715
      -417.4330      -419.3452      -421.7465      -425.9023      -426.1846
      -427.0291      -424.7216      -423.6738      -418.3962      -415.7085
      -414.6191      -414.8297      -405.4441      -400.3593      -395.2443
      -386.7717      -377.4207      -371.2869      -359.7722      -351.1699
      -339.2222      -327.9887      -320.3251      -312.1250      -299.6641
      -287.0335      -270.5618      -255.0685      -238.0007      -223.0660
      -210.7816      -197.7704      -182.5286      -169.2787      -156.6678
      -137.6708      -123.6331      -108.2884      -91.22231      -77.36923
      -65.86087      -52.02437      -38.95190      -27.08368      -14.51704
       1.180618       12.20633       25.44950       37.35805       51.41214
       60.58386       71.17725       79.81201       90.25443       96.78995
       105.1791       109.5017       121.8987       125.6610       137.7227
       148.2482       152.9610       155.4958       164.9395       168.1047
       176.4911       177.2672       184.8861       188.3281       192.9541
       194.8082       202.8915       200.5613       201.4564       203.3561
       205.9089       204.9923       211.2668       205.7578       199.7452
       196.9080       203.4162       203.8392       210.9169       208.9764
       207.1221       204.5239       206.8317       200.8290       204.9840
       206.1884       210.0632       204.4459       205.0999       201.8784
       204.5839       202.7562       203.8778       202.2460       208.7136
       202.7379       205.5259       208.9454       212.2010       213.7422
       219.4420       216.4779       218.8226       218.7935       224.4893
       224.2274       232.3722       235.1741       240.8103       239.6249
       246.6195       248.2812       256.5417       255.8894       262.1892
       260.9044       270.1891       269.2628       271.0059       269.1836
       281.6238       284.8601       291.5968       287.7883       290.7377
       284.0557       286.8160       281.7131       284.7129       284.0602
       292.1516       286.5873       295.2376       290.2155       292.8322
       279.8438       264.8083       225.3777       83.82535      -129.7737
      -37.34375       9.992188      -1073.369      -2259.726      -1878.037
      -2845.771      -4102.974      -656.3252       4031.329       5211.844
       5580.802       6291.615       2730.903      -2511.605      -3475.008
      -1780.357       1501.202      -179.6260      -4648.672      -586.1553
       1941.788      -306.4973       293.1143       1544.281       6294.598
       5290.767      -1697.801      -195.6973      -3019.724      -5354.138
      -3234.176      -4101.528       1781.601       5283.570       4094.475
       5707.904       4083.865      -3612.856      -3986.832      -1808.913
      -4222.825      -3144.474      -2525.834      -836.9956       1787.732
       3472.936       4559.189       5857.146       7019.003       6577.366
       2549.527      -4239.234      -5052.760      -7152.067      -8409.390
       423.2139       2140.802       107.4004       3660.598       3156.207
       3639.953       2761.283      -526.8311       1107.358       1364.036
      -2794.472      -2990.733      -2529.466      -3683.400       1919.741
       1610.793      -1562.313       3291.475       656.0728      -1467.338
       4816.950       2913.799       190.4395       2738.230      -266.8506
      -2960.828       70.44415       754.7651      -536.5117      -1539.374
      -3673.790      -2366.668      -606.4517       835.7031       3530.043
       2808.583       1753.119       1012.442      -1714.078       897.2205
       3029.209      -2246.589      -5618.986      -5126.136      -3822.740
      -290.7910       3232.624       2166.667       1722.768       2540.755
       79.02197      -2219.935       720.5498       1455.395      -4017.324
      -4494.279      -1040.385       2276.365       2154.012      -84.16602
      -487.5605      -2453.394      -3222.881       210.2168       5673.323
       4672.622      -759.3027      -3168.521      -2157.240      -2151.802
      -3326.363       1405.134       1078.743      -1586.128      -245.0391
      -1833.366      -2078.075      -3360.143      -4294.565      -4102.980
      -2104.972       4293.666       6740.312       3303.236       308.2075
       1561.322      -652.3228      -3395.713      -217.8477       500.7539
      -3459.752      -5031.375      -5171.001      -4249.220       445.2119
       3786.808       5915.398       4552.111       1232.502      -1924.312
      -5274.637      -4711.944      -1934.911      -513.4521       1771.306
       3330.318       564.7168      -1262.163      -4235.027      -6711.247
      -2956.994       921.1758       3655.208       4687.760       820.9297
      -1532.097      -1029.377      -2391.585      -1493.720       1234.880
       2810.034       3055.544       1291.473      -2642.473      -4856.962
      -505.7797       1409.274      -1696.352      -1737.481      -217.4868
      -1121.376      -1881.696       666.7563       32.81006      -2765.172
       1369.599       3651.040       1582.301       954.2808       1504.137
      -391.7115      -1010.720       455.0540      -1213.717       2564.466
       2704.844      -1896.961      -1803.768      -3416.215      -4362.098
      -2384.138      -1730.663      -1881.869       1359.135       5737.742
       3983.497       1624.440       3862.367       1985.420      -1145.897
      -609.7848       57.28906      -1749.583      -2951.806      -2016.741
      -1301.603      -150.4651       538.0078       1330.982       2360.768
       2562.186      -1825.737      -1422.829       3347.106       112.9268
      -3312.206      -1602.261       1606.902       2085.642       1960.799
       1092.858       1202.478       1443.606       775.7637       1981.152
      -770.7627      -1614.212      -1566.877      -5961.547      -2943.340
       2597.331       1936.047       2500.507       2323.072      -699.7363
       326.5674       2608.589       859.3887       588.9326       1354.217
       503.6404      -537.7051      -2797.757      -2332.836       186.6401
       365.9946       1707.153       27.86719      -1067.322       2053.488
       1124.736       2533.712       2761.958      -1218.594      -695.4710
      -16.13409       163.2180       70.97009      -1198.155       1209.051
       339.7798      -1713.264      -1185.522       1025.443       3942.083
       2366.121      -770.9263      -2173.023      -1220.316      -668.8230
       998.3684      -169.3867      -4530.589      -1176.124       2304.293
      -105.6060       628.8740       774.7339       1496.172       3403.333
       1919.043       2820.932       1001.767      -3980.923      -1388.362
       2968.385      -767.9521      -2236.847       1436.079       1948.644
       85.66504      -3331.583      -2372.589       1702.435       1796.968
      -704.8709       53.68677      -32.62109      -693.0811       4266.227
       4192.857       1076.921      -567.2729      -2116.721      -1347.588
      -299.5469      -182.2361      -1628.948       423.5195       2215.812
       609.8193       3578.384       3280.865      -950.6359      -57.14819
       327.5186      -2998.853      -3262.848      -2211.898      -4267.045
      -517.7842       3314.623       2541.873       3242.889       2718.526
       1538.994      -186.5127      -2491.080      -1056.387       177.2456
      -3208.101      -1360.850       1002.768      -130.0204       88.25757
       724.2837       1093.861       2589.914       3416.774      -835.3710
      -251.3228      -1049.493      -5227.998      -719.0752       3553.147
       2541.276      -362.7617      -2365.780      -1244.520       1138.479
       1857.193      -889.9067      -3354.951      -397.6768       3004.258
      -1831.646      -1221.990       1134.652      -2242.092      -1516.659
      -5.985168      -18.70886      -976.9609       53.27686       2369.921
       671.5869      -2419.943      -2165.073      -1418.867       2215.588
       3074.761      -331.0381      -2626.527      -6749.877      -5350.967
      -2365.914      -2099.299       2043.624       4539.565       2820.294
      -204.7705      -1394.008       809.7325       686.7189      -290.0461
      -408.0034       172.7959      -2498.295      -4474.544       1983.365
       3017.313      -379.7959       2052.858       1075.694      -2037.370
      -1324.695       904.3771       909.7007      -884.1592      -1886.449
      -2138.833      -1196.776      -1793.226      -841.0867       1456.433
      -860.9883      -5180.189      -3396.983       2936.882       4471.543
       3732.625       1347.746      -1074.580      -188.6416      -2342.633
      -2398.811       489.9209       1899.594       2415.623      -2181.300
      -5350.382      -1637.006       1210.542       2139.033       2868.969
       2825.673       1548.670       1942.051       2378.605      -2271.776
      -4075.143      -3566.948      -1910.529       905.8951       1106.845
      -1385.209      -2791.109      -2391.662      -1126.583       2093.994
       2895.008       2505.208       1348.925      -1047.168      -279.4414
      -3306.362      -5925.907      -1726.071       961.8418       881.4287
       2272.461       3003.144       1981.145       2630.847       915.3689
       791.5137      -858.9746      -4430.163      -1310.186      -360.3330
      -107.0664       2522.107       1897.571      -1198.643      -3542.879
      -2903.531      -1705.811      -1772.553      -2687.118      -725.0742
       4915.545       7271.700       6092.547       2622.402       2742.799
       5489.938       5866.182       3817.607      -416.2852      -5471.000
      -11420.86      -10488.77      -6768.881      -4131.284      -607.2671
      -2166.983      -2702.833       1795.271       1440.642      -2031.048
      -1777.870      -4293.555      -3793.897       702.1504       3686.014
       4811.723       3690.390      -126.8357      -2330.186       987.5117
       2089.428       5142.681       5850.745       1520.273       5741.906
       7987.700       5265.117       4105.198       2321.246       4384.736
       9248.594       8316.936       619.1055      -6134.344      -6993.570
      -6177.926      -7248.213      -5925.369      -6795.080      -7995.594
      -2325.752      -1143.727      -2099.480      -2842.902      -7285.516
      -7707.453      -7755.260      -10079.32      -11317.96      -12515.31
      -10000.63       2518.500       29596.09       61502.72       83742.64
       79412.84       48746.27       26341.05       32725.42       52575.52
       49363.54       16723.53      -18038.50      -48494.25      -67507.20
      -55543.19      -27661.06      -22782.86      -39819.88      -61622.94
      -63985.16      -39059.85      -22701.07      -27053.97      -19569.78
      -560.2266       12685.06       40842.23       57698.67       41239.17
       25360.87      -1020.938      -48595.81      -82507.70      -67379.39
      -23653.06       19874.06       80350.88       113307.9       82272.69
       37079.42       17679.72       11722.61      -11590.73      -39951.58
      -53753.03      -54904.69      -58903.73      -74719.41      -65092.02
      -13966.70       24746.61       37230.14       49422.30       45678.51
       19448.79       4021.285       8401.082       9946.614       522.0488
      -6805.308       274.1660       4521.850       2928.174       11960.12
       4700.406      -21641.20      -22357.48      -4699.207       12584.18
       21878.11       14736.44       6322.645      -11573.55      -33911.43
      -36877.25      -29515.14      -13625.15       18259.51       29541.38
       13299.86      -7583.234      -23510.94      -19125.48       12602.72
       57311.84       81452.14       65950.48       30596.70       10880.80
      -18937.41      -63833.84      -89565.53      -89540.81      -57880.41
      -23267.18      -3855.273       12888.87       36438.80       42983.91
       31549.26       30717.39       30592.94       31980.40       22476.83
      -5470.438      -20755.93      -14642.23      -11360.50      -15931.62
      -13688.57      -11633.41      -3510.062       13092.04       23781.93
       24950.38       15279.23      -5283.445      -24150.21      -28401.79
      -24494.02      -18588.40      -15422.89      -6857.859       2245.156
       6239.797       14378.71       18473.89       16746.98       2186.299
      -12867.33       790.0117       19994.51       22947.36       23586.91
       3282.727      -26668.97      -36094.22      -35879.48      -31032.48
      -10181.63       19644.34       27190.58       17734.27       11809.40
       8746.863       10015.89       11791.86       6010.179       1714.650
       10146.89       5002.629      -14635.42      -29029.67      -36035.06
      -21157.02       4443.918       9122.182       3954.609       6215.795
       7236.312       12674.69       18465.53       19056.54       11641.62
      -7487.254      -14231.73      -4363.704       3593.990      -2755.668
      -14716.13      -15548.47      -13478.59      -12340.94      -7533.152
      -5063.109      -1638.748       2912.262       9942.770       18802.00
       13758.49       3055.375       2651.900       8601.791       10311.95
       7407.234      -852.8438      -12050.83      -11196.91      -47.09766
       10295.81       12942.98       6786.151      -452.7998      -4424.798
      -7428.981      -1369.709       8163.747       5951.151       2117.699
       6000.379       5839.294      -183.9844      -8215.965      -18251.88
      -26933.34      -28513.62      -27093.42      -21427.68      -8662.311
      -1886.648       7365.250       25135.82       35961.06       39352.81
       32704.82       19368.11       7978.816      -1059.344      -9466.613
      -21023.02      -18367.00      -14185.75      -16943.52      -12877.44
      -9578.066      -9183.290      -4046.250       10766.83       19549.35
       15468.74       8638.896      -3108.605      -13787.54      -12680.72
      -8876.705      -4362.449       1845.859       12898.33       13745.70
       3064.295      -1281.298      -1120.523       3798.988       7833.164
       4883.982       4592.297       6448.537      -3940.246      -11354.75
      -6770.019      -3459.422       2823.498       4579.756      -1349.456
      -4050.277      -2731.868      -662.9688      -4910.266      -10354.43
      -12242.88      -8881.643      -3230.187      -4504.908      -3804.684
       5128.000       10163.86       6615.917       1734.201      -2037.568
       1630.234       8706.047       13499.39       11796.24       6302.010
      -2682.445      -8992.629      -3930.362      -1327.279      -611.1533
      -1312.665      -2120.611      -1484.040      -2633.939      -1310.469
      -2173.914      -1799.309       3310.305       7218.340       9662.699
       9622.235       5960.557      -140.9404      -556.0820       4562.488
       5819.039       5596.275       6870.031       1728.531      -12321.98
      -17342.04      -15941.47      -14754.89      -9035.974      -6038.678
      -2891.812       1001.582       218.4619       1808.543       7271.277
       11059.05       15796.96       16355.51       9969.488       4935.311
       3787.709       4226.631      -3734.961      -10449.62      -9680.740
      -7694.837      -3248.882       3143.465       11974.77       10533.52
       2593.546       2798.994      -1494.609      -7484.777      -10257.54
      -14360.56      -9878.172      -515.0889       5508.646       5760.820
       5537.729       5859.396       2476.270       4684.627       8137.250
       9895.406       7117.153      -1300.082      -2669.711      -1371.334
      -872.0885       789.9897      -1373.675      -4585.559      -5731.701
      -5744.796      -4276.003       1851.325       2144.150      -3230.947
      -3701.516      -3271.193       24.02344       6958.201       4094.953
      -5203.695      -4859.271       1002.147       1347.556      -4169.236
      -2385.563       2031.594       1520.174       96.61523      -3038.761
      -2724.438      -854.3457      -740.0938       1204.944       2466.088
      -347.3652       2577.270       8503.732       9165.322      -549.1562
      -9421.238      -8706.286      -6644.057      -911.7637       5090.725
       8777.687       5024.205       2812.250       7226.739       3334.596
       1019.332       6577.840       6789.731      -14.09766      -5956.508
      -8251.289      -11695.04      -16824.75      -15397.01      -5848.361
