     0.02500000      -165083.9       169707.5      -12345.00      -12345.00
      -30.00004       216.3999      -17.80000      -12345.00      -12345.00
       0.000000       13.42000      -12345.00      -12345.00      -12345.00
      -12345.00      -12345.00      -12345.00      -12345.00      -12345.00
      -12345.00      -12345.00      -12345.00      -12345.00      -12345.00
      -12345.00      -12345.00      -12345.00      -12345.00      -12345.00
      -12345.00      -31.02070      -68.74750       1316.000       0.000000
      -31.59500      -68.73200       0.000000       105100.0       0.000000
      -12345.00      -12345.00      -12345.00      -12345.00      -12345.00
      -12345.00      -12345.00      -12345.00      -12345.00      -12345.00
       63.69256       358.6689       178.6769      0.5726707      -12345.00
      -12345.00      0.1517537       0.000000       0.000000      -12345.00
      -12345.00      -12345.00      -12345.00      -12345.00      -12345.00
      -12345.00      -12345.00      -12345.00      -12345.00      -12345.00
      2008        13        10        50        45
       200         6    -12345    -12345      9857
    -12345    -12345    -12345    -12345    -12345
         1         7        13    -12345    -12345
    -12345    -12345    -12345    -12345    -12345
    -12345    -12345    -12345    -12345    -12345
    -12345    -12345    -12345    -12345    -12345
         1         1         1         1         1
TALA    -12345          
        -12345  -12345  
-12345  -12345  -12345  
-12345  -12345  -12345  
-12345  -12345  -12345  
-12345  -12345  -12345  
-12345  -12345  BHZ     
ZL      -12345  -12345  
[...]
       323.8353       314.8752       307.6181       300.8329       296.9654
       289.2684       283.6299       275.6935       267.1884       253.7784
       241.7445       233.2919       226.1075       217.0438       210.8210
       203.3453       195.6808       184.4189       174.5949       168.3665
       161.7683       150.9727       140.7281       130.1968       117.6225
       109.4883       102.9818       95.99808       92.40628       85.74312
       76.96411       68.73558       63.04063       54.36348       47.59842
       40.37451       32.77879       21.71033       13.92735       2.184834
      -7.476414      -17.02179      -23.09634      -29.58674      -36.89955
      -48.52986      -53.94728      -59.69028      -64.27777      -72.41623
      -77.36514      -85.75818      -89.11978      -93.51431      -98.86066
      -102.6006      -107.1540      -112.6117      -114.3512      -120.3274
      -122.4872      -125.5621      -132.5219      -135.6407      -137.6945
      -145.1694      -147.2795      -149.0077      -151.2869      -157.9600
      -162.5391      -168.3845      -173.7524      -176.8500      -181.0071
      -185.4366      -191.3979      -195.1522      -198.7467      -201.9148
      -206.4361      -214.1221      -220.7175      -228.2625      -233.2776
      -235.0797      -238.5577      -244.9316      -247.1878      -253.0105
      -256.6619      -258.7758      -261.5828      -266.9723      -269.1270
      -272.9317      -272.1510      -273.6343      -278.1259      -279.8308
      -278.2960      -282.4467      -284.1805      -284.5076      -282.0646
      -286.8245      -286.3284      -283.3163      -283.8430      -288.3563
      -288.3566      -290.8220      -290.5182      -292.5590      -292.8412
      -295.3163      -297.4590      -302.3329      -301.5116      -301.3784
      -300.2329      -304.2483      -301.8196      -301.5043      -299.1309
      -296.0861      -293.3403      -295.0373      -291.2130      -289.4706
      -286.5478      -286.9354      -280.7716      -279.4038      -276.1682
      -272.7942      -267.4517      -260.4711      -253.5245      -250.0403
      -245.0670      -239.1636      -230.1044      -222.7241      -213.1216
      -207.0128      -200.5151      -193.3268      -185.8372      -178.7485
      -171.5244      -166.3514      -153.0300      -141.4593      -134.7627
      -126.7003      -115.1062      -105.8226      -93.17720      -81.11554
      -65.61296      -54.05345      -45.34869      -35.66870      -22.01147
      -11.65112       1.915344       11.65274       24.88708       37.22195
       51.70619       59.29596       71.36497       80.57388       91.64880
       99.25635       116.5816       126.8744       138.1570       146.4191
       155.5239       162.5610       176.7659       184.5850       192.0157
       196.0697       202.6095       206.6717       214.3364       217.2577
       222.2617       222.0151       227.9945       224.8932       228.8679
       227.8840       225.9551       220.5828       222.9443       216.7343
       216.0821       210.9900       210.7107       203.3367       200.6608
       192.8521       186.3265       175.3845       169.2310       156.5795
       150.4062       142.2038       134.7841       126.1725       121.4789
       109.0351       101.8358       89.67593       80.00455       68.32309
       62.91071       48.32431       42.14666       36.05821       29.24852
       11.35433       7.882736      -3.617058      -9.252892      -22.89751
      -27.07118      -40.22406      -42.65378      -57.68073      -64.43336
      -74.36890      -77.04141      -89.96057      -89.86841      -100.9757
      -105.2316      -115.9467      -119.0395      -129.5329      -133.0682
      -149.8687      -150.4086      -156.0301      -160.0977      -172.5774
      -171.6772      -183.7477      -182.2338      -194.7916      -197.3246
      -202.8281      -200.4539      -211.4205      -211.8863      -220.3098
      -219.0049      -231.9108      -229.6932      -232.6744      -230.5258
      -240.5002      -236.7592      -235.8912      -228.7042      -240.8111
      -237.8362      -236.3389      -230.9740      -237.2164      -227.6817
      -228.4207      -224.1752      -231.1088      -223.3970      -220.9581
      -211.8796      -220.1978      -209.3886      -195.4706      -189.6954
      -290.2412      -584.4307      -1285.070      -3631.984      -6720.582
      -6882.217      -7305.379      -8675.307      -3530.078       7638.199
       11801.47       8889.988       11329.05       11273.81       2826.117
      -5921.668      -8657.156      -6933.524      -4936.579      -3237.420
      -1477.939      -433.8540      -426.4419       1967.716       2012.678
       3738.033       4641.630       430.7021       2661.588       3793.228
      -1858.259      -3164.018      -3465.625      -4522.694      -322.9023
       2706.376       3817.221       6940.473       6510.501      -415.9746
      -6880.602      -7096.616      -3345.795      -2327.249      -1893.894
       868.6416       1869.468       3901.332       6494.582       5336.275
       4615.971       5410.324      -353.1836      -6135.582      -5812.990
      -6681.723      -3578.938       2763.467       3052.969       2541.928
       1958.857      -813.8645      -263.1670       1390.635       710.9152
      -88.76465      -1291.146      -908.3323       1009.180       594.0869
       3063.188       6198.060       2646.056       1524.657       1330.139
      -2937.546      -2001.397      -188.0610      -2868.778      -531.3203
       2743.922       335.2095      -1854.238      -1124.299      -1054.429
      -1762.069       249.0513       1765.882       3538.621       6168.776
       4181.758      -1503.287      -3689.552       150.3899       740.8250
      -496.6367       3200.124       2676.541      -2694.734      -4777.895
      -6056.254      -3584.666       1777.101       3315.216       3685.410
       5023.622       4509.554       763.8021      -681.3707       1040.804
      -1098.879      -3468.668      -1752.787      -59.26758       1829.124
       4165.102       4218.078       1939.975      -1373.009      -3066.882
      -1101.963       484.5786      -2064.719      -3198.409      -2114.933
      -2044.152      -720.6211       3246.559       5359.041       6275.826
       6374.386      -160.8242      -6075.598      -5459.617      -3013.272
      -388.9648       1528.772       2486.552       1283.703      -500.5898
      -1813.949      -2710.160      -2575.021      -2460.012       87.93164
       4224.409       3141.069       645.3652      -191.9619      -2382.195
      -2506.408      -1684.944      -516.7793       2088.791       2344.350
       1134.523       64.91528       651.9961       2109.554       372.0256
      -1027.321      -295.6631      -1973.876      -3003.828      -2270.643
      -1867.135      -430.0654       2197.162       4211.563       2826.389
      -734.9863      -2209.810      -2529.192      -1625.450       532.1047
       779.6034       154.7563       833.0858       607.4119      -979.3279
      -235.8220       1417.210      -56.03418      -1687.768      -1173.514
      -717.2211      -678.6702      -398.8430      -232.2300       1545.036
       2041.722       186.2008       404.9500       149.0845      -1879.175
      -2414.367      -1191.828       1525.991       1868.538       63.98669
       215.8470       1048.508      -69.77979      -1317.948      -2687.009
      -3201.138      -1916.331      -747.0391      -745.5498      -2693.257
      -1655.648       2417.938       4280.951       5046.390       3198.642
      -1071.972      -2016.549      -1775.366      -3340.112      -2536.549
       529.5068       1026.935      -1688.758      -1720.291      -461.8018
      -959.1992      -508.7859      -432.1418      -869.7764       1516.721
       2144.927      -57.69299      -449.0963       706.2358       1050.359
       1045.887      -243.0054      -2256.438      -2623.091      -1039.233
       1137.455       955.8281       1785.094       2761.482      -1305.815
      -3375.155      -607.7642       4.931885      -347.7036       2788.488
       2552.870      -1776.696      -1962.676      -174.0625      -1344.052
      -1717.392       549.4336       2217.144       1855.788       2457.737
       2616.599       240.8843      -472.3867      -1280.539      -2694.491
      -2493.322      -4394.639      -4467.209      -265.9229       3019.211
       2197.802      -66.00098       458.5703       2558.052      -225.0664
      -2979.643      -1317.277      -484.9966       631.3867       1444.466
       1153.351       2316.715       4310.222       3892.103      -643.0078
      -3052.720      -1071.259      -699.6387      -3015.195      -2864.331
      -3043.734      -4390.441      -328.6465       3165.653       1058.695
       349.2861       515.2889      -464.1148      -264.4263       197.6030
       558.3711       1147.815       762.7539       1418.021       618.1237
      -972.6946       538.8364       58.91113      -4262.406      -5098.826
      -2603.269      -3557.854      -1621.647       4774.354       4256.584
       3864.387       7247.097       3531.330      -2119.701      -1342.480
      -514.7837      -1807.912      -876.5864      -846.5117      -5521.001
      -6444.963      -1866.641       310.0527       2763.180       6325.646
       5038.955       173.0469      -2004.825      -1701.197      -3339.286
      -3611.016      -1141.947       1957.136       2226.253       1003.629
       2368.027       3148.123       763.7422      -1046.024      -1676.735
      -1296.376      -1590.930      -3996.320      -1824.527       1586.704
       440.2352       462.2494       246.3839      -452.3224       886.7280
       49.08521      -1300.322       1181.608       2663.399       1417.446
      -252.6112      -803.2064       138.9539       622.8628       1414.163
       2209.630       894.4668      -951.1943      -2803.426      -2491.017
      -1930.938      -4084.737      -1593.588       3415.344       1533.385
       1218.313       4735.533       3382.697      -751.3949      -1191.298
       1132.403      -137.3108      -1472.168       2257.249       1928.267
      -698.6558       1032.676       663.0903      -1833.006      -1477.906
      -443.7631       41.23242      -1147.235      -2925.624      -1947.071
      -1268.604      -988.5391       2155.605       4128.272       3878.703
       4348.271       4465.164       1788.324      -1338.941      -3219.913
      -2678.417      -1032.477      -862.7769      -1497.649      -666.2114
       54.62732       71.76758       727.7148       1807.258       3934.494
       5015.999       2214.799      -1470.158      -3746.071      -3051.473
      -724.7121       6.962891       1488.174       3914.186       2559.808
       1266.206       2951.853       2386.586      -3321.955      -5387.699
      -1694.390      -1363.785      -2792.738      -206.6436       2390.555
       1640.125       100.0061       324.0337       1086.788       1452.517
       4017.295       4931.794       795.5823      -1249.096      -969.5398
      -1405.896       727.3076       3073.304       2195.940       586.7461
      -857.1523      -249.3777       1039.071       1161.746       140.2249
      -66.04712      -577.7510      -2460.706      -2166.629      -108.7690
       1885.336       1274.216      -1976.370      -2250.343      -384.6250
       3633.521       4517.209      -1649.021      -3789.843      -851.8208
       282.7236       2242.125       2530.727      -753.1963      -1778.385
      -526.6140      -577.0874       1328.262       3510.391       3739.485
       2436.559      -1688.182      -4130.865      -3190.619      -2103.823
      -33.25284       107.6339      -572.8477       1873.393       4759.643
       5353.122       4598.303       4988.938       4587.970       790.9053
      -1950.594      -4741.332      -8195.564      -7943.298      -5509.533
      -3060.510      -1522.990      -3953.428      -7575.945      -11465.54
      -13937.97      -8466.781       2127.994       8066.797       12114.24
       16632.88       15587.42       7614.799      -3185.180      -10765.06
      -12881.04      -11273.58      -5181.495       3659.230       10438.05
       13647.35       11009.04       2944.017      -402.4561      -1263.247
      -1907.155      -1243.132       1349.885       7494.496       11577.98
       11396.11       3743.820      -9574.082      -17913.90      -18780.82
      -13740.38      -6018.747      -1526.340       90.59766       2993.137
       4179.719       6494.252       10404.84       9121.510      -1103.508
      -22262.86      -48742.16      -69162.00      -76869.11      -69481.39
      -46766.64      -8190.281       40110.16       92336.69       142269.9
       169707.5       149919.8       78540.92      -23352.81      -118111.0
      -165083.9      -140373.1      -57638.34       39792.41       107548.2
       117948.3       67205.99      -11094.89      -57517.51      -49598.61
      -27567.71      -24496.73      -33033.58      -38307.70      -32650.57
      -19955.49      -10698.29      -3352.072       910.1392       145.1992
       7004.078       33717.23       65852.36       77743.44       56450.28
       14296.00      -16939.88      -38513.75      -58373.55      -58137.38
      -36214.68      -9008.160       6658.273       11946.69       15233.24
       11350.05      -3262.750      -3252.180       22198.44       43183.73
       44760.61       35269.81       14604.52      -16579.22      -37583.03
      -33453.04      -13271.77       6890.413       6316.465      -9650.180
      -15301.99      -14669.17      -15036.58      -6443.152       7550.051
       15663.08       12645.45       1720.594      -12342.43      -21892.34
      -21847.39      -14818.37      -3334.391       7461.047       13008.91
       11533.11       4647.852       6167.477       13441.72       10502.01
      -1148.426      -6738.338       4350.141       24800.31       43105.83
       51532.00       43541.02       20899.43      -14893.67      -51270.62
      -74606.56      -82278.64      -71744.52      -45371.82      -15197.58
       7493.391       28264.47       50444.98       58740.72       48439.66
       28043.45       11018.12      -77.42578      -14087.81      -23491.96
      -20835.40      -13376.49      -938.2891       13486.68       22684.22
       19618.71       3722.574      -15080.66      -29464.30      -32896.09
      -23720.41      -6780.414       12900.56       28937.23       36722.12
       32470.42       18447.79       4143.591      -2555.869      -1424.108
       2596.433       437.1523      -14809.50      -34784.28      -41887.55
      -34385.75      -22154.28      -10939.44       988.6172       10420.14
       13624.78       14254.71       16684.49       17005.57       10024.70
       3118.194       3135.078       6338.875       9094.410       11243.93
       13006.62       16484.01       20670.53       14844.78      -159.9062
      -17982.78      -33210.30      -32981.13      -20318.17      -11998.52
      -5970.137       3391.062       13190.50       22185.48       22740.18
       10326.94      -6824.016      -15320.16      -11341.92      -5634.085
       321.6768       4971.953       4258.264       4138.623       6367.109
       5670.967       236.6641      -7958.070      -11451.98      -4056.410
       9729.203       14716.84       9216.012       2798.270      -5293.582
      -13296.95      -14477.19      -9585.493      -2779.618      -430.3188
      -1811.701      -448.1855       2044.674       2657.930       3797.039
       6074.439       6752.941       5618.688       3018.160      -2127.875
      -4775.867       781.7070       11695.82       14866.37       7279.871
      -4050.844      -9140.527      -7399.508      -9223.406      -14445.63
      -16671.82      -13175.62      -5687.594       1874.293       8372.113
       14285.92       18642.61       17451.74       10403.85       1554.273
      -3050.035      -5382.777      -8402.910      -10979.08      -12067.73
      -8649.403      -4909.896      -2556.842       2662.270       6384.965
       6369.029       3760.896       164.4219      -1882.616      -1656.533
       1188.059       5225.701       9214.273       11981.00       8646.943
       1610.281      -3629.383      -5699.359      -8236.508      -12533.06
      -9270.156      -99.03906       4897.693       8390.355       8534.891
       6123.686       4407.233      -897.3066      -5794.662      -7546.889
      -10368.08      -9989.487      -2351.174       5999.230       8079.821
       6363.688       2608.224      -2727.014      -4950.383      -5143.715
      -5768.729      -6976.820      -11271.35      -11403.41      -3125.051
       5762.488       11207.18       11782.60       10038.09       10638.77
       9089.104       4950.592       1347.883      -3732.227      -8545.441
      -9122.523      -7769.668      -4028.466       1510.191       3244.721
       3337.429       5695.243       4327.298      -2115.438      -9394.281
      -14186.20      -10934.73      -125.8047       8088.865       6587.177
       612.9369      -1276.782       536.1895       2024.552       1824.266
       1516.759       3059.406       6083.357       6643.340       6949.426
       7591.964       3509.062      -3479.400      -7546.965      -5290.492
      -1906.924      -4507.361      -7989.959      -7127.545      -4243.687
       119.6445       4158.141       8643.680       14207.98       13424.48
       9546.271       5714.571      -422.1260      -4719.623      -5147.305
      -4399.423      -3731.172      -3315.662      -4162.251      -4668.600
      -1610.003       2702.922       4975.297       4055.388       1298.701
       114.5254      -1849.684      -6855.016      -10706.86      -9922.129
      -3178.450       3119.607       5114.961       5276.906       5289.908
       4565.194       1603.835      -649.8535      -3624.885      -6755.967
      -4457.548      -574.5059       538.7246      -2796.102      -6569.638
      -3797.723       3163.129       5795.782       2990.696       232.0601
      -1931.924      -3023.557      -592.6265      -418.0515      -1457.039
       3934.809       10522.36       13421.20       12566.95       7869.382
       517.7012      -8177.855      -12277.94      -11286.52      -7833.923
