     0.02500000      -127311.9       117112.8      -12345.00      -12345.00
      -30.00004       216.3999      -17.80000      -12345.00      -12345.00
       0.000000       13.42000      -12345.00      -12345.00      -12345.00
      -12345.00      -12345.00      -12345.00      -12345.00      -12345.00
      -12345.00      -12345.00      -12345.00      -12345.00      -12345.00
      -12345.00      -12345.00      -12345.00      -12345.00      -12345.00
      -12345.00      -31.02070      -68.74750       1316.000       0.000000
      -31.59500      -68.73200       0.000000       105100.0       0.000000
      -12345.00      -12345.00      -12345.00      -12345.00      -12345.00
      -12345.00      -12345.00      -12345.00      -12345.00      -12345.00
       63.69256       358.6689       178.6769      0.5726707      -12345.00
      -12345.00    -0.06544745       90.00000       90.00000      -12345.00
      -12345.00      -12345.00      -12345.00      -12345.00      -12345.00
      -12345.00      -12345.00      -12345.00      -12345.00      -12345.00
      2008        13        10        50        45
       200         6    -12345    -12345      9857
    -12345    -12345    -12345    -12345    -12345
         1         7        13    -12345    -12345
    -12345    -12345    -12345    -12345    -12345
    -12345    -12345    -12345    -12345    -12345
    -12345    -12345    -12345    -12345    -12345
         1         1         1         1         1
TALA    -12345          
        -12345  -12345  
-12345  -12345  -12345  
-12345  -12345  -12345  
-12345  -12345  -12345  
-12345  -12345  -12345  
-12345  -12345  BHE     
ZL      -12345  -12345  
[...]
       143.6459       108.6662       141.6951       110.8781       145.5871
       109.9968       142.9925       114.3977       140.7574       110.1099
       147.2859       113.9502       153.9060       119.5570       157.6851
       126.5211       160.2450       131.9844       174.0803       141.4855
       182.0578       150.4453       192.4019       161.2013       196.7771
       165.7593       205.4551       172.4611       214.6833       182.5472
       225.3264       191.2331       231.9512       200.8624       240.0582
       203.3266       242.3447       214.9877       261.1158       226.8814
       264.5612       231.6042       270.7263       239.2464       277.7009
       243.2562       285.9591       247.2676       283.7606       246.9889
       283.2867       245.1381       281.4545       238.3785       272.8295
       231.1692       267.8750       226.3207       261.0140       219.0729
       253.4018       210.7646       245.8148       201.6417       235.8776
       194.0747       228.5012       185.0735       219.4879       178.0490
       213.2697       168.6620       201.4445       158.0912       192.4344
       150.7932       186.2437       141.1709       172.4822       129.4062
       163.0457       116.5379       149.9952       108.7887       139.7340
       93.99927       130.8531       86.72253       115.2230       70.08960
       106.0362       61.84438       93.16396       47.88918       82.29260
       36.34630       66.41043       18.81443       53.05190       6.635796
       35.26675      -13.17548       22.19431      -26.29724       6.044518
      -45.95239      -10.62808      -57.68481      -22.29680      -76.28868
      -40.44685      -86.01830      -48.23212      -100.7013      -62.79459
      -114.2189      -81.00955      -135.1289      -94.69601      -143.1766
      -108.2835      -159.3429      -121.9304      -174.5408      -139.8980
      -191.0820      -151.4667      -199.6278      -163.4969      -218.9562
      -181.1201      -237.5353      -204.1333      -254.4890      -218.9414
      -275.4153      -241.5123      -296.4110      -258.0510      -311.5881
      -275.8750      -329.3232      -294.9060      -349.0231      -314.6562
      -374.4401      -340.4598      -393.5972      -358.2715      -417.6687
      -383.5017      -437.4792      -396.5916      -450.8323      -412.4565
      -467.5586      -429.3491      -482.5898      -445.5892      -500.2559
      -461.7753      -514.5059      -473.6608      -523.6569      -477.7605
      -529.3773      -485.5425      -535.2109      -488.1189      -536.8193
      -493.3340      -541.2029      -493.0414      -540.9609      -492.4409
      -539.9275      -486.9841      -532.2780      -483.9922      -527.0388
      -472.3539      -518.3687      -469.4180      -515.7324      -464.1621
      -506.4163      -452.2427      -493.3739      -437.2612      -481.2164
      -425.5665      -465.9312      -409.8630      -451.7849      -397.4226
      -440.7126      -380.1499      -412.3130      -353.0864      -394.4163
      -333.4126      -370.6833      -310.8654      -348.1495      -284.9531
      -323.0278      -261.8438      -298.9266      -235.9677      -272.6207
      -210.7866      -253.0536      -189.6871      -226.0630      -161.6825
      -201.8997      -140.7148      -180.4731      -115.0712      -159.7244
      -94.42804      -131.2928      -68.31918      -110.2350      -47.63354
      -90.75465      -24.82130      -71.33466      -15.62884      -53.75336
       14.12210      -29.70003       34.57717      -9.945328       49.74524
       1.987747       63.73541       23.32129       85.95837       38.45485
       100.4370       54.26050       115.7538       67.62323       124.4983
       82.57843       150.8499       107.7140       168.8132       123.6956
       182.1984       137.1895       199.2029       158.4773       219.8302
       174.7606       233.3909       190.8052       254.1289       208.3447
       266.8332       220.0024       281.2719       235.9539       295.1614
       248.9460       310.7063       259.3964       319.2885       269.6331
       333.7400       283.6990       340.8351       288.5223       355.7091
       308.7815       373.9089       320.4105       380.2551       325.2268
       391.4948       340.9274       402.5859       352.3480       420.4415
       335.5062       283.9441      -38.79639      -910.5898      -2718.392
      -3628.091      -4961.970      -5881.145      -3006.730       2426.389
       8022.852       11828.16       14526.34       12607.11       6525.637
       764.0312      -8080.332      -9517.979      -4064.111      -3801.830
      -6634.773      -3179.044       4672.911       4249.644      -842.8843
       2338.065       4180.621      -364.2686      -1440.610      -1981.025
       182.4824       5523.799       683.6694      -2428.215      -3824.576
      -6740.625       2395.744       6655.438       1695.821       335.4412
      -278.7349       2033.392       4018.532       3047.064      -273.0723
      -5357.480      -2187.103       5919.723       3732.298      -2084.272
      -141.9863       4435.513       2627.310      -1007.815      -2996.876
      -3760.292      -2122.751      -1575.571      -1310.457      -2136.455
      -2837.180       3253.998       4439.291       1633.055       2387.342
       4943.217       4052.824      -1550.229      -2950.322      -1926.521
      -536.8516       1670.995       2163.634       1437.885      -1352.493
      -2365.418       370.7405       1896.996       20.02051      -991.9170
      -1851.325       838.7961       1583.256      -1572.022      -482.9658
       1583.024       1116.700       446.2617       3117.225       3499.007
      -1642.743      -2518.679      -2565.755      -2304.279       1682.305
       1794.380      -1575.258      -1079.340      -1051.420       767.3154
       2047.114       1224.332       5551.860       6294.736      -656.4375
      -3820.379      -4428.312      -5469.047      -4284.479      -5026.112
      -5367.480      -949.3867       2893.793       7318.041       8019.133
       2208.428       3723.701       6409.934      -2922.631      -7524.236
      -4184.027      -2741.745      -3377.836      -3691.772      -4435.478
      -3218.167       1243.619       4146.754       6181.191       8951.718
       2920.501      -5662.579      -2415.096      -250.3945      -3472.188
      -1281.399      -3334.045      -6768.181      -3510.814       516.3560
       2569.058       207.2141      -270.8447       4420.657       1410.149
      -817.7910       4097.947       5717.156       161.7993      -2886.167
      -1511.574      -4040.729      -2911.143       3558.444       1919.517
      -1130.296      -872.3091      -2049.148      -1763.779      -3973.263
      -4403.243      -1316.854      -1001.883       3700.352       7751.544
       3400.784      -1757.168      -3369.372      -4169.730      -1952.578
       1109.408       1945.016       488.7283       561.6226       1145.064
      -663.4658      -2428.200      -1520.743       1352.958       2181.254
       772.3528       407.1094      -4158.883      -3782.663      -635.9517
      -3014.110       83.23413       1342.021       770.6943       4552.927
       4706.785       2967.164      -38.23193      -2403.624      -1791.106
      -2715.873      -6465.956      -3566.080       1702.836       3078.408
       2422.764       516.3042       1461.747       2833.575       1185.428
      -915.5430      -4844.509      -2571.434       882.2144      -1393.797
       53.18115      -1570.442      -2834.466       2082.486       3093.929
       4193.032      -143.3477      -6459.555      -2102.623       1406.177
      -814.5830       1671.729       3703.005      -114.9517      -2519.041
      -35.99023       1863.809       566.2546      -403.3472       1061.836
      -610.6143       1911.979       1495.989      -5994.457      -2247.387
       1680.676      -683.8584       971.9259       564.6978      -1549.990
      -1662.661       807.5369       1305.323      -354.3218      -1876.362
      -1144.147       817.7164      -168.4019       556.1777       2534.543
      -514.4561       1158.311       3943.238      -2233.041      -5397.159
      -3614.510      -1965.562       996.4937       2415.922      -1517.691
      -4592.537       1717.226       3256.135      -276.4814       775.0808
       981.8622      -39.40088       388.5806      -1817.981       960.1929
       4238.989      -1096.269       242.2598       1952.520      -3427.163
      -1633.393      -261.5303      -1535.420      -1029.222       503.0693
       2520.616       1127.505      -1755.735      -7.963867      -1400.937
      -4937.168      -1096.076       2438.025       241.5952       1356.705
       2953.722      -1410.558      -1059.163       1405.244      -2739.505
      -1608.276      -312.0712      -727.5850       3249.146       1919.279
      -503.9385       645.0137       1674.177       5872.787       2297.563
      -2099.094       1023.715       1414.883      -551.0654      -4111.824
      -6694.801      -6109.160      -4986.719      -1212.861       2894.051
       5895.336       5722.867       2255.322       1619.246       933.5777
      -314.0293       1180.954      -1988.038      -1776.893       2698.653
      -44.63672      -5390.917      -3975.135       917.5300       756.2500
       2262.492       6208.173       2087.618       140.3149       1882.293
       1078.315      -655.3516      -1915.211      -1314.300      -1311.874
      -714.7188       4670.095       3323.607      -2904.017      -4885.339
      -3198.359       145.9771       2243.997       3583.457       3523.688
      -1.648926      -2131.257      -973.9170      -1821.290      -3000.552
      -792.3740       3192.517       4572.373       1182.852       598.6650
       75.11646       130.8876       829.9294      -1178.291      -1931.691
       103.0566       4819.631       6882.086       2335.796      -2579.011
      -2626.817       2178.054       4099.268      -2054.717      -5945.632
      -381.4912      -1084.368      -2005.028       3409.125      -594.3672
      -6286.390      -4220.167       1835.299       4903.252      -958.3872
      -3449.838       478.5752       2912.189       5476.244       5695.664
       3259.873       2662.477      -864.8582      -361.0200       2478.340
      -2907.822      -7994.418      -3351.709      -2374.225      -3047.251
       2183.167       5232.469       5553.127       5220.156       4406.765
       2588.104      -1139.148      -3355.295      -3954.509      -5387.197
      -2956.351       746.5349       337.2302      -155.5342      -1295.790
      -467.5068       899.7422       1901.448       621.6787      -3101.747
       847.5410       5872.650       1445.102      -716.6895      -2741.189
      -2774.271       1269.925       1744.466       2789.964       4734.146
       3675.337       225.0398       439.9761       1747.726      -298.6016
      -1305.627      -3651.647      -3066.207       1302.403       989.0342
      -1981.998      -2360.087      -3167.326      -2090.078      -142.5933
       1023.182       1831.556      -50.87500      -1643.125       476.1079
       2068.479       1821.841       2280.618       2931.955       3048.944
       800.7266      -4502.779      -4910.002      -2672.965      -1957.987
      -2167.250       460.7148       5103.055       3698.871       3809.240
       5630.728       213.1153      -360.2278       1565.090      -2603.478
      -3884.496      -772.0117      -161.0707      -488.8799       65.03418
       1113.979       1617.662       326.5073       398.6523       2562.641
      -659.8721      -3497.606      -1904.737      -836.6216      -21.41553
      -404.5439      -3793.219      -5497.413      -110.2451       3999.736
       3871.975       7336.805       7559.178       5802.076       2581.397
      -1850.660      -4430.172      -6545.664      -8412.594      -12289.74
      -11563.54      -6220.141      -4155.556      -1767.867      -3147.543
      -5390.375      -1820.820       2847.287       7000.789       10673.41
       11198.26       10552.72       9690.451       4898.063      -2325.824
      -5829.468      -6228.657      -1592.861       6182.840       11491.21
       10754.32       3226.354      -865.1572      -1025.656      -3306.686
      -3834.965      -6768.590      -10083.51      -5720.045      -551.3129
       465.6377      -1012.245      -5290.867      -5460.928      -4802.849
      -4892.430      -5493.816      -9815.354      -9239.814      -4703.406
       1560.641       10706.21       14788.92       17981.00       19826.57
       18259.50       22341.04       28513.78       28215.37       22032.67
       7150.922      -14287.47      -42264.42      -74420.00      -103901.6
      -126870.5      -127311.9      -88470.09      -16207.03       59309.44
       104855.4       117112.8       103864.1       73461.71       32213.96
      -14892.89      -38323.94      -7155.055       37823.72       38287.31
       29265.77       8990.469      -69735.16      -114721.5      -55946.05
       21505.56       56129.25       63882.19       65584.73       48103.64
      -10262.27      -40976.34      -7134.078      -4549.594      -58532.31
      -94209.61      -85835.83      -22248.83       66848.50       97848.52
       66527.98       19176.48      -15088.62      -35924.78      -41954.76
      -22314.25       14205.36       54379.85       48486.61       15627.79
       2323.945      -23440.12      -49500.16      -41236.97      -17637.61
      -13993.86       765.2500       41107.89       50581.09       31368.36
       7743.500      -14883.58      -23415.93      -12574.68      -12921.79
      -17676.27      -3204.721       3572.848       8207.469       20310.12
       21014.37       2071.820      -23834.48      -35366.47      -8746.953
       36440.56       56299.92       64750.59       52799.65       2124.219
      -55928.17      -80387.28      -62323.04      -24532.39       2582.325
       1703.750      -7806.504      -10731.49      -5484.906       13949.20
       28410.89       34363.84       45179.15       47420.04       30248.87
       2731.609      -20732.38      -38686.47      -53019.73      -59009.20
      -49984.47      -22042.95       8378.445       30305.64       46873.28
       51621.59       38412.73       14611.01      -8273.992      -23629.10
      -28403.41      -14152.49       2638.330       4638.992       12477.11
       23094.44       18737.94       6973.496      -15787.62      -40246.44
      -49993.27      -48637.22      -30341.47       1014.500       25659.12
       35605.97       27899.20       18590.33       16690.62       19450.57
       23559.45       17117.56       6620.410      -3301.617      -11179.71
      -16992.73      -21901.10      -16944.91      -8187.904      -5994.736
      -3471.965       7042.498       7992.335      -4966.496      -12128.93
      -15065.74      -21829.94      -21264.34      -3542.441       19060.84
       26767.33       29112.34       21807.83      -3764.565      -4503.109
       15622.54       12247.88      -5146.953      -16555.23      -15220.26
      -9529.770      -7929.278      -1068.236       9075.426       10643.18
       8388.850       4524.037      -6140.285      -16238.48      -19063.40
      -10862.50       3686.745       5699.641      -365.0605      -1428.078
      -5190.312      -8012.027      -3930.327      -2319.156       4394.125
       18512.27       26791.83       24307.05       10701.63      -6675.375
      -14461.21      -16339.73      -16068.83      -11614.29      -6188.055
       4013.602       12483.66       9765.416       5975.955       6505.295
       5704.992       2266.320      -2365.547      -3645.265      -1127.212
       143.0864       643.9883      -1666.816       4636.273       11255.38
       3951.380       1518.149       3720.034      -252.4531      -11626.33
      -18900.36      -19699.50      -21052.46      -14535.02      -2521.645
       5604.512       12323.94       20952.30       19897.78       16634.24
       12383.41       3458.084       2946.667       1691.742      -2090.051
      -28.63770       1625.440       1380.547      -757.6377       1872.553
       1510.438      -15937.71      -30119.52      -30691.85      -22961.51
      -7575.352       9118.773       20822.62       19898.68       13048.86
       8825.298       4152.984       1650.698      -1273.431      -1533.725
       3838.582      -258.2500      -7698.463      -9988.273      -12311.85
      -11001.71      -3390.422       7079.023       12734.63       17762.96
       20524.31       14171.76       10318.10       9758.975       8461.924
       3379.854      -5553.219      -9215.766      -7184.549      -6280.172
      -5743.008      -9814.969      -15190.02      -12755.87      -1654.965
       13425.11       18140.23       11851.01      -325.9023      -10138.86
      -10875.18      -6359.583       626.1465       4509.891       1137.844
      -4833.848      -7754.515      -5057.873       4733.605       13047.98
       16650.91       15243.01       9173.400      -2619.180      -13110.57
      -14601.81      -11933.85      -7158.917      -2662.471       463.7313
      -525.0098       447.2441       7099.852       8626.622       5020.037
       403.8086      -3480.372      -4908.637      -6339.402      -4854.280
      -817.8096       1062.254       7504.773       12509.42       9957.884
       4608.584      -2371.587      -4440.859      -6725.145      -14661.25
      -18310.93      -14296.56      -5250.244       3234.160       7580.229
       6663.775       4140.585       4797.088       3424.024       2386.482
       2399.296      -31.81348      -657.2705      -3178.698      -4245.344
      -2194.358      -1820.459      -1582.695      -1598.978       1328.828
       5822.377       6258.237       3051.105       925.1071       1180.611
      -694.7908      -275.4727      -3444.066      -11852.91      -9090.087
      -2132.441       1883.648       6592.285       7229.477       9948.779
       11474.33       3812.391      -1746.746      -6793.645      -12013.97
      -9635.064      -7689.650      -10430.70      -11670.98      -6290.446
      -1369.862      -191.8292       911.8965      -1360.144      -2823.992
      -4365.705      -6484.444      -586.8750       6345.902       12846.12
