     0.02500000      -10394.80       11207.72      -12345.00      -12345.00
      -30.00005       221.6499      -23.20000      -12345.00      -12345.00
       0.000000       17.23000      -12345.00      -12345.00      -12345.00
      -12345.00      -12345.00      -12345.00      -12345.00      -12345.00
      -12345.00      -12345.00      -12345.00      -12345.00      -12345.00
      -12345.00      -12345.00      -12345.00      -12345.00      -12345.00
      -12345.00      -30.65860      -69.43630       2628.000       0.000000
      -31.59500      -68.73200       0.000000       105100.0       0.000000
      -12345.00      -12345.00      -12345.00      -12345.00      -12345.00
      -12345.00      -12345.00      -12345.00      -12345.00      -12345.00
       123.6565       326.9142       147.2764       1.111807      -12345.00
      -12345.00    -0.02242451       0.000000       0.000000      -12345.00
      -12345.00      -12345.00      -12345.00      -12345.00      -12345.00
      -12345.00      -12345.00      -12345.00      -12345.00      -12345.00
      2008        13        10        50        50
       600         6    -12345    -12345     10067
    -12345    -12345    -12345    -12345    -12345
         1         7        13    -12345    -12345
    -12345    -12345    -12345    -12345    -12345
    -12345    -12345    -12345    -12345    -12345
    -12345    -12345    -12345    -12345    -12345
         1         1         1         1         1
TOCO    -12345          
        -12345  -12345  
-12345  -12345  -12345  
-12345  -12345  -12345  
-12345  -12345  -12345  
-12345  -12345  -12345  
-12345  -12345  BHZ     
ZL      -12345  -12345  
[...]
      -2.381974       1.285034       1.902203       6.256481       10.39680
       16.24055       17.20837       24.28237       28.01086       33.97282
       35.44207       40.89175       45.24982       51.61804       55.35458
       62.57092       66.51270       74.34097       78.85852       83.89493
       89.56903       97.74118       98.76410       103.9523       109.8863
       116.9229       123.7187       131.9500       135.6403       143.9525
       147.7057       153.2740       159.3429       164.0465       165.2502
       171.0853       175.2360       179.6913       180.1002       181.9962
       184.8698       188.0800       185.2300       188.5342       191.4158
       192.2704       192.7369       195.2317       196.0487       200.4164
       200.7818       203.7924       205.3639       206.2497       210.3458
       213.4586       213.0961       216.5807       219.0817       219.4619
       223.6111       225.4699       224.8066       226.6734       228.2361
       229.7714       231.8821       231.4497       228.6917       228.9434
       228.2397       229.8394       226.6281       225.3413       223.7329
       221.1726       217.1608       215.4332       213.8339       213.9462
       211.5134       211.9485       209.4857       207.3496       206.4586
       206.6226       205.9869       205.1544       203.2128       202.9377
       199.3401       198.4360       201.9921       202.1111       194.9470
       211.7994       399.3062       675.2217       939.1978       1315.399
       1713.206       1204.841      -9.856689       609.8733       1025.712
      -247.0379       115.2859       254.5542      -907.4072      -1251.535
       248.3872       2189.798       1614.565      -579.1973      -826.8262
      -1198.453      -3750.280      -1836.874       1507.035       1433.082
       1857.818       484.8723      -1588.867       296.5132       1899.449
      -336.6104      -1010.372      -434.9785      -1226.676       250.9368
       771.1333       993.9739       619.4734      -78.12720       1243.973
       189.2454      -544.3127      -807.2854      -322.2208       373.3196
      -131.8229       711.2908      -266.6045      -2509.591      -2155.548
       456.8999      -337.5532      -1591.621       1108.536       2544.476
       1308.645      -782.1343      -2223.054      -1541.609      -522.8822
      -770.2732       616.0303       2282.043       3109.951       1133.300
      -2123.975      -1580.030      -1033.108      -2130.373      -1925.508
      -525.5108       66.12988      -315.5872      -444.9775      -1870.783
      -2089.815       717.3622       715.3391       26.49854       1226.750
       959.1484      -1077.826      -1097.873       334.5083      -604.2031
      -1807.597      -296.4177       1311.421       330.6377      -1635.547
      -1543.309       442.9036      -328.0117      -2665.524      -593.6191
       1938.689       15.58679      -450.5901       6.500488      -1579.214
      -1542.920      -1204.007      -1875.898      -822.2625      -391.5166
      -1652.456      -1048.684       276.2906       786.2458      -102.9011
      -532.0599       154.6786       103.8098      -91.12158      -629.6318
      -1158.389      -929.3968      -652.0955       856.4460       589.1892
      -727.8165       73.79614      -1300.233      -1323.174      -293.3438
      -1728.709      -1557.637      -742.1785      -598.0233       95.66187
       1341.710       1016.705      -681.0604      -281.6047      -167.1724
      -1731.892      -1069.252       436.6375       801.3521      -6.375000
      -917.2875      -283.9956      -434.3552      -607.4636       529.2612
       1238.563       655.9905      -347.7466      -1472.928      -240.4688
       1481.435      -1073.387      -1928.639       309.9297       668.6252
      -380.9893      -937.1132      -573.1726      -239.4808       444.8031
       249.6310      -237.2473      -110.6729      -903.2880       197.2742
       1127.385      -429.7255      -386.9468       759.5458      -130.9849
      -572.9607       914.2261       1104.625       121.0056       63.97864
       780.4265       184.6045      -391.3868      -553.3752      -713.0664
       861.0681       796.0369      -1214.952       136.7659       2092.053
      -753.4906      -823.4851       1173.497      -1006.733      -829.5791
       1168.579       1075.026       44.61816       219.7310       894.8232
      -165.1662      -370.3208       817.2783       1080.141       182.1829
       359.6539       696.5171      -238.3523      -434.5019      -61.96893
       331.0811       235.5518       1058.595       1943.542       147.1864
      -170.4912       1169.240       533.3763      -301.1655       516.4902
       1654.564       43.41559      -332.2106       521.4243      -954.9070
       424.9995       1582.741       1264.579       1562.325      -126.7418
       60.37866       963.7244       336.7981      -62.62988       266.7402
       1704.209       1159.811      -577.7932       299.0122       1435.514
       505.7000       63.26395       141.3734       28.60278       840.1997
       1683.083       964.5119       50.82520       320.0212       1083.108
       470.8750      -869.0049       292.1743       1471.459       474.2061
      -223.9333       259.0764       704.6040       1492.508       469.3730
      -538.5945       1376.305       542.2754      -934.6995       321.0532
       1581.927       1345.758       18.56421       678.9067       720.5872
      -618.7665       50.00049       1355.140       1607.380      -610.9797
      -1696.020       189.0563       571.4363      -1090.863      -641.3226
       506.0714      -315.7123       495.0520       709.3606       329.3960
       943.2249       1044.450       952.5928      -605.1650      -1105.167
       632.8074      -128.9031      -1677.715      -166.0546       491.2432
      -418.7242      -334.9923      -437.6842      -274.2863       687.8690
       358.8107       103.6793      -212.1279      -1494.802      -1246.357
      -707.0050       150.9996       806.0206      -2.433899      -17.75037
       320.6016       89.65137      -1141.508      -1895.807      -710.7130
       330.4155       50.07962      -216.0420       613.0864       888.9907
       610.7194      -100.9952      -625.6069      -561.0742      -1692.597
      -1657.825      -853.7765      -231.2954       1197.523       751.1782
      -1011.298      -1702.235      -1099.996       33.79785       660.7390
       884.1493       910.1963      -866.7231      -2010.618      -699.8154
      -409.4917      -747.8069       287.4351       1443.290       1243.776
      -547.6003      -1606.570      -473.6749       208.1459      -612.0391
      -295.3773       624.3286      -310.5088      -946.3772      -18.40601
       1152.082       1711.096       186.1411      -1199.708      -1353.010
      -2508.255       20.10107       2412.498       112.7384      -476.8508
       132.1875      -525.3530      -1434.076       63.99390       1285.253
       51.97333      -261.2704      -423.9014      -944.9827      -454.6778
      -53.17261       421.0414       507.8384       56.95935       306.7598
      -621.5618      -525.8981       574.2771      -419.9214      -1431.719
      -1061.069       589.7300       1714.256       547.2323      -455.4279
       201.1707      -217.3822      -803.1621       1287.944       1523.343
      -667.9792      -242.3970       345.1138      -99.49414      -595.6682
      -1457.387      -230.9556       473.0897      -354.4182      -429.8809
       38.55273       1132.643       631.6476      -212.1360      -675.5046
      -1159.153      -188.5927       383.2052      -165.1240      -1510.380
      -1012.875       153.7906      -105.9094       905.6235       1863.025
       2146.853       988.7610      -332.2615      -418.5947      -1621.410
      -2865.913      -2179.164      -667.0850       1119.386       2003.067
       1208.446       524.8257      -984.5670      -1011.683       485.9565
       699.8501       1099.654      -661.9630      -848.0627       526.7639
      -1475.898      -1490.238      -258.6083      -167.5476       115.6797
       987.1089       2422.972       377.9141      -2520.152      -2093.830
      -1072.811      -541.7463       202.4277       1488.563       1547.907
       249.2377       64.27515       569.9756      -1086.074      -1673.823
       363.3297       451.4243      -872.4944      -1636.223      -750.6562
       1547.493       2308.136       1060.122       945.5406       223.0464
      -2277.009      -1343.329       320.9180      -982.2361      -1386.418
      -280.4800      -563.1581      -1044.392       692.4321       1650.978
       1377.902       782.8406      -579.7046      -1202.086      -425.8979
       906.5116       484.4885      -1132.035      -85.04810       1633.717
       365.3193       667.7312       1571.446      -1326.314      -2601.628
      -1118.757      -339.7184      -192.2877       592.0948       571.2766
      -489.7031       575.7686       1389.608       983.6510      -124.3118
      -1571.187      -881.3782       522.2457       406.4307      -1184.083
      -2153.761      -147.0806       1791.216       494.8628      -1148.630
      -665.0405       384.5332      -354.3025      -855.3674      -495.3236
      -697.6851       151.3799       1473.742       776.2677       274.6968
       1464.828       676.1173       181.1221       516.9937      -1018.454
      -1210.141      -750.3081      -92.74658       788.6660       435.2927
       809.4194       806.6145       580.1909       472.2827       29.48071
      -458.3005      -1319.324      -685.1411       6.439697       73.55713
       1173.103       1597.299       904.7839       245.5797       177.2494
       35.11377      -810.1919      -921.8191      -441.5933      -491.5041
      -249.9368       606.0666      -11.37720      -294.9404       1129.135
       1317.505       749.5493       1423.045       1393.560       111.8156
      -384.4702      -647.2876      -1090.925      -502.6350       587.7198
       536.0027       254.5883      -92.10583      -451.7806       249.1533
       1479.988       1563.921       83.47839       172.2461       1384.766
       139.6714      -1558.814      -1609.863      -1630.508      -2030.355
       271.8325       3102.531       1739.093      -209.1422      -346.1451
      -319.4115      -195.0714      -327.8884      -667.8979       215.4675
       755.8311      -700.7228      -399.9810       1388.303       1301.223
       308.4248       1361.819       2128.470      -983.5732      -1692.662
      -17.22098       145.5231       59.18408      -571.4963       1228.998
       1301.698      -1959.156      -1587.093       705.7922       1274.949
      -427.9360      -578.0967       1115.001       936.7407       1242.414
       1318.568       81.22876       497.2124       1029.590       895.8760
       995.4182      -196.9304      -811.7867       209.4353       506.3235
       133.1399       677.6987      -171.8721      -2232.668      -1715.099
       108.5415       864.0839       359.5969      -505.1226      -1359.692
      -1471.814      -503.9409       566.0880       744.9545       122.9768
       338.7715       1638.700       2376.673       495.1040      -1487.069
      -1102.873      -1074.899      -898.8276       1052.835       1436.504
      -40.60266       527.9183       518.5547      -1430.328      -970.2612
       792.8118       1273.225      -44.29053      -1418.569      -677.6337
      -51.80371      -1241.098      -1891.583      -408.4692       491.3892
      -732.4423      -821.5179       218.1201       567.3560       1041.543
       1726.217       1938.774       837.8003      -1045.339      -1765.919
      -346.0547      -323.9857      -945.2487      -8.363708       212.0930
      -229.3131      -674.3340       1512.682       2437.989      -357.0249
       61.18066       994.3682      -1899.430      -2281.439       1386.623
       3066.970       1765.904       741.7725      -1189.174      -3409.806
      -1509.555       63.21265      -1519.616      -713.2620       44.33594
      -2366.450      -2509.847      -884.6196      -521.6543      -573.2063
      -366.9636      -471.8242      -2629.851      -3929.258      -3775.385
      -4535.041      -4640.090      -3295.145      -897.0454       597.8861
       179.7476       968.3262       3252.941       791.0039      -3244.081
      -1972.680      -380.2725       1144.353       4910.842       6244.877
       6499.383       8076.580       5785.529       3359.781       4314.916
      -673.1582      -6241.023      -5448.953      -6524.628      -3463.681
       3997.318       5668.557       5102.100       5398.027       7589.530
       6596.115      -2146.543      -6977.652      -6620.086      -10394.80
      -8608.014      -2506.867      -432.8027       5888.691       11207.72
       9438.542       4523.720       611.5615      -555.6465      -3124.270
      -6109.246      -5359.899       3.525391       2711.417      -1994.311
      -4379.805      -1818.046      -1261.165      -1157.575      -491.3019
      -45.32629       785.8735       298.5127       2935.078       4450.718
       1308.795      -1100.746      -3934.560      -3987.740      -627.1855
       625.6040       408.7480       2949.000       3764.742      -204.1030
      -259.7461       4645.811       7624.175       6408.246       2579.229
      -3083.600      -7039.648      -4251.925      -2007.593      -4391.279
      -3974.580      -1205.000       1495.188       4552.691       6231.342
       6117.522       2395.650      -2421.043      -4269.459      -5553.742
      -6728.146      -5678.520      -3290.289      -3181.625      -2033.604
       2622.820       3879.274       2972.499       3662.994       2615.389
      -1037.788      -2221.105      -365.1372      -696.0532      -883.1004
       303.0371      -1350.109      -2688.474      -645.5498       1022.200
       2312.964       2141.091      -1453.668      -2786.770      -1431.801
      -910.0537       800.9678       2939.078       3776.362       4286.573
       3820.420      -120.5371      -3482.760      -2212.510      -2035.671
      -1220.849       1608.142       354.9233      -1712.054      -2160.035
      -3568.924      -5075.150      -6216.219      -4475.138       231.2725
       2983.604       4183.697       3314.065       1587.738       1384.279
       643.9775       1178.717       1935.153       1992.741       2723.116
       2955.592       1872.623      -109.7070      -1885.257      -2643.701
      -2811.709      -3490.832      -2978.505      -1184.490      -7.161377
      -349.7098      -455.9624       1498.358       3590.199       2798.830
       937.1315       140.1470      -1231.892      -1749.906      -2905.026
      -3649.058      -4.903320       2479.396       1605.140       1542.376
       1000.408      -151.3325       423.4798       224.0078       203.0732
       2036.229       1715.147       1427.759       873.4463      -1356.746
      -697.5151       224.6519      -32.22095      -816.9333      -1703.163
      -621.4790       741.5403       62.80127      -1379.897       325.9053
       1588.058       999.7090       1187.444       637.4753       1091.760
       1711.351       871.8358       662.3832       187.4072      -1048.150
      -2212.315      -3130.675      -1884.112      -6.670410      -605.6880
      -1503.256      -237.1992       1898.350       2477.299       1046.155
       741.9004       1398.942       801.2285       681.7959       835.9810
       1806.625       3122.728       1757.518       1395.485       1738.017
       350.6705       35.07910      -1185.047      -2821.750      -2370.475
      -2098.576      -2474.813      -1909.943      -927.0880       174.2874
       914.1360      -167.2788      -819.1350       232.7900       31.53943
      -787.5950       645.7720       2199.840       1597.080       452.1975
      -919.8953      -635.8022       1410.916       1064.318       22.97888
      -131.1777      -367.3359      -1544.018      -3110.402      -1868.616
      -946.5386      -1403.048       153.2399       492.7678      -690.1238
       17.80151      -270.1453      -1164.530      -346.3203      -763.0061
       82.99121       2085.806       1185.225       526.5479       1331.992
       971.0450       107.2407       1072.817       2697.990       2219.283
       665.2761      -150.2583       495.4536       1666.674       1295.890
      -106.7686      -1817.014      -2108.353      -1088.237      -774.8923
      -1448.288      -1032.980       1047.940       1150.152      -137.8197
      -521.3850      -128.8328       625.0068       1685.078       2740.116
       2525.499       1880.901       1516.589       1161.254       1262.075
       1158.573       271.0594       227.7122       200.1635       233.3196
       829.7288      -431.3545      -1926.884      -1785.575      -1145.460
      -385.8354      -803.3096      -2021.490      -977.9539       38.90137
      -1516.095      -2348.132      -2059.074      -1413.716      -1258.883
      -1427.011       634.5024       2031.542       860.0995       176.6620
       942.9205       146.2812      -2048.075      -2192.011      -2403.244
      -2586.294      -241.8662       1686.240       2368.303       1849.197
      -10.35406      -370.3617      -245.1024      -818.5591       61.22559
       3185.121       5201.828       3395.207       600.8251       25.25232
       428.9929       677.3116       228.3037      -1039.005      -2162.123
      -2855.659      -2197.922      -2456.062      -3151.698      -1263.413
       1228.756       507.9207      -969.2498       658.2750       854.1395
       121.2607       1222.926       1750.364       517.6680      -2284.230
      -2412.303       293.7847       1273.240       1561.983       2124.108
       2964.866       3543.436       2591.501       1194.441      -416.6486
      -23.21875       839.2092      -728.2059      -595.2549       1075.366
       1164.586       32.07935      -520.9818      -614.1027      -483.7273
      -41.27441      -523.5135      -853.0378      -203.6500       266.7467
       200.5254      -418.0996      -1559.407      -1928.292      -1748.956
      -1802.481      -1771.570      -776.7535       639.2614      -50.39355
      -1102.281      -43.60645       1285.420       2034.273       1831.056
