     0.02500000      -13796.12       13565.98      -12345.00      -12345.00
      -30.00005       221.6499      -23.20000      -12345.00      -12345.00
       0.000000       17.23000      -12345.00      -12345.00      -12345.00
      -12345.00      -12345.00      -12345.00      -12345.00      -12345.00
      -12345.00      -12345.00      -12345.00      -12345.00      -12345.00
      -12345.00      -12345.00      -12345.00      -12345.00      -12345.00
      -12345.00      -30.65860      -69.43630       2628.000       0.000000
      -31.59500      -68.73200       0.000000       105100.0       0.000000
      -12345.00      -12345.00      -12345.00      -12345.00      -12345.00
      -12345.00      -12345.00      -12345.00      -12345.00      -12345.00
       123.6565       326.9142       147.2764       1.111807      -12345.00
      -12345.00      0.2903118       0.000000       90.00000      -12345.00
      -12345.00      -12345.00      -12345.00      -12345.00      -12345.00
      -12345.00      -12345.00      -12345.00      -12345.00      -12345.00
      2008        13        10        50        50
       600         6    -12345    -12345     10067
    -12345    -12345    -12345    -12345    -12345
         1         7        13    -12345    -12345
    -12345    -12345    -12345    -12345    -12345
    -12345    -12345    -12345    -12345    -12345
    -12345    -12345    -12345    -12345    -12345
         1         1         1         1         1
TOCO    -12345          
        -12345  -12345  
-12345  -12345  -12345  
-12345  -12345  -12345  
-12345  -12345  -12345  
-12345  -12345  -12345  
-12345  -12345  BHN     
ZL      -12345  -12345  
[...]
      -168.6398      -174.9368      -181.4980      -187.5895      -189.2098
      -193.9525      -196.5220      -201.8834      -208.0116      -216.5913
      -218.7256      -224.7169      -227.4023      -233.5001      -239.4634
      -245.9000      -248.8292      -251.4789      -252.9141      -259.0870
      -260.7299      -267.4487      -269.5682      -275.6754      -277.5659
      -283.2357      -282.1934      -286.9598      -284.6472      -285.8612
      -285.2838      -290.1560      -286.9950      -290.2576      -286.8922
      -288.6702      -283.8917      -287.6541      -281.2214      -280.2482
      -275.6208      -277.9554      -269.3504      -270.1466      -263.1863
      -265.4945      -258.1479      -255.3903      -240.1178      -237.4760
      -231.4034      -227.8500      -216.2863      -213.2352      -204.1784
      -202.4877      -195.5338      -188.5724      -178.4835      -176.7172
      -166.6874      -70.84891       89.35083       193.7983       385.4919
       627.5656       406.2445      -174.0994       198.1720       687.5951
      -5.945068       62.35703       271.6368      -510.6432      -600.1597
       83.75122       911.9579       752.4609      -359.0696      -714.2993
      -734.2534      -1094.058      -245.1655       557.5461       13.80322
       62.52966      -235.5750      -1134.530      -685.0317       1007.926
       1390.868      -388.2034      -1564.378      -661.1357       1075.433
       376.9706      -532.1885       107.5667       183.3871       24.42224
       40.18823       1161.331       608.7823      -455.1772       288.2766
       566.5265       185.7275      -868.6287      -708.4131       19.75384
       18.92194       7.063599       393.3323       374.2538      -85.52734
       687.3383       6.527954      -587.3533       1254.049       1214.112
      -382.6492      -666.9158      -61.32324       1068.441       997.4999
      -140.2457       39.50586       1668.265       2291.049      -7.868652
      -2161.081      -944.5686       1267.782       1144.672      -109.2418
      -174.1851       1070.192       682.1486      -841.9078       77.84570
       1406.025       699.5918       221.0955       506.7849       433.9426
       371.9834       661.2053       921.5405       372.0955       271.7280
      -174.4240      -111.8164       1700.272       569.3894      -610.9663
       1266.884       1404.231      -18.85355      -96.99365      -235.7773
       450.5688       2368.775       1180.318      -583.3457      -946.4102
      -1071.143      -263.8955       358.8000       1070.129       912.4771
       334.8917       346.6526      -30.89209       1005.837       972.7285
      -1458.101      -1082.278       699.1875       1294.087       1306.217
       871.4909       557.3359      -413.1261      -433.9015       141.9214
      -624.7938      -585.1082       413.0352       682.7407      -475.4041
      -825.1667       769.9309       774.0442       326.8967       477.2403
       130.8260       162.2878      -449.6268       102.2055       702.6370
      -554.7854      -599.0374      -798.3289      -621.0425       797.7075
       1191.198       1228.234       1467.272       606.2595      -693.1021
      -876.6387      -339.1609      -158.2910      -868.4937      -1096.923
      -618.7261      -748.1472      -929.2970      -234.1826       341.1691
       406.9338      -207.1284      -1086.423      -301.9076       279.6419
      -204.7444       693.1724      -43.01465      -1967.698      -253.3221
       622.9702      -1697.012      -1157.204       628.3854      -191.4932
      -78.82458       900.0344      -337.0151      -1952.663      -1761.929
       194.3320       1494.439      -491.3952      -617.1928       759.0273
      -790.0637      -1176.504       70.08179      -258.4150      -835.0676
      -721.1622      -796.9882      -271.5994      -43.88202      -285.6582
      -242.9701       84.03967       354.6756      -253.6453       322.3241
       446.4957      -1066.089      -318.3950       562.7798      -1325.031
      -1159.282       260.0066      -1071.232      -144.7242       891.8291
      -1393.625      -688.8744       1033.497      -554.2102      -1282.489
       632.8188       996.7267       280.1552       213.0857      -1015.071
      -936.7609       145.0315      -664.7849      -224.4992       545.3672
      -136.4547       111.4430       530.3689      -262.9452      -461.2043
       789.5840       648.6235      -116.6780       769.8727       756.2058
      -585.4868      -1073.733       356.3127       1199.332       410.2034
      -129.2845      -372.7608      -11.15337      -80.62433      -36.72449
       891.2510      -246.0063      -1189.060       673.6792       1985.687
       780.8086      -82.80054       1008.165       759.5813      -243.2789
       85.57441       9.451202       38.62360       387.2263       194.6974
       395.1176       746.1938       204.3748       84.35315       252.4333
      -193.2506       425.8291       839.3126       106.7913      -429.6918
      -736.4689      -205.1978       1109.373       1782.639       722.3447
       166.3721      -182.0812      -373.6199       129.0710       33.91150
       399.4551       717.6099       903.2755       714.9366       161.5422
       78.84814      -636.4739      -1062.555      -413.5587       192.2531
      -152.5330      -774.7123      -642.7893       114.0182       261.9290
       427.1083       886.1048      -33.22897      -354.8363       333.2160
       246.6114      -102.0865       101.9380       669.1835      -16.86536
      -660.6786      -290.0557      -456.5186      -914.3970      -388.3930
       223.6743      -246.9277      -1042.447      -496.8687       551.5743
       560.5051       23.57141      -321.1365      -266.2544      -560.9574
      -586.3235      -488.3600      -626.2200       67.90057      -83.27942
      -507.3412      -281.3021       301.8989       562.8871      -241.5522
      -227.8911      -319.0835      -1658.211      -1832.304      -928.3877
      -915.2963      -497.7258       804.7383       1182.342       1176.560
      -271.9937      -1480.124      -851.1538      -711.1409      -752.8780
      -23.96436       971.7798       931.8347      -212.2457      -307.0052
       61.91403      -66.48730      -103.5908      -1012.843      -1411.631
      -1040.198       156.4954       1355.263       275.0322      -945.2183
      -1267.601      -163.1052       1162.489       676.5179       401.9273
       411.8076      -881.9150      -1468.055      -1551.419      -1360.748
       51.20837      -249.7498      -1132.466       454.8716       1777.445
      -253.1494      -1538.583       670.6437       246.5500      -1216.007
      -462.2565      -255.5036      -52.00928       325.1517       273.6280
       302.2742      -50.14981      -351.0381       324.6231       270.0615
      -680.7603      -330.4016       205.5601      -6.598389      -328.0737
      -99.24365       754.0566       898.9436       899.3142       381.9335
      -441.7346      -28.42798      -279.7854      -619.8030      -264.5075
      -226.1753       438.3789       1093.658       523.4692      -194.9617
      -746.4178      -523.8125       936.6699       1217.411      -159.1372
       582.1306       1809.964       470.1141      -296.1819      -58.41565
      -741.0369      -50.50427       464.8176      -7.779419       699.9058
       445.6860      -692.0867      -715.2200       473.1924       934.3188
       235.2892      -56.94318      -254.9497       538.7231       1374.213
       746.9208       469.4600      -386.1033      -1159.696       656.1802
       893.4556       311.3423       1476.471       730.9893      -45.95923
       524.2372       337.8771       129.7519      -123.6976      -452.0582
       282.6890       1423.484       857.7634      -401.8527      -220.9443
       1185.146       1163.797      -150.3946      -388.7605       270.6381
       688.9616       281.3558       57.75391       861.5867       968.1545
       463.0662       826.2369       466.2301      -673.4373       50.72919
       408.7788      -1167.207      -1521.257       296.9189       2113.960
       1808.412      -135.9789      -487.3159       233.1089       845.4244
       1003.155      -403.9635      -1156.189       311.6580       511.3455
      -783.2001       68.84131       1269.556       696.7605       471.0565
       556.8984       923.1062       903.0444      -733.6294      -2152.521
      -1685.391       190.0355       612.3765       236.6469       555.9521
      -338.8462      -16.18433       1162.785       343.0415      -590.1866
      -867.5848      -33.04761       998.5060       297.2944      -583.6958
      -1050.336      -354.1040       682.5403       842.9353      -632.6919
      -1553.864       347.2979       1278.876      -119.6119      -448.5554
    -0.02416992      -635.1124      0.6171875       1090.725       764.8391
       110.3384      -1394.849      -754.5001       762.1816      -1507.030
      -1801.172       396.0375       374.9354       144.6399      -788.2573
      -590.5920       913.8477       624.6909       340.8286      -46.40012
      -195.4581       341.8398      -593.6440      -1894.600      -1517.364
       167.5701      -411.4009      -2069.577      -1058.195       239.5604
       358.7053       936.3501       911.8735       688.5601       937.4363
       385.9998      -165.3363       254.9683       101.6489      -453.0433
      -540.8125      -72.18420       392.8652       407.0558       782.8211
       383.6130      -1075.139      -917.6455      -214.7448      -115.4250
       848.5782       606.9951      -1693.420      -1624.070       329.0535
      -645.8257      -1843.288      -1119.672      -1211.366      -969.2280
       193.9829       600.6370       42.44922      -685.6934      -831.1733
      -614.8389      -1167.265      -777.9792       1181.395       1106.912
      -103.6583       105.1956       790.4336       1290.576       1163.062
       596.9550      -19.11035      -433.8247      -1697.882      -1692.568
      -39.96118       597.5527       403.6057      -125.5273      -909.5122
      -1114.014      -1366.227      -1378.173      -271.4126       277.1069
       66.53247      -117.4590       133.9016       1277.372       1373.915
      -812.2847      -1340.828       339.0137      -32.78882       29.95020
       1332.535      -78.82861      -1959.741      -332.0830       1949.008
       1681.076       1392.089       1160.115      -792.7129      -1040.309
      -657.6602      -976.5220      -709.3065      -794.3368       127.5266
       223.0923      -1212.287       659.8823       2894.545       247.8501
      -1914.985      -193.0337       1386.570       2339.763       1435.328
      -617.9548      -673.6523      -1092.579      -783.3923       1309.636
       1098.634       461.2284      -144.2778      -1949.935      -1564.335
      -604.1914      -1823.917      -1269.719       2243.554       2858.971
      -141.6558      -998.2761      -473.1929      -1132.166      -1068.600
       222.9407       581.7179      -411.2872      -880.1694       2.291992
       1363.353       1604.500       429.3279      -211.5530      -670.1445
      -868.9861      -478.3281      -371.9221      -621.1663      -730.7920
      -719.0551      -708.3881       337.5679       1247.042       483.0591
      -565.4946      -1120.175      -1158.696      -1473.076      -1875.492
       103.7668       1492.251       613.7908       586.2450       346.1953
      -78.74416       115.9202      -351.1743      -1364.879      -917.0437
       786.8777       1584.320       499.8439       576.1104      -1.867188
      -4006.064      -4095.550       113.9443       2639.922       3011.051
       4446.168       9213.148       13565.98       11708.61       2186.561
      -4867.387       556.7637       6165.507       1321.949      -2884.450
      -1876.332       3115.260       8600.678       4525.773      -5813.109
      -6516.356       828.7754       142.3652      -4203.375      -8199.273
      -13302.69      -9677.625      -1352.355       1465.737       1426.091
       4128.792       3163.287       1125.641       7814.584       4861.729
      -11030.02      -7765.188       8300.332       9420.646       6175.522
       1213.676      -3994.640       2185.298       210.9844      -13302.29
      -13203.46      -3578.564      -344.2510      -1872.144      -1531.975
      -552.5825      -3082.507       547.5527       5091.325      -1036.357
      -2635.041       6524.871       9466.846       4012.006       4386.933
       6913.426       2539.353      -3447.002      -3551.214      -1167.662
      -2032.932      -961.0864       1918.826       1376.391      -2846.559
      -5422.764      -207.9277       6598.335       3727.283      -7109.078
      -13796.12      -9780.314      -3447.313      -983.2402       1401.525
       5753.242       9422.439       4137.121      -3308.867      -2956.945
      -6588.434      -8792.225      -4387.953      -2919.145       4981.436
       9856.386       391.5635      -4457.740       2222.377       8442.572
       4930.009       1297.769       2131.372      -1689.813      -3898.353
       1522.030       4535.433      -953.6536      -2156.771       1067.830
      -1435.319      -2320.894      -461.1035      -522.7646      -3371.191
      -3489.297      -5028.717      -9933.126      -3251.859       6387.939
       7573.988       2879.924      -2683.849      -2177.934      -435.7056
      -1234.851      -3406.467      -1375.352       5829.735       4979.620
       852.3115       3724.125       3812.204      -753.9600       560.1992
       6292.509       4645.072      -1223.949      -2205.875      -2830.625
      -5404.633      -3913.405       277.9790       1701.955      -284.2461
       470.4912       3922.198       1907.120      -1674.854      -2164.425
      -2895.741      -276.0098       2343.786       1035.396       1791.459
       505.3428      -2264.408      -4467.173      -5217.473       316.7188
       3569.924       2660.998       3908.378       5350.016       902.6055
      -5990.454      -5085.943      -1530.120      -660.9517       905.3027
       3195.633       5290.535       6957.934       5800.783       1560.922
      -2320.126      -3781.706      -1951.851      -1946.488      -5310.721
      -3253.059       1188.757      -680.5950      -14.88721       3131.095
      -423.5449      -2994.129      -1083.816      -1483.229      -1964.536
      -1219.510      -80.72266       4394.859       6972.480       3875.195
       65.16675       410.9214       385.9019      -2226.777      -1117.755
       2098.507       3586.347       2402.362       395.4316      -1709.796
      -3126.224      -2311.051      -2087.868      -1576.252       2244.370
       4661.295       3642.268       1386.867      -298.3472       954.0202
       603.4724      -786.5176      -977.6313      -2203.830      -641.6255
       2203.474       2614.833       613.0957      -1929.904      -1570.427
      -836.0356      -69.95996       2266.798       2243.661       820.9412
       840.5918      -101.4253      -2113.535      -2184.641      -239.0074
       257.6093      -6.982178       152.5034      -1075.734      -613.3999
      -313.9863      -3782.091      -3720.705      -436.8706      -850.0107
      -260.2848       1321.624      -949.1907      -1092.934       2848.811
       3319.386       292.0615      -3492.964      -4384.203      -1541.756
      -2238.764      -2968.116       1159.818       4299.753       4135.593
       3344.124       2328.485       940.7296       668.7495       23.33008
      -2131.362      -3078.041      -2078.192      -799.6191      -680.8555
      -1165.147      -327.9404       960.1328       1052.452       1188.672
       591.6499      -1450.658      -1669.315      -125.3737       452.0545
       276.4646      -379.7852      -1604.994      -638.8853       1309.559
       1291.835       708.6221       567.4497       2346.710       2377.999
      -1916.768      -2323.779      -232.8552      -548.8789      -841.8468
      -653.6766      -571.8301       56.58350      -313.6055      -1050.823
      -641.5417      -1056.448      -222.0665       334.6934      -871.8491
      -2153.586      -3095.931      -2086.366      -1455.358      -1589.946
       720.1211       3174.750       2007.417       1330.290       2456.829
       1436.996      -487.2793       247.5679       2681.583       2228.300
      -29.49316      -2480.822      -3762.839      -978.5081       931.0139
      -597.0356      -1165.870      -174.1747      -454.5637       55.29102
       3457.945       3631.086       1411.354       470.2615      -1312.541
      -1195.201       23.22705      -939.4814      -2402.029      -875.1418
       265.0117      -1327.303      -517.2792       736.8425       451.3362
      -224.0601      -1562.507      -3046.530      -4387.582      -2757.538
      -491.6676       233.6086       1571.849       666.2837      -2454.375
      -2421.099      -800.8159      -950.0537       1421.973       5012.706
       4593.311       2354.400       1031.674       704.0283       1034.662
      -268.4937      -2226.458       705.4395       2772.968       121.7646
       1278.391       3722.414       1933.814       499.2793       1086.725
       1354.856       371.6841      -1463.346      -1163.469       153.5783
       87.26367       409.3760       1073.737       1255.045       813.2806
       414.4357       176.4780      -45.02979      -681.8724      -960.7729
       1020.432       2718.695       1062.411      -1241.216      -1289.130
      -1659.962      -3056.980      -1239.377      -346.0637      -1944.819
       614.3110       2732.806      -123.1763      -1920.795      -1372.362
      -594.6464       703.4399      -295.0371      -2328.514      -1547.691
       469.8147       1288.899       4.738281      -1478.805      -1468.406
      -1742.622      -1378.674       513.4565       800.7986       928.0398
       901.3530      -1579.692      -1685.333      -515.2290      -1547.860
      -1312.615      -941.0288      -1931.662      -850.6931       1218.993
       1034.333       1119.177       2225.641       2608.914       3519.187
       4408.767       3319.405       2153.324       841.2500      -1599.275
      -2116.202      -398.3257      -395.3555      -2133.019      -2173.613
