     0.02500000      -16223.39       20407.47      -12345.00      -12345.00
      -30.00005       221.6499      -23.20000      -12345.00      -12345.00
       0.000000       17.23000      -12345.00      -12345.00      -12345.00
      -12345.00      -12345.00      -12345.00      -12345.00      -12345.00
      -12345.00      -12345.00      -12345.00      -12345.00      -12345.00
      -12345.00      -12345.00      -12345.00      -12345.00      -12345.00
      -12345.00      -30.65860      -69.43630       2628.000       0.000000
      -31.59500      -68.73200       0.000000       105100.0       0.000000
      -12345.00      -12345.00      -12345.00      -12345.00      -12345.00
      -12345.00      -12345.00      -12345.00      -12345.00      -12345.00
       123.6565       326.9142       147.2764       1.111807      -12345.00
      -12345.00      0.3817971       90.00000       90.00000      -12345.00
      -12345.00      -12345.00      -12345.00      -12345.00      -12345.00
      -12345.00      -12345.00      -12345.00      -12345.00      -12345.00
      2008        13        10        50        50
       600         6    -12345    -12345     10067
    -12345    -12345    -12345    -12345    -12345
         1         7        13    -12345    -12345
    -12345    -12345    -12345    -12345    -12345
    -12345    -12345    -12345    -12345    -12345
    -12345    -12345    -12345    -12345    -12345
         1         1         1         1         1
TOCO    -12345          
        -12345  -12345  
-12345  -12345  -12345  
-12345  -12345  -12345  
-12345  -12345  -12345  
-12345  -12345  -12345  
-12345  -12345  BHE     
ZL      -12345  -12345  
[...]
       149.8886       153.6784       148.3621       154.0878       155.2086
       160.5600       160.4958       163.0168       162.4785       168.7751
       168.2214       171.3860       171.6940       178.7377       179.0570
       185.2032       184.0098       187.1638       187.1029       189.0325
       184.6561       188.5141       185.9907       188.4939       183.1628
       184.7346       182.3255       182.6577       177.8989       178.3619
       172.0801       174.8923       167.9811       168.8057       160.9096
       160.4722       151.3971       150.3871       137.8443       137.0203
       130.8216       127.7397       116.9928       117.6574       108.2430
       104.4097       93.69073       90.97382       80.82767       77.51660
       65.36404       62.18871       54.76472       47.82742       36.21381
       32.34417       21.21902       16.01034       5.833433     -0.7787476
      -12.13858      -17.71719      -28.82567      -36.21461      -47.07355
      -52.82643      -60.79254      -66.70334      -74.51598      -80.58463
      -88.22620      -94.52322      -99.87411      -104.1914      -110.4543
      -114.6895      -120.0349      -125.1089      -129.2319      -132.5869
      -137.0139      -140.1696      -142.5645      -145.5115      -151.3878
      -150.8688      -153.6121      -154.8425      -158.2417      -161.6722
      -168.3623      -166.9526      -168.9071      -169.6221      -171.8439
      -171.0655      -174.6650      -174.1572      -177.3090      -175.4867
      -178.4376      -175.2970      -178.3073      -174.5353      -175.5267
      -171.0538      -172.1733      -168.7785      -168.4360      -163.2221
      -164.0853      -156.5611      -156.1348      -149.6410      -149.2428
      -144.1468      -195.8911      -272.4886      -315.1201      -421.5038
      -568.0756      -362.4433      -41.20081      -305.5515      -500.0208
      -52.99652      -62.66431      -228.1219       247.1243       445.6624
      -115.3484      -494.6546      -472.2579      -47.92859       435.9904
       235.7712       297.9137       446.6179       236.5801       102.7554
      -128.6878       23.90454       502.0234       44.90918      -1183.495
      -608.7034       702.5109       597.6609      -60.58920      -315.4561
       314.0085       587.6600       398.3416      -50.64230       6.410645
      -278.3893      -717.8282       400.0893       238.5474      -606.7076
      -273.1476       146.8313       389.9800       756.8581       309.3379
      -691.4499      -242.3430      -34.93146      -400.9821       20.73535
       342.2380       206.2354       39.46155       576.7816      -9.600098
       222.6501       1386.267      -348.2275      -1975.479      -889.5247
       848.9883       999.2523      -235.8210       158.7478       1592.747
       413.0381      -1995.052      -1295.400       1433.792       2089.387
       267.6674      -772.8647      -729.8003      -1279.362      -547.2468
       229.4771       835.1384       591.7455      -853.8099       239.1744
       902.6951      -15.74397       60.27994       23.75775       73.79779
       341.3176      -205.1046      -672.0023       123.4768       404.5474
      -250.1128      -375.1470      -579.5031      -437.6650       231.5308
      -465.0186      -1146.297       69.09761      -76.91870       2.094482
       1288.271       170.4259      -333.2118      -72.24658      -1028.184
      -719.8081      -188.0540      -149.3369       1451.318       805.8643
      -1231.693      -270.0766       358.2516       215.9160       1021.833
       721.6921      -845.2910      -699.1895      -199.4514      -1341.270
      -262.6526       1824.301       334.5239      -1645.614      -717.6357
       748.3900       364.7328      -119.9017       691.0263       404.9487
      -500.0182      -382.6868       121.2692      -101.5824      -633.2524
       528.0571       1266.606      -134.3124      -517.7855      -24.34821
       21.45398       852.6950       183.8241      -565.1042      -564.1172
      -1485.827      -432.0828       844.8181       683.7174       818.3922
       326.1476      -509.3666      -158.5328       480.5387       593.8866
       45.47333      -408.8518       114.7040       638.0861       116.4167
      -155.9678       15.84888       687.9805       624.9185      -666.7001
      -597.8770      -611.6308      -327.0894       652.5642       539.9109
       564.8589       409.1725      -335.6060      -533.6671      -531.4988
      -256.8967       1084.158       1715.656       117.2502      -848.9889
       191.2849       324.9704       23.45337       300.3164      -64.63647
      -553.4868      -461.8193      -135.6948       432.2173       1527.440
       1011.362       163.4017       146.5491      -1039.144      -732.8021
       286.2610      -36.49023       87.97656       723.8425       826.0006
      -60.73859       180.8553       549.4138      -792.2219      -6.770020
       1340.264       758.3833       1051.762       1174.372      -299.1748
      -1256.883      -711.0634      -536.4651       460.3977       975.3876
      -608.7913      -57.92578       1332.932       1096.807       696.2225
      -72.58887      -1165.385      -669.9252       137.4093      -342.9783
       266.1919       1031.141       18.17099      -292.6761       266.6354
       376.5763       335.2657      -239.2466      -815.5036       110.8732
       619.0903      -171.5979      -412.4915       283.5781       1188.463
       568.5186      -293.3942       335.7630       54.31824      -775.2960
      -103.1086      -114.6653      -573.6306       41.68970       440.7690
       739.6443       415.5645      -896.8999      -712.7610       693.6870
      -497.7073      -1140.817       534.9562       345.5037      -173.0801
      -279.4272      -244.1014       273.1922       99.19946       403.9556
       812.2773      -140.9224      -1192.052      -441.1712       225.6982
      -225.1548      -634.5081      -420.7509       118.9436      -193.9364
      -527.7169      -581.5684      -70.41260      -326.1458      -898.7979
      -406.4443      -548.1783      -166.2602       48.35858       26.10425
       867.0729       691.5793      -490.9011      -899.8689      -372.7100
       135.5488      -62.49768      -586.8167      -441.3505      -54.82300
       274.3632       284.1119      -393.8723      -650.3800      -533.2083
      -833.5254      -814.8838       77.49387       203.8729      -505.1504
      -857.9640      -433.4614       327.7994       419.3325       429.9258
       76.26489      -383.3176      -713.6509      -1192.316      -1010.719
      -246.2289       171.6136      -288.9877      -724.7946      -460.7435
       216.5109       107.1654       35.08746       173.1765      -1011.777
      -1067.720       402.3628       883.3367       438.1542       223.0902
      -54.97858      -170.7524       5.339355      -597.5610      -1494.441
      -1214.809       563.2209       148.8608      -1097.914       824.6099
       1445.984      -538.3827      -711.2540       124.9854      -538.3169
      -1308.562      -138.5640       961.5303       482.2437       645.8906
       799.2419      -406.8826      -636.8274       605.4928       871.1698
      -398.2268      -565.9135      -257.1813      -536.8486      -107.9765
       106.0399       485.9411       562.2837      -193.8120      -742.9891
      -661.5858       37.49841       308.0184       452.3630       591.9264
       590.7051       494.8049       75.95624       117.5773       480.4150
       235.6542      -10.96887      -124.3206      -501.5347      -835.8809
      -597.1616       644.4697       1649.885       1177.057       305.7034
       566.9478       761.6489       585.8226       849.4431       238.0962
      -195.5271      -729.8970      -1328.186       269.6486       787.7090
      -700.3881      -178.9089       865.1836       216.9238       371.0806
       1086.346       251.2385      -1337.787      -937.5168       938.1179
       1241.293       773.2025       451.1415       465.1812       105.5613
      -1099.947      -91.35449       1252.013       625.3372      -264.9243
      -341.2791       715.3669       853.0017      -321.5503      -930.9778
      -1122.533      -427.5933       843.1653       724.4984       554.2888
       619.1553       1084.599       975.5605      -342.0215       348.1526
       365.6505      -15.04285       661.9050       108.3080       19.12987
      -100.4343       36.55322       558.0702       249.6511      -190.9390
      -670.8911       96.84052       496.7288      -797.4733      -508.2529
       73.19421      -319.1324      -270.2559       821.7578       1400.524
      -524.8020      -1200.121       277.5205       348.4321      -827.4825
      -628.9077       432.4637      -97.42920      -493.8243       361.9772
       388.8125       83.75842       651.2714       427.6542      -397.4600
       332.0820       714.8688       186.3621      -255.0356      -882.2111
      -795.2000       89.82211       176.9916      -215.8990      -368.4877
      -834.8433      -233.1826       976.2065       1113.519       687.0011
       379.1443      -234.7069      -535.7937      -321.3804       188.7111
       628.6758      -264.5005      -686.1725      -90.70801       850.3235
       1106.332       826.2545       645.3130      -550.7776      -637.0826
       246.3407      -114.4316      -1073.510      -42.21826       1259.242
      -368.3374      -1205.868      -644.8688      -42.66650       1294.824
       1041.548      -206.0930      -112.4551       490.8115       1029.225
       518.6550      -952.7744      -1436.610      -521.4839       867.2175
       966.6541       497.0020       738.1973       760.2027       57.90747
      -923.3074      -860.9908      -352.1243      -314.9431       536.6965
       979.2740      -207.5430       47.33936       817.8177       80.30075
       324.4437      -149.6279      -714.5096      -174.0592      -469.6230
      -933.1255      -996.9644      -308.0486      -16.00745      -443.5706
      -554.9130       193.8298       1162.134       614.8832      -187.0039
       95.14981      -78.77441       453.7230       923.2704       109.9182
       214.8624      -28.09326      -1334.873      -1876.368      -1596.878
      -1486.117      -874.7161      -82.49854      -444.2147      -726.8320
      -59.36194       694.8651       391.3785       3.068604       733.2416
       679.3625       24.36182      -259.0417      -413.5701      -705.4718
      -752.3149       602.0448       445.4766      -1098.998      -676.8732
       133.0107      -933.1528      -2147.030      -1107.581       323.3252
       481.1707       36.60852      -120.5470      -487.5055      -392.8575
       267.8450      -132.8564      -690.6196      -1113.210      -1520.413
      -1552.855      -888.9554      -11.83252       494.8154       849.0712
       357.4646      -710.1743      -963.1040      -757.8843      -1217.751
      -979.1437       82.50879       164.2185       11.52505       303.5197
      -265.9156      -193.8088       1065.536       369.2790      -233.6122
       514.0997       91.32938      -139.0978       101.5364      -285.7058
      -1204.972      -1240.644      -798.2188      -2069.668      -1014.289
       1296.609       199.6641      -167.6660       925.2385       1013.636
       359.3569      -66.18842      -265.0361       181.4747       338.1129
      -722.6503       65.54871       718.3333      -477.9580      -671.6788
      -678.5062      -605.9263       1062.766       2297.551       2209.955
       2148.910       1157.296      -242.6250      -1397.259      -1961.005
      -1763.714      -1349.544      -101.1436       385.5300       390.8096
       726.1914       1309.662       2025.868       1532.242       902.3620
       284.6882       113.6592       1321.293       538.4863      -1140.223
       11.09674       401.7766      -1093.500      -794.9436       620.0940
       535.8218       35.20422       503.3457       500.9260       689.8657
       1056.003       479.8632       24.60046       295.9379       771.1363
       395.0226      -29.26807      -1245.511      -843.7588       1571.750
       1362.706       384.2582       19.81299       260.1677       409.5920
      -554.0688       386.1055       2771.166       4739.037       5831.253
       5328.674       4336.780       2622.513       1674.928       1947.511
       230.5605      -3159.990      -6182.502      -7972.766      -8422.613
      -7918.719      -8081.523      -9446.486      -8541.634      -5466.829
      -1070.701       3993.607       4000.412       1072.902       425.0977
       1179.097       1512.212       2263.459       4263.566       174.4531
      -7000.113      -5236.760       249.0020       5889.254       15374.78
       20407.47       14707.26       6536.700       761.2461      -7710.988
      -15120.56      -12570.27      -9529.660      -13575.85      -7258.086
       7601.582       12685.57       13259.32       7438.244      -3511.896
      -1682.104       1532.163      -3344.962      -4526.416      -6440.573
      -5763.812       1872.985       1712.576      -7076.638      -6204.488
       8118.156       15697.13       7675.070       3999.531       10237.90
       6959.818      -103.5225      -280.6641      -4703.947      -10879.32
      -9802.658      -6452.673      -4120.126       2990.670       1662.332
      -12088.65      -10919.34       208.6152       4159.305       8797.172
       14454.58       11817.90       597.0938      -6693.725      -3930.219
       151.2319      -1296.720      -4618.032      -982.2207       3707.786
       2585.586       5540.877       10229.19       10068.75       9329.760
       2988.512      -11105.27      -16223.39      -9969.750      -7981.551
      -9142.467      -6104.385       2063.125       10708.69       8526.251
       1912.303       6173.121       10459.70       805.6211      -8085.021
      -6816.848      -5991.420      -7868.590      -5626.232       2004.397
       5222.223       278.8779       1500.491       5924.188       2480.477
       3622.300       5921.906       2146.037       1086.786       896.9043
      -2495.512      -5773.637      -3579.408      -3808.423      -6167.420
      -546.4844       4883.584       6223.492       6160.891       4349.346
       5317.077       5401.174      -1037.029      -7171.688      -8979.141
      -6753.234      -6388.510      -8931.194      -4786.882       3700.348
       9518.117       8288.998       2090.746      -4652.553      -4691.284
       3725.684       3775.182      -2728.135      -1986.727      -206.5624
      -692.4099      -242.7686      -517.0146      -1697.317      -2498.587
      -685.8579       1919.116       3503.348       3535.256      -1123.243
      -5021.480      -5044.147      -3655.240       1154.963       1688.474
      -3391.405      -3231.646       796.7939       4187.187       4118.074
       1828.365       1836.600       3332.490       2837.314      -69.00098
      -1762.058      -3015.209      -5316.426      -3545.481       825.6205
       680.6620      -497.2039      -351.5146      -1675.783      -998.2549
       2843.918       4323.845       1861.268      -1661.232      -3662.438
      -2386.774      -652.1869      -55.17026      -223.9498       9.688477
       1257.479       1750.552       3064.082       5400.926       5016.414
       840.0269      -2000.198      -772.2349      -176.6853      -102.4297
       2119.365       3502.513       1391.392      -1003.646      -954.1816
      -1345.742      -2086.507      -2297.372      -972.0123       964.9980
      -2761.492      -5880.318      -1992.087       1156.071       1065.857
       242.2520      -943.9600       1268.542       5398.282       4883.793
       2884.393       2766.354       2664.941       1823.460      -1247.219
      -3587.725      -3177.462      -3864.150      -4183.865      -2586.918
      -1478.237      -738.1240       828.7998       2513.633       1563.989
       565.0896       559.5017      -1168.158      -1210.589       31.62207
       920.6777       2640.756       1929.913       1057.031       2095.682
       304.3750      -3258.122      -4085.352      -2465.391      -318.1855
       45.01270      -1573.150      -337.6436       3686.325       4744.755
       2740.497       2578.535       2814.808      -471.5938      -2161.311
      -660.8740       1009.102       3143.502       3317.416       3039.660
       2621.236      -1247.107      -4058.354      -6467.205      -7401.444
      -4490.330      -4147.999      -2944.637       1271.853       1337.662
       952.7725       4062.193       4066.866       996.4402      -1021.943
      -1268.797      -142.0562      -567.5186      -1898.340      -1608.979
      -1771.994      -2405.937       492.6104       4404.174       4733.871
       3475.636       3693.938       3134.022       901.5723       1554.727
       1546.853      -1732.050      -1901.567      -1223.594      -3591.866
      -3785.083      -539.4142       581.0820      -1026.831      -1736.886
      -1483.921      -1523.881      -1806.925      -1761.831      -21.07324
       1775.097       1476.121      -109.3345      -900.6095      -12.32178
       298.9619      -588.7725      -2322.702      -3358.127      -1797.559
      -794.5854      -291.6704       1629.867       2366.560       1018.266
      -3.986328       2081.052       4270.068       3319.116       1607.907
       479.4700      -22.44189      -750.2578      -1447.471      -1282.681
      -735.8442       188.3198       1998.044       2661.789       337.1387
      -2052.221      -2832.046      -1762.976       495.5508       1294.338
       302.4204      -715.7964      -1665.647      -3344.775      -4477.589
      -1135.072       3262.092       2769.601       2887.564       3816.349
       652.3447      -1942.583      -2081.179      -1747.497      -794.2935
      -1053.730      -617.5571       426.1248       996.5098       1837.085
       1001.601       234.1133      -1367.442      -2730.441      -3.952148
       2647.608       2574.141       2936.911       3053.061      -95.81506
      -1340.412       1557.300       1915.843      -516.3152      -1141.812
      -1000.514      -1523.256      -1735.897      -550.7051       2572.355
       4101.265       2535.660      -216.9014      -1871.715      -2384.397
