     0.02500000      -41434.77       46407.04      -12345.00      -12345.00
      -30.00500       220.7200      -22.63000      -12345.00      -12345.00
       0.000000       16.82000      -12345.00      -12345.00      -12345.00
      -12345.00      -12345.00      -12345.00      -12345.00      -12345.00
      -12345.00      -12345.00      -12345.00      -12345.00      -12345.00
      -12345.00      -12345.00      -12345.00      -12345.00      -12345.00
      -12345.00      -30.57010      -68.62600       946.0000       0.000000
      -31.59500      -68.73200       0.000000       105100.0       0.000000
      -12345.00      -12345.00      -12345.00      -12345.00      -12345.00
      -12345.00      -12345.00      -12345.00      -12345.00      -12345.00
       114.0811       5.114140       185.0597       1.025711      -12345.00
      -12345.00    -0.03204296       270.0000       90.00000      -12345.00
      -12345.00      -12345.00      -12345.00      -12345.00      -12345.00
      -12345.00      -12345.00      -12345.00      -12345.00      -12345.00
      2008        13        10        50        50
        30         6    -12345    -12345     10030
    -12345    -12345    -12345    -12345    -12345
         1         7        13    -12345    -12345
    -12345    -12345    -12345    -12345    -12345
    -12345    -12345    -12345    -12345    -12345
    -12345    -12345    -12345    -12345    -12345
         1         1         1         1         1
TUCU    -12345          
        -12345  -12345  
-12345  -12345  -12345  
-12345  -12345  -12345  
-12345  -12345  -12345  
-12345  -12345  -12345  
-12345  -12345  BHE     
ZL      -12345  -12345  
[...]
       763.4146       757.3213       748.0659       738.9851       720.6057
       710.7480       693.4672       680.0007       662.3577       651.8008
       627.2784       611.3896       592.1326       574.3912       548.4260
       531.3480       508.1514       492.8274       468.6670       446.1451
       418.2480       404.9896       377.8118       356.6568       332.4819
       315.3356       288.7271       270.5857       245.9388       232.3647
       207.9128       188.2669       163.6793       153.6304       128.6400
       111.8220       90.41960       80.72954       61.63565       53.47742
       32.15779       24.14758       4.971333     -0.5500793      -16.14220
      -17.81082      -30.91255      -34.83202      -47.49411      -45.18674
      -56.85400      -57.62073      -65.77008      -62.95840      -69.62718
      -67.72842      -74.02615      -67.24995      -70.34550      -61.02585
      -64.32558      -59.94501      -60.39108      -49.39191      -54.87347
      -49.20193      -50.99359      -42.99353      -44.19008      -36.66150
      -36.96600      -29.34876      -26.54932      -15.49091      -14.55599
      -3.578619      -6.127413       3.450672       4.314987       12.38181
       16.15646       20.62674       13.88935       22.40681       17.01680
       21.27215       19.77666       21.36412       11.86881       18.87801
       11.52581       10.11749       2.800111   -0.006481171      -14.72829
      -14.14409      -26.68000      -31.52402      -40.64133      -47.86005
      -61.47116      -67.70102      -84.44678      -91.54846      -106.1035
      -115.9155      -127.4664      -135.2650      -154.1277      -164.8574
      -182.5317      -195.2524      -209.6764      -220.9126      -242.6862
      -252.7412      -263.1571      -274.8049      -296.0932      -302.2883
      -313.4845      -325.4603      -343.4834      -350.3931      -366.6864
      -376.4531      -387.9692      -389.2817      -405.5098      -415.2874
      -424.5535      -426.3480      -436.0280      -438.7455      -451.3781
      -446.6116      -453.2655      -451.6743      -459.0055      -454.5972
      -460.5872      -455.2567      -460.0775      -452.2058      -453.1885
      -445.7147      -449.7662      -437.5205      -440.2654      -432.3849
      -435.9711      -428.8452      -424.8754      -413.4441      -420.2753
      -411.6332      -405.6090      -385.8834      -391.1613      -397.7932
      -364.2406      -263.0049      -128.7529       301.8140       1586.772
       1279.651      -2270.796      -1384.569       2717.034      -1206.483
      -5202.614       240.8975       3781.953      -800.0918      -4226.390
      -875.6445      -2857.568      -11664.16      -4385.084       10153.82
       5579.684      -3982.260      -1925.879       2665.387       3184.030
       2998.963       3967.226       2574.458      -932.9587      -1150.280
       595.6909      -1159.142      -3315.990      -1678.239      -918.4473
      -1260.190      -248.0525       885.3737       712.7529      -2748.359
      -3898.932       279.7900       2502.131       936.5383      -954.8424
      -283.6873       975.5826       427.6182      -515.2300      -1085.347
      -538.5488       79.06461      -178.5286       68.09009       75.81836
      -704.6191      -1080.438      -422.4204       693.2505       2021.311
       1495.709      -1857.084      -2780.715      -681.4973      -225.3657
      -1257.428      -1713.316      -253.4292       1427.631      -238.7783
      -2152.689      -814.9771       77.37447      -65.78882       257.3245
       391.7911       457.6104      -136.5256      -436.5210       364.4122
       803.0886       195.9521      -1198.104      -559.5483       1013.475
       416.0984      -453.2513       76.70654       738.8738       614.5950
       665.7026       864.8157       492.8252       1337.860       1235.948
      -922.5212      -1157.510      -435.8832      -311.7151      -289.1826
      -421.1429      -220.9834       545.0130       782.1641      -575.0554
      -1055.451      -273.6226      -271.0662      -277.8522      -129.1440
      -55.32837       1093.837       1787.013       988.8459      -224.1108
      -1028.548      -151.3479       905.0369       29.08887       491.4502
       1517.067       91.06070      -148.8574       735.4827       56.38794
      -217.9453       453.7637       1267.041       1605.868       648.4332
      -34.69885       73.26367      -1028.900      -1891.986      -1678.861
      -869.3154       280.0688      -590.7728      -761.6118       1847.755
       1575.081       284.1201       2275.993       2394.872       473.8740
       1033.766       2145.203       1101.324       279.5737       1031.173
       687.3096      -565.0173      -1095.244      -583.5321       423.5812
       177.2886      -316.0867       168.5227       543.6523       985.4160
       1773.160       2313.483       1754.089       1040.968       1298.356
       1360.281       1449.791       1179.493      -240.4282      -477.8433
      -76.48584      -479.3154      -299.2532       643.9243       1091.031
       440.3271       98.08057       1537.251       2272.011       1345.896
       1966.439       2340.960       551.2915       179.7407       1313.841
       1697.601       698.9382      -3.173828       909.8846       738.1395
      -330.1162       319.4832       1309.665       1136.067       333.7129
       459.0867       1140.657       269.4111      -781.1921      -685.4351
      -780.1632      -485.2864       289.7893       786.7737       1046.090
       638.9983       485.2079       646.4722       663.3208       935.2196
       396.1396       480.1587       1246.066       300.6864      -237.7324
       485.0884       399.5266       443.2156       834.5900       396.9957
      -173.2916      -424.3479      -573.4050      -598.4111      -1018.898
      -963.9624      -306.2351      -536.8042      -893.4980      -560.6464
      -308.7300       39.48950       318.8246       285.5078      -431.1758
      -1322.352      -548.7957      -151.8854      -832.2978      -307.4372
       38.66992      -673.8330      -1118.422      -954.3561      -307.2040
       30.82959      -996.1196      -1965.021      -1622.900      -1254.004
      -779.6204      -602.9783      -947.8210      -31.43457      -18.57983
      -948.3799     -0.6492310       333.4592      -854.9202      -952.6423
      -595.2520      -807.0557      -1211.653      -1692.957      -1558.547
      -994.7124      -784.9697      -885.6396      -1135.656      -1071.553
      -797.9778      -569.6519      -971.2595      -825.4047       413.9958
       393.2010      -330.4150      -502.3542      -715.8340      -1198.188
      -1938.983      -1871.795      -886.0356      -648.7283      -1234.413
      -1370.447      -1041.886      -976.1040      -956.1541      -663.5516
      -232.2192       172.9798       283.2697       275.9302      -349.2324
      -1994.095      -3019.017      -1657.863       542.6523       1374.130
       987.0466       170.2031      -366.5801      -475.4841      -237.9579
      -234.9751      -898.2397      -1016.295      -918.1421      -891.2526
      -517.5508      -63.13464       319.2849      -277.7163      -480.5426
       78.74146       50.89258       549.4241       659.8901      -189.5938
      -271.5002      -94.31030      -624.3488      -807.6670      -66.10919
       310.0061       335.9540       236.3662      -708.3231      -856.3575
       44.56641      -90.90948      -271.1523       930.3347       1447.145
       246.3145      -53.05273       1139.760       891.1621      -1103.698
      -1327.344       366.0034       544.2375      -4.181641       702.9436
       838.8306       222.8333       821.0559       1115.932      -40.10797
      -64.80127       1057.576       1634.558       1364.093       459.9444
      -30.10205      -360.2231      -267.9587       178.9542       65.10376
       614.3857       658.2029      -608.0155      -1046.243       69.38428
       1538.738       892.4783       3.699707       1423.855       1634.811
       102.3405      -108.6800       136.4630       216.5645       424.2461
       1064.553       1652.316       638.5378      -127.4329      -339.8243
      -510.8513       723.6953       916.7124      -4.010010       295.5181
       825.4045       1193.049       951.6017      -15.11426      -522.3689
      -700.3857      -220.8041       448.7604       268.1534       50.07172
       191.3965       449.9019       490.4898      0.1147614       1.864288
       204.9065       4.260864       277.5844      -25.15002      -331.6616
       357.5486       911.8315       1149.315       763.2356       516.0532
       945.7416       785.7651      -355.9001      -888.9531      -297.4664
      -77.27161      -380.8636      -425.6884      -65.54102       585.2505
       805.7277       673.5561       137.5852      -841.3222      -571.7170
       548.7983       854.2340       631.2579       494.9196       373.0308
      -921.6687      -1469.483      -72.05280       35.93542       4.706055
       1195.409       1494.548       966.5732      -244.4814      -1062.004
       185.7965       867.8540      -570.6499      -1062.513      -205.8508
       346.1511       148.7993      -619.8879       148.5388       1410.841
       426.6107      -431.6760       342.1537       579.0527      -159.0974
      -313.0566       434.2036       804.0504      -140.7152      -989.7048
      -50.96460       1030.398       700.8141       304.9526       667.6036
       172.3501      -489.0414       54.39783       157.9355       194.9691
       206.6206       260.4680       1093.473      -441.3677      -2255.439
      -308.8804       1314.839       495.3893      -55.00409      -41.53601
      -290.7581      -591.3467      -498.2369       112.5394       208.5655
      -240.9179       148.7977       252.7757      -128.3218       638.3926
       1290.630       410.1758      -1089.424      -1551.921      -1085.240
      -957.7041       253.3101       1818.276       979.0762      -347.1301
      -751.9805      -968.7666      -664.2042      -183.4578       50.05103
      -632.5608      -844.1389       161.7300      -912.0820      -1742.362
       605.2808       1106.113      -551.4913      -399.8340       212.9968
       368.8199       676.2765       269.3026      -52.42236      -492.3325
      -1238.469      -1095.343      -918.8582      -1202.446      -965.6010
      -286.1425       386.1111       761.1293       82.52002      -1265.014
      -1552.971      -1018.250      -29.84473       686.1263      -99.53741
      -26.18066       860.3906       326.8588      -175.4097      -683.8066
      -1783.799      -1861.089      -829.2025       127.1299       694.0179
       843.5309       119.2612      -672.9369       284.6870       1194.060
      -30.71716      -756.5261       440.2734       1090.787       22.26025
      -539.5325       11.40381      -764.6675      -1941.104      -1525.067
      -849.4292      -208.5438       467.8185      -336.8668      -748.4888
       549.7568       977.9759      -80.49316      -485.2797       224.9993
    -0.02343750      -864.6516      -503.9973       673.2800       1385.438
       519.3044      -577.4681      -271.7563      -312.9506      -671.3833
       89.85254      -101.1375      -1156.974      -814.5217      -291.7395
      -1135.775      -1611.573      -441.6467       698.0591       959.2451
       1618.640       1641.867       298.0157      -141.6160       6.460938
      -1175.240      -2305.826      -1131.255       756.0159      -65.36133
      -1182.208      -320.2621      -312.1565      -488.2883       787.2585
       1294.376       367.3437      -341.6951       416.2617       1398.126
       833.4529      -380.1222      -673.1309      -661.2013      -580.1201
       351.1750       1231.457       944.1000       569.5289       480.5134
      -607.7612      -1805.157      -1231.544      -372.9562      -569.9858
      -359.6152       765.5146       1486.777       1579.834       745.2168
       267.8145       1421.645       1268.641       107.9606       709.2415
       112.7930      -1776.855      -1875.832      -949.2283      -299.4125
      -100.1521       16.22717       416.0756      -207.4426      -597.8684
       673.2009       597.3689      -517.2402       292.6038       1114.909
       1158.462       1373.588       79.47314      -2055.658      -2172.058
      -538.0942       1583.154       2617.202       2201.117       705.0615
      -1910.711      -2752.588      -282.9355       1948.795       1809.328
       1494.323       1986.377       1464.228       78.44971      -1843.649
      -2770.579      -1508.773       182.4106       1351.454       318.6816
      -4268.297      -9802.457      -14605.12      -16884.47      -13700.65
      -5588.883       6166.930       22339.78       38829.12       46407.04
       39661.45       22441.59       442.2891      -23358.16      -40703.56
      -41434.77      -29537.25      -17573.35      -8825.291       2262.875
       17873.03       31416.42       31882.98       17466.94       2522.182
       235.5410       6262.137       10309.63       8907.701       2000.898
      -8841.691      -16401.14      -14235.25      -5140.236       1999.580
       3092.658       1525.749       307.5586      -2152.047      -7909.758
      -13200.74      -10840.89      -4374.225      -2112.156       1007.922
       12931.25       25275.37       24532.15       11597.98      -2212.064
      -8951.990      -8173.434      -5194.997      -4042.339      -2217.922
       2714.812       4648.986      -1029.613      -9846.906      -16247.46
      -17561.68      -13079.04      -4954.868       3326.832       8715.902
       8758.393       3880.806      -1957.008      -6991.078      -9103.613
      -8059.875      -7153.023      -3932.857       3932.125       10681.28
       10832.29       5922.757       1911.267       772.5176       2505.391
       5842.438       6278.443       5543.416       4367.582      -3453.654
      -11345.62      -7451.922       3027.619       9434.266       10208.69
       4939.893      -4092.842      -9464.232      -9585.647      -6459.173
      -1528.532       795.4688       819.7969       2799.191       3997.404
       452.3320      -3122.996      -2137.714      -1383.256      -5629.086
      -9914.961      -10132.66      -8402.144      -5295.810      -1018.462
       1344.798       1020.368       1379.094       4619.154       6664.441
       5418.844       4632.250       4304.343       866.5879      -4640.869
      -7575.203      -5322.504       1175.438       7967.314       9382.862
       5317.347      -1121.828      -8644.377      -11430.97      -5559.960
       2781.266       7072.816       5824.384       1654.990      -1631.164
      -2302.526      -1524.853      -1609.915      -1846.289       159.8447
       2891.213       3145.480       625.6143      -2480.344      -3648.387
      -1143.440       2019.595       2664.247       2755.036       3001.754
       2301.116       2466.879       3699.032       2780.799       44.61914
      -467.6214       426.3545      -1005.760      -4947.314      -7127.920
      -5254.798      -3207.250      -3681.820      -3193.014       68.65430
       2450.185       2181.954       791.6543      -1566.616      -2795.384
      -1649.036       55.35645       2523.531       3121.165       41.23535
      -248.1748       3882.421       5585.979       1462.207      -4850.377
      -9200.432      -9855.138      -6277.271      -40.98438       5630.943
       8600.812       9379.805       8884.066       6632.064       4752.480
       3822.657       644.0049      -4123.918      -7107.844      -7158.436
      -4639.624      -1609.194       234.0430       1549.149       2879.831
       3847.435       3962.347       3094.473       3611.326       6295.059
       7570.515       5020.213       1232.437      -521.3789      -689.0239
      -1137.893      -2349.182      -4199.885      -5640.287      -6532.014
      -7537.312      -7313.043      -5752.719      -5443.418      -4481.044
      -750.3906       2630.420       4609.777       6469.939       7731.445
       7744.374       5822.563       1614.421      -3253.984      -5747.538
      -4958.168      -2744.810      -2034.577      -3314.885      -3923.042
      -2933.154      -2167.718      -1592.766       248.9961       2686.516
       4351.055       4424.496       2875.994       332.0215      -3899.080
      -7771.432      -9132.559      -8401.896      -5883.920      -3760.242
      -2252.192       364.2754       2506.861       3818.589       5002.455
       5669.455       6172.125       6802.213       6424.414       5566.837
       5220.432       3392.106      -109.9873      -2350.639      -2580.651
      -1157.129       970.0942       2380.571       2621.765       1635.774
      -108.0044      -1086.052      -737.8438       395.4932       2434.122
       4182.949       4132.341       2770.698       278.6221      -1400.650
      -1139.651      -1307.926      -2589.915      -3643.081      -3192.440
      -1103.631       303.0908       865.1704       1973.130       1426.417
      -1536.884      -3738.638      -3697.613      -2610.322      -1012.710
       1276.451       2784.512       2158.613      -219.4141      -1113.525
       1035.475       2404.223       1703.531       1348.123       759.8076
      -1140.769      -2127.150      -861.4415       583.7219       693.4473
       201.7076      -185.0962      -960.9824      -2192.102      -3995.139
      -5589.644      -5386.538      -4103.543      -2640.645      -538.6826
       1668.051       3355.827       4475.198       4088.502       1844.918
      -617.1926      -1320.477       616.5205       3102.480       3479.928
       2485.776       1926.256       1701.743       879.4783      -698.2888
      -1649.601      -68.08887       2509.842       3585.289       3594.475
       2833.056       1949.304       709.8247      -1449.818      -2579.113
      -3082.016      -4718.758      -6298.746      -6154.182      -4205.671
      -2146.496      -1227.078      -615.6955      -1.978760      -352.7578
      -1246.794      -1179.977       113.6641       1815.834       3528.475
       4479.205       3678.180       1939.570       898.3984       971.7920
       1749.560       1732.638       931.2261       993.0166       1725.304
