     0.02500000      -47928.31       32548.59      -12345.00      -12345.00
      -30.00500       220.7200      -22.63000      -12345.00      -12345.00
       0.000000       16.82000      -12345.00      -12345.00      -12345.00
      -12345.00      -12345.00      -12345.00      -12345.00      -12345.00
      -12345.00      -12345.00      -12345.00      -12345.00      -12345.00
      -12345.00      -12345.00      -12345.00      -12345.00      -12345.00
      -12345.00      -30.57010      -68.62600       946.0000       0.000000
      -31.59500      -68.73200       0.000000       105100.0       0.000000
      -12345.00      -12345.00      -12345.00      -12345.00      -12345.00
      -12345.00      -12345.00      -12345.00      -12345.00      -12345.00
       114.0811       5.114140       185.0597       1.025711      -12345.00
      -12345.00      0.1374606       180.0000       90.00000      -12345.00
      -12345.00      -12345.00      -12345.00      -12345.00      -12345.00
      -12345.00      -12345.00      -12345.00      -12345.00      -12345.00
      2008        13        10        50        50
        30         6    -12345    -12345     10030
    -12345    -12345    -12345    -12345    -12345
         1         7        13    -12345    -12345
    -12345    -12345    -12345    -12345    -12345
    -12345    -12345    -12345    -12345    -12345
    -12345    -12345    -12345    -12345    -12345
         1         1         1         1         1
TUCU    -12345          
        -12345  -12345  
-12345  -12345  -12345  
-12345  -12345  -12345  
-12345  -12345  -12345  
-12345  -12345  -12345  
-12345  -12345  BHN     
ZL      -12345  -12345  
[...]
       221.3690       216.1336       234.0624       232.1517       256.1833
       254.5128       265.7831       264.4989       289.7737       286.1952
       298.3633       289.6108       307.7567       298.5349       314.1382
       304.5635       317.9532       310.6132       319.8190       310.8243
       325.4532       309.6946       319.3651       304.6019       312.0254
       299.3796       302.6677       283.9857       288.7703       268.0430
       270.1797       251.0933       251.0034       227.8604       227.1085
       206.4433       200.8439       173.3796       171.0733       145.6578
       139.8999       113.1784       106.3367       77.66605       70.42461
       42.19212       33.48478       1.253517      -5.339592      -36.92339
      -48.14227      -78.07593      -85.48083      -119.7429      -127.9840
      -160.2536      -168.4363      -203.6459      -219.5222      -252.3594
      -261.9101      -296.3118      -304.3229      -335.9238      -347.4806
      -378.6067      -382.5968      -409.3805      -415.3438      -449.6379
      -455.7817      -484.3396      -493.4823      -518.7955      -526.0015
      -554.9692      -551.7202      -575.3403      -573.3687      -596.9132
      -597.8784      -614.3751      -606.9314      -628.7748      -620.5513
      -636.8745      -632.0095      -645.8081      -632.1266      -646.6730
      -634.8492      -647.1440      -636.1965      -643.4805      -625.5146
      -632.0081      -614.0897      -624.4247      -604.8905      -604.7700
      -583.1619      -587.2644      -562.6704      -559.4429      -537.6793
      -535.9027      -508.4395      -503.9895      -472.1243      -468.0344
      -439.1597      -432.0667      -407.5789      -393.6376      -354.8668
      -350.7448      -317.5813      -302.4723      -267.5956      -255.4857
      -221.3113      -207.5294      -168.1095      -153.9783      -116.4719
      -98.68219      -59.57575      -49.42765      -11.64840       5.429062
       39.91388       49.55725       87.68979       102.3877       135.2159
       145.6432       187.4515       198.2241       219.5614       223.5118
       268.6307       282.6883       292.4099       284.4573       358.2340
       337.6508       69.98633      -594.2598      -2140.318      -6812.809
      -9543.981       1045.041       12140.01       4248.181      -4597.157
       1179.214       3132.936      -2166.751       2310.191       9763.775
       6955.499       3916.217       3889.551      -1152.327      -2061.788
       2765.743       669.4395      -3054.023       898.9883       625.4473
      -6264.877      -5993.420      -1363.055      -486.4996      -700.1293
      -90.60913       269.6572       1739.975       3823.631       3262.282
       29.81934      -1266.768       971.8164       1812.151       1544.963
       1768.394       862.6794       42.06641       778.1444       667.9523
      -347.1475       450.8175       662.8494       361.4988       1282.438
       899.5366       323.5076      -304.7593      -1616.888      -1206.205
       365.0702       217.6272      -870.0732      -1838.479      -2405.683
      -891.2723       678.4834       798.6721       1122.989       919.4553
       336.3335       639.7898       1303.350       323.1472      -442.1323
       1281.531       2652.646       1718.239       431.0839      -44.33606
       106.3753       61.89555      -118.4591       171.2261       514.1674
       384.6936      -188.4851      -667.0861      -548.3765      -225.6143
      -191.7574       136.5017      -69.25195      -1100.129      -812.5610
      -604.9370      -1672.284      -1602.707      -120.5083       1204.131
       2065.810       1991.850       1477.712       817.7168       687.7148
       1849.746       1981.847      -179.6427      -643.1735       382.9565
      -384.6597      -752.5823       585.7667       924.0781      -33.97998
      -488.7327      -875.1567      -1009.752      -70.60645       930.6567
       1355.193       405.5477      -93.28271       557.6249      -110.6470
      -1073.145      -502.8975      -1129.219      -2071.660      -340.4803
       314.2271      -606.5310      -32.11890      -176.1982      -1076.124
       14.85815       1041.861       872.8232       1975.773       2199.249
       959.0007       1162.956       1371.040       558.3915       33.06055
      -734.4004      -1364.210      -1500.883      -1015.651      -417.0679
      -1224.371      -1996.936      -944.0532       54.10992       241.6672
       198.3136       122.1758      -7.416260       88.28955       303.1064
       203.0120      -693.6865      -1247.994      -670.6483      -40.92139
       120.2306       239.3639       585.0466       275.1603       216.1765
       1191.719       495.0723      -626.4429       549.1406       822.6362
      -1024.772      -987.8152       144.4426      -493.7126      -709.8148
      -215.9517      -1192.420      -1737.271      -1132.611      -868.2212
      -842.9044      -436.8936      -419.4572      -143.1667      -110.8711
      -1468.256      -1353.237       216.5779      -351.9077      -1605.416
      -1140.322      -260.3383      -61.30908      -350.3259      -557.2946
       19.78522       453.4588       7.674072      -523.5064      -82.32141
       488.1919       271.9057      -188.1177       35.98065       129.9067
      -717.7341      -1083.854      -984.4307      -1980.187      -2320.598
      -1451.479      -1223.027      -1003.653      -590.5962      -816.6738
      -1036.879      -1043.189      -804.7675      -182.6691       295.7845
      -58.50464      -156.6097       530.0442       391.1062       262.7839
       511.4767      -163.9496       116.1194       963.2374       457.5704
      -135.6473      -23.81238      -512.6047      -975.0581      -400.8232
      -406.5188      -1108.680      -10.17578       1302.656       268.0564
      -1067.338      -630.5891      -361.5717      -418.7563       352.3987
       264.7951      -348.5553       402.4317       494.0133      -711.4662
      -144.2695       1268.532       549.4486      -191.9274       372.8401
       404.5046       265.0784       726.5880       868.3872       265.0748
      -425.0348       94.64771       876.4326       885.7620       883.0581
       1076.369       531.1018      -702.5051      -1429.863      -754.2590
      -378.8933      -1035.940      -767.9330      -339.5869      -667.7781
      -423.3623       514.2593       1602.904       1699.114       1655.625
       2260.656       2159.556       945.3782      -149.5884      -28.83203
       924.5522       1324.412       1087.299       676.5861       134.2898
      -121.6586       205.1940       9.075195      -647.7146      -914.6644
      -305.8894       362.2891      -25.56360      -548.8030      -518.2878
      -33.26831       790.2583       847.1079       701.1440       747.4907
       1081.594       1763.835       1569.390       706.2600       599.6515
       847.3348       130.5826       69.52930       1033.399       1037.538
       1313.873       1512.114       288.9302      -1094.290      -1310.515
      -841.2888       301.6758       1465.193       1414.617       880.6721
       812.3872      -217.8408      -1707.385      -1247.388       194.3289
       694.9994       474.8592       401.4008       73.29578      -483.3309
      -70.15908       4.764038      -31.60889       1078.946       2026.293
       1989.803       1173.928       330.5292       258.5237      -202.2764
      -527.6728       32.34155      -135.6260      -469.0884       150.5700
      -18.56909      -817.3406      -774.4407      -290.8807      -93.39648
       1075.146       2683.690       1306.741      -1233.091      -627.9400
       92.73077      -428.1770       48.11450       561.1943       297.3456
      -62.95166      -687.4961      -2012.582      -1905.609       144.0901
       779.4451      -2.704124      -68.62447       99.75208      -202.3075
      -319.3818      -424.2937      -812.4165      -1291.000      -705.0211
       221.1598      -308.2261      -195.0850       989.8862       966.4941
       222.2310      -752.7410      -1055.041      -650.9016      -362.8319
      -191.7144      -824.1799      -969.7102      -129.6836      -553.0078
      -746.8826       171.9782       36.11951      -130.4318      -25.98877
      -929.9155      -1366.900      -1231.310      -625.4222      -179.2729
      -746.3140      -889.4983      -751.5999      -899.0636      -331.1304
      -307.0659      -1104.271      -844.3140      -50.14203      -158.7319
      -485.3009      -486.4248      -212.6744       543.8912       495.7939
      -943.2649      -1520.916      -928.4946      -349.9678      -348.9907
      -878.8657      -1198.928      -712.3019       32.02948       158.2651
      -397.0032      -864.6934      -558.6863      -457.0625      -848.7533
      -646.3143      -509.3298      -606.0878      -402.3873      -377.7959
      -892.5391      -966.0298      -244.0000       601.8945       825.5092
       533.2493       664.2373       965.3204       365.8706      -341.9857
      -160.0072       212.2134      -484.2915      -772.0752      -51.20752
      -245.8943      -877.7568      -1176.402      -861.8130       745.2744
       1361.939      -128.2613      -770.9796       530.0126       699.4954
      -462.3103      -786.4478      -556.3436      -220.0970       75.64575
       109.9412       330.4946       555.9204       1057.259       1221.304
       342.8108      -309.4476       394.9780       1021.605       425.9479
       503.8467       927.7039       553.9459       580.2432       123.0073
      -408.9495       410.2224       835.1244       479.4594       108.9150
      -402.3661       132.4951       1378.166       1495.615       916.2676
       691.4962      -180.2925      -746.3676       403.1130       1176.200
       1041.110       896.3384       391.7512       454.4067       966.5293
       974.4092       814.1544       680.5322       448.1245       6.605225
      -950.4529      -1364.262      -336.0013       329.5535       689.5637
       1504.275       449.6595      -661.6975       462.1992       1081.729
       1107.283       1568.783       997.8153       690.5597       662.1825
      -402.8336      -490.8972       124.2106       37.16064       639.7158
       1132.786       318.8132      -539.1301      -696.0194      -424.5566
       311.5757       871.2214       599.9138       316.8778       407.7144
       484.2950       624.0747       581.0024       334.4654       106.2197
      -170.0720      -579.8586      -1103.996      -1257.893      -928.6201
      -222.2915       726.9541       595.3547       364.4591       721.3961
      -221.8174      -482.5549       1171.654       1083.093      -202.8392
       68.86047       644.3728       394.1394       549.0515       521.4785
      -631.1493      -903.6586       43.02287       160.4722      -208.9491
      -254.4760      -183.2762      -207.3755      -867.6570      -1153.807
       811.9541       2063.033       429.8799       408.5380       1017.496
      -1264.730      -2145.624      -820.6875      -1234.458      -1668.525
      -398.9526      -769.7468      -1448.605       107.5234       186.3203
      -1133.856      -399.3140       1020.282       1574.893       1316.955
       890.1646       1901.129       3204.155       2497.904       1631.707
       1591.974       822.3054       749.7742       1258.068      -256.8379
      -1553.800      -657.5244      -994.9766      -3057.197      -3249.805
      -1999.831      -1338.606      -716.6501       298.5117       1011.263
       784.8298      -281.5835      -449.0093       754.3628       1519.541
       1346.133       1481.044       2259.313       2037.460       466.7867
       28.02667       472.1642      -302.3657      -1069.879      -1080.642
      -793.5828       457.7273       1361.938       1232.529       512.3262
      -1041.577      -2025.478      -2029.423      -940.6260       1666.577
       2791.126       1638.357       867.3892       856.1973       763.3647
       449.5745       265.7126      -35.51953      -1416.456      -2375.938
      -1882.728      -1585.409      -604.2163       1856.625       2887.517
       1890.903       479.1912      -746.4219      -650.8828       537.7722
       1128.790       1391.269       487.5254      -543.3125       1168.555
       2026.323       663.8374       353.7648       277.9802      -484.7261
      -1768.030      -4202.379      -7060.541      -8701.680      -8314.758
      -7156.781      -7131.191      -7447.304      -6160.737      -2125.805
       5608.309       16437.01       26847.13       32548.59       30668.43
       21473.29       7293.266      -9589.551      -21750.01      -21726.18
      -13771.39      -9069.578      -14756.66      -28875.56      -42781.89
      -47928.31      -42322.67      -30140.23      -15382.49      -2388.324
       3548.150       6420.984       14003.84       22670.12       26853.52
       26827.52       23938.03       19347.78       14687.74       12998.60
       15326.70       16917.15       12467.80       3745.527      -4541.809
      -11121.41      -15421.19      -17178.27      -16937.67      -14081.44
      -7816.779       897.5781       7084.295       6882.871       4136.350
       3525.746       2779.855      -1730.244      -5341.741      -1758.457
       5353.977       9100.758       10307.69       11990.84       11232.50
       6090.016      -207.5459      -4617.626      -4226.657       1814.334
       9143.812       12915.89       12244.09       8299.373       4016.778
       3950.873       5141.490       733.4492      -7500.184      -13865.48
      -15879.64      -16241.32      -17336.09      -16578.73      -11837.98
      -4243.014       3616.299       8533.328       7446.828       1813.273
      -1754.320      -400.3113       866.1431      -878.5869      -1508.628
       493.3457       2387.755       2534.006       1682.537       702.9160
      -1569.742      -3784.675      -3803.928      -3104.127      -3163.771
      -3707.234      -3228.031      -2892.236      -3707.112      -2457.052
       715.6704       2506.448       2505.636       2279.881       2704.105
       1935.007       565.7183       1650.237       3609.930       5295.207
       8079.115       8736.994       4966.778       1615.049       2196.820
       4760.654       5275.687       1080.105      -4739.383      -7012.562
      -6122.891      -4482.909      -1373.167       2758.416       5757.211
       6151.979       3911.537       1516.920       2188.957       4660.387
       5420.745       4673.702       2913.350       166.4912      -2615.727
      -3725.812      -2301.167      -200.0342       1874.854       2531.574
      -240.4336      -3620.756      -5191.840      -5923.539      -6570.947
      -5785.024      -3128.865      -2356.261      -2383.361      -257.4897
       1726.668       3808.065       5066.434       3173.740       2282.917
       2353.136      -1379.131      -7044.559      -10210.97      -9717.094
      -6491.788      -1940.803      -85.15381      -2270.466      -3127.434
      -1722.887      -896.5518       863.9014       2659.688       2119.773
       1787.977       2311.529       3620.312       5351.346       4498.408
       1715.479      -1197.737      -4123.998      -4432.330      -1386.187
       1331.208       2218.360       3214.547       4064.148       4235.980
       4664.307       4266.265       2439.243       241.2388      -1308.979
      -2027.060      -2238.057      -1771.696      -1124.334      -300.0151
       1260.754       3059.771       4382.076       6389.621       8661.971
       7568.340       4240.067       2336.963       779.9741      -335.7746
       2.984863      -313.9243      -2215.126      -2836.226      -1191.108
       1301.592       4212.090       6015.812       4910.769       2071.263
      -535.4160      -3322.957      -6122.902      -7640.834      -7488.433
      -5200.810      -2822.428      -1948.920      -396.0938       2458.225
       5279.021       6016.305       3471.036       408.2676      -1304.206
      -1543.658      -1403.671      -1832.186      -939.0439       551.2529
       1121.430       1284.249       296.5127      -1480.729      -3273.532
      -3592.732      -1963.159       100.5078       2023.643       2333.017
       1612.440       2416.387       3731.526       3618.870       2688.411
       2359.779       2050.716      -230.4043      -4062.771      -6188.081
      -5658.208      -3924.239      -2131.877      -745.2205      -22.20264
       401.3965       997.3018       2225.870       4080.234       5729.152
       6354.422       5863.064       4506.564       2826.051       877.7764
      -1544.291      -2918.043      -2443.330      -1516.756      -1476.986
      -2190.270      -1511.598      -154.6995       172.6655       1067.427
       1597.698       218.4040      -387.4409       1202.487       2451.668
       1892.123       493.7319      -1241.369      -2542.799      -3787.752
      -5178.844      -4611.315      -2195.297      -80.24561       933.5183
       123.5010      -1486.803      -2117.030      -2873.279      -3814.516
      -3352.027      -3391.637      -5491.877      -6797.620      -6026.479
      -4093.257      -1154.004       1352.979       2513.957       3395.631
       4158.466       3856.501       2943.188       2581.711       3082.990
       3831.884       3835.275       2636.391       1064.560       407.5654
       262.6172      -620.2339      -1979.730      -3149.408      -3443.063
      -2564.584      -2454.085      -3838.820      -4592.564      -4125.505
      -3365.921      -3031.484      -3100.232      -2708.888      -1563.438
      -56.10547       2139.729       4574.123       5202.821       3850.324
       2664.537       1463.730      -29.18799      -370.6252      -94.57520
       539.4150       2660.422       5241.152       5900.222       4562.970
       3446.459       3052.208       2334.510       1449.581       1176.748
       983.9613      -145.9897      -1459.663      -2334.375      -3267.961
      -3982.492      -4877.705      -5292.510      -4093.951      -2586.682
      -2078.278      -2095.052      -1997.482      -2063.002      -1915.072
      -922.3506       363.9629       1827.141       3818.211       5254.227
       5104.938       4818.477       4903.579       4498.357       3620.160
