     0.02500000      -28213.33       22556.93      -12345.00      -12345.00
      -30.00500       220.7200      -22.63000      -12345.00      -12345.00
       0.000000       16.82000      -12345.00      -12345.00      -12345.00
      -12345.00      -12345.00      -12345.00      -12345.00      -12345.00
      -12345.00      -12345.00      -12345.00      -12345.00      -12345.00
      -12345.00      -12345.00      -12345.00      -12345.00      -12345.00
      -12345.00      -30.57010      -68.62600       946.0000       0.000000
      -31.59500      -68.73200       0.000000       105100.0       0.000000
      -12345.00      -12345.00      -12345.00      -12345.00      -12345.00
      -12345.00      -12345.00      -12345.00      -12345.00      -12345.00
       114.0811       5.114140       185.0597       1.025711      -12345.00
      -12345.00     -0.1076944       0.000000       0.000000      -12345.00
      -12345.00      -12345.00      -12345.00      -12345.00      -12345.00
      -12345.00      -12345.00      -12345.00      -12345.00      -12345.00
      2008        13        10        50        50
        30         6    -12345    -12345     10030
    -12345    -12345    -12345    -12345    -12345
         1         7        13    -12345    -12345
    -12345    -12345    -12345    -12345    -12345
    -12345    -12345    -12345    -12345    -12345
    -12345    -12345    -12345    -12345    -12345
         1         1         1         1         1
TUCU    -12345          
        -12345  -12345  
-12345  -12345  -12345  
-12345  -12345  -12345  
-12345  -12345  -12345  
-12345  -12345  -12345  
-12345  -12345  BHZ     
ZL      -12345  -12345  
[...]
      -283.4739      -318.4836      -329.1083      -365.7205      -375.3806
      -407.8358      -417.8806      -449.8483      -457.7180      -483.3346
      -490.8433      -519.3293      -520.8104      -547.5768      -551.2607
      -571.6102      -571.7476      -595.2467      -594.5836      -617.1851
      -614.7114      -627.7363      -623.4003      -644.4238      -639.1451
      -652.5620      -645.4980      -659.1227      -651.5918      -669.0537
      -656.6246      -670.8462      -663.0227      -671.8494      -657.3469
      -670.1609      -660.2509      -668.8743      -656.4954      -666.4705
      -648.5166      -655.9735      -647.2952      -650.5190      -634.9991
      -646.0754      -630.3455      -631.6521      -617.6794      -626.1125
      -611.2394      -616.8225      -603.1212      -604.5143      -593.3582
      -603.1602      -588.7556      -597.5767      -585.7932      -588.5089
      -578.9133      -590.1445      -574.1145      -584.8792      -577.0378
      -582.0559      -571.1724      -584.0129      -571.5029      -578.0781
      -563.6243      -574.8774      -565.6084      -575.3823      -564.6755
      -574.2991      -561.0649      -572.9739      -558.8853      -570.7585
      -561.9626      -571.2642      -551.2238      -563.5818      -554.4224
      -563.2631      -549.4082      -558.1707      -542.2769      -556.4375
      -542.5244      -547.8387      -534.9333      -540.9136      -519.1057
      -525.2700      -505.6320      -515.2441      -498.8256      -502.9504
      -480.3783      -484.2478      -465.0286      -469.6255      -449.5963
      -450.4691      -425.6931      -428.8447      -404.3965      -404.4417
      -380.3745      -384.7306      -360.2655      -357.0093      -334.5372
      -332.7845      -306.1016      -312.0271      -287.5865      -280.0823
      -262.8503      -267.6340      -242.3837      -235.3742      -211.8794
      -212.6447      -189.2465      -186.1304      -167.0441      -171.3367
      -144.2874      -138.4708      -126.2848      -130.7008      -102.9598
      -96.43033      -83.02405      -95.54317      -64.52953      -44.77721
      -41.57657      -70.24146      -23.62286       23.32610      -16.78375
      -38.70459       472.5908       1841.656       4883.270       13418.25
       22556.93       7173.008      -24466.22      -22987.77       1348.997
       2908.345      -2037.618       4934.664       785.5859      -12054.04
      -9468.460       4116.242       8092.060       1259.570      -4090.314
      -4746.047       80.40332       5057.904       2045.166      -1262.436
       51.19189      -1317.579      -981.3594       3929.550       2723.745
      -1132.783       468.8979      -372.8350      -2822.026      -274.0762
       2002.112       574.8018      -1558.800       787.6963       3297.517
       669.8330      -567.4316      -1718.545      -3220.879       55.24609
       2791.903      -843.7480      -3336.492      -1021.957       1225.141
       3054.431       1987.231       493.6594       1121.526       532.7571
       605.0786       1544.214       1558.422       401.1990      -380.1152
       1251.811       3306.866       947.0488      -2119.081       958.2217
       4155.815       931.1660      -4283.828      -3489.958       1074.680
       798.6705      -436.5713      -32.81116      -221.4084      -320.6777
      -1405.348      -1463.831       459.9971       1652.346       1201.438
      -1355.179      -1288.298       1922.236       1416.157      -163.8029
       140.6349      -753.6199      -22.63477       2803.742       2639.110
       2524.208       4652.911       2562.636      -1510.945      -2288.648
      -2257.506      -1301.874       255.8178       515.4626      -157.6904
      -2424.835      -2359.988       1588.351       3284.595       1544.087
       1191.944       1189.098      -539.4663      -1987.156      -1842.521
      -1008.684       607.0615       1420.982      -706.7896      -1547.223
      -665.3188       335.3027       2644.576       3212.289       1905.572
       2522.403       3186.445       2870.150       3307.498       300.0952
      -2058.640      -1181.108      -2337.594      -398.5811       2585.764
      -564.3921      -2598.106      -856.0471      -613.4937      -274.8843
       317.7227       505.1975       1571.419       668.0088       1215.201
       3581.432       1573.573      -204.3477       1240.743       887.1902
      -737.6858       242.3262       2153.681       773.6213      -438.5952
       1016.152       1876.352       691.8135      -1307.222      -1151.737
       744.7837       2214.827       3061.973       1282.935      -2092.831
      -3393.069      -1915.861       269.6328       1675.369       2063.389
       372.1460      -1052.288      -43.69824      -1321.851      -2929.509
       667.0278       3025.773       635.4919      -542.4353      -582.2568
      -101.0874       1679.968       1586.054       1433.686       830.5957
      -1896.468      -1768.495       172.4111       1128.114       1912.992
       2708.051       1291.433      -1659.178      -1278.112       1272.379
       1508.639      -145.5791      -1622.139      -1556.573      -45.18115
      -668.3125      -2008.343      -950.6911      -363.8249      -37.35779
       703.4982       470.1667      -335.7144      -853.7327      -350.8679
       732.6248       245.1373      -477.1178       166.6154       620.6886
       100.6853      -495.4216      -653.8574      -1500.217      -2255.671
      -1552.118      -612.9601       364.9706       589.7983      -77.44043
       279.8603       345.8110      -1093.982      -1122.473      -1366.296
      -3083.937      -1785.710      -262.5601      -1588.421      -511.7007
       1768.604       763.2590      -554.1534      -71.11316      -163.6229
      -783.4446      -322.0254      -649.6846      -2900.733      -3316.251
      -1148.569      -28.86011       107.4872       132.3198      -2322.672
      -2801.619       943.2590       1615.003      -8.626801       333.6196
      -471.8311      -2037.777      -2528.604      -2168.109      -337.1965
       472.3472      -636.7778      -1581.101      -2256.890      -1377.259
      -21.27649      -323.6111      -507.3477      -593.8586      -938.8665
      -559.1680      -406.6193      -2.240234       556.4911       588.0175
       290.2589       310.3701      -128.8022      -1425.442      -970.2268
      -6.605591      -458.4175      -1090.953      -825.8943       583.3334
       834.4587      -69.83356       125.0205       757.1266      -211.9185
      -1298.770      -1924.735      -2388.910      -1212.778       484.6112
       879.3728       248.0806      -259.5000       650.1211       2197.754
       2045.238      -217.3384      -1265.872      -394.3616       473.7104
       647.4995      -496.8809      -1128.175      -143.7546       555.2358
       439.3227      -206.5181       735.4214       2446.692       1665.677
      -102.9859      -118.1609       944.0229       944.3729       611.5471
       184.1880      -1323.905      -1183.636       871.0713       1324.683
       252.5491      -178.4700      -399.6306       141.6624       867.6707
       586.6113       1730.595       4519.374       3473.452      -584.5225
      -977.6344       696.4120      -39.93530      -1241.196      -474.6616
      -462.8702      -808.7998       1060.684       2118.188       396.6465
      -1835.523      -1194.386       440.9331       618.2900       996.4175
       1693.600       1321.017       988.2737       1266.908      -231.2130
      -884.4861       1184.752       1879.611       1187.593       1138.392
       375.8345      -2367.116      -2447.199       1199.699       1117.720
      -1403.016      -546.3208       1029.853       1286.798       169.3755
      -202.8071       1802.486       2030.744       132.8116      -431.3174
      -594.4797      -900.3849      -773.3834      -501.8777       139.4252
      -117.7141      -348.5723       450.1100       307.7272       82.57227
      -371.9142      -542.1006       1019.858       1025.108      -1136.829
      -2128.259      -1227.758       615.6218       1580.212       603.3901
      -1012.542      -1598.146      -997.8718      -651.3616      -737.9808
      -355.4169       400.5830       669.5011      -441.3677      -1379.809
      -508.5371       307.3091       627.4817       950.9617       123.3771
      -187.3170      -67.53943      -213.2622      -457.6650      -1547.950
      -1534.514       953.7878       1615.124      -571.1858      -1085.328
      -559.7391      -481.2191       132.7881      -263.4453      -1680.901
      -1506.676       882.0234       2614.770       6.260742      -3060.255
      -1759.330       592.7703       1832.058       387.4187      -1361.522
       94.43884       529.9969      -137.8311       860.6227       1042.360
      -245.7061      -1175.069      -1267.024       432.6123       1552.477
       1274.139       2260.197       1844.628       265.5266      -632.3438
      -1163.603       182.5353       789.0198      -1045.606      -1706.076
      -1384.881      -1243.240       578.0610       2393.037       2281.262
       934.2959      -727.1573      -28.09790       1352.837       8.461182
      -1559.640      -625.8591       1086.322       628.0287      -100.7681
       1128.558       1574.815       1331.180       939.3441       216.7417
       947.1837       457.0349      -298.8516       1057.824       380.9959
      -357.7808       697.5837      -566.3298      -1422.697       799.8535
       1762.615       2065.336       1883.712      -303.0347      -700.6619
      -743.4280      -1505.137      -655.6476      -175.3311       674.8623
       2399.353       1681.227      -529.3246      -611.4497       830.2041
       1152.812       1379.440       2117.891      -395.1660      -3396.583
      -1749.337       176.3135       702.0820       1722.852       2461.152
       2229.038       175.4023      -47.63965       1010.119      -2235.765
      -3604.742      -341.9644       153.0210       491.9637       1291.434
      -1213.416      -408.2900       2138.705       1243.119       612.6836
      -950.1660      -2841.410      -1569.121       542.9531       1414.031
       1596.192       803.5533       264.5215       1445.594       1503.993
       8.975586      -1513.002      -2606.703      -1718.723      -163.4481
       305.9832      -156.2280      -955.8850      -1246.553      -1542.219
      -2018.194      -1606.009      -445.3511      -274.4819      -1857.043
      -1935.785       2200.446       3634.528      -119.5935      -1147.756
      -783.9907      -1722.230      -539.2989       430.3186      -776.5378
      -985.8862      -292.4939      -965.9072      -1183.274       226.5083
       792.7854      -1009.325      -1779.266       116.1333       1082.815
       985.9846       1052.964       572.2334      -1228.086      -3263.171
      -2954.290      -1286.294      -1052.179      -506.1331       1332.352
       193.9038      -1964.563      -150.5645       1615.824       55.38593
      -154.7825       503.6693      -662.1998       37.85010       1579.442
       1209.164       1338.310       1350.391      -78.77795      -528.9375
      -388.4702      -645.1772      -1204.731      -3025.562      -2356.980
       2383.299       3460.929      -1767.840      -3867.509      -1644.727
      -1314.263       79.25366       1568.062      -34.00128      -84.97302
       943.8403       24.34637      -376.8298       927.8564       2160.945
       2568.840       1359.216       285.8757      -96.64111      -1807.342
      -2606.400      -1724.540      -900.6808      -217.4263       642.8654
       1060.820      -80.15845      -975.9443       1316.373       3736.928
       2592.584       1275.460       544.7655      -156.9028      -529.7549
      -2361.056      -3212.938      -1845.938      -881.8604       1239.397
       4276.046       4593.403       3321.231       1054.234      -2761.541
      -4034.421      -1263.214       2967.397       4685.259       1400.864
      -1236.202      -285.6172       216.4033       1663.132       2551.653
      -590.2000      -1022.824       2722.328       2901.584      -489.6230
      -3020.492      -3507.230      -3861.923      -4248.675      -798.6934
       3996.594       3829.252       1982.007       3164.040       3378.542
       981.0424      -327.0628      -483.5283       1449.645       4850.142
       4954.474       2262.615       138.6465      -763.6294      -850.6025
      -1148.151       82.21973       3029.303       2141.843      -439.9385
       1482.586       4502.795       7227.602       10765.94       9738.531
       1748.203      -9818.578      -19596.88      -20658.81      -12870.76
      -2790.011       2832.521      -1631.922      -14575.80      -25731.96
      -28213.33      -23446.86      -13533.25      -1204.184       5782.691
       5326.586       6020.094       11910.16       16813.53       17728.85
       16338.82       12836.64       7365.166       2263.496       319.2100
       1179.213       1387.858       593.5305       695.2739       299.1660
      -4710.711      -12853.05      -14167.61      -7131.556      -2014.612
      -1372.219      -614.8516       1041.109       1153.346       188.2217
       1740.715       5161.684       5265.178       2127.620      -263.7500
       160.5059       5849.926       14572.26       18470.02       15486.69
       7712.992      -2594.637      -8668.125      -7903.168      -6259.940
      -4189.443       196.7285       5234.723       8040.199       7615.195
       8683.793       9989.650       5297.064      -3001.066      -10345.75
      -14335.05      -13075.32      -8354.937      -4261.542      -854.9893
       3214.795       6577.502       6828.318       4552.237       2530.305
       1318.305       948.8262       2078.736       4681.932       7282.991
       5619.455      -245.1094      -4663.227      -6596.352      -7803.328
      -6482.617      -4384.490      -4003.062      -2382.572       1419.037
       4892.274       5087.470       1450.509      -1627.955      -3811.230
      -6286.367      -5385.502      -2377.031      -753.1689       1291.272
       3700.860       3410.823       67.53418      -2377.519      -2032.425
      -3195.191      -6475.730      -7812.498      -6621.779      -2128.977
       3527.659       4987.366       3590.079       2499.535       154.0479
      -4450.748      -7588.287      -7564.672      -6124.877      -2441.120
       2022.127       3349.358       1103.965      -1079.754      -2578.393
      -4299.070      -3596.577      -1303.938      -1577.102      -3049.159
      -1519.076       1339.969       3633.383       6058.274       5449.689
       2370.416       1218.775       545.9824      -1049.083      -1877.894
      -1917.205      -2120.197      -4169.641      -6720.567      -5933.426
      -1865.147       2776.482       5452.725       5813.488       6711.594
       8396.234       10025.63       11128.18       8462.748       3525.488
       685.5127      -1633.296      -3535.728      -3954.156      -4679.651
      -4176.000      -2887.926      -3174.812      -2926.815      -2375.697
      -2868.102      -2610.725      -892.0310       719.8643       1637.855
       3041.830       4594.312       5239.608       4638.054       1456.267
      -2566.077      -3017.791      -1516.246      -2451.367      -4612.080
      -5114.664      -3834.722      -2326.084      -595.8296       1128.480
       1592.295       2685.549       4173.938       4698.756       5524.176
       5590.375       4394.061       2678.990      -72.11719      -3226.666
      -4219.376      -2734.396      -1739.078      -1155.103      -87.51794
      -268.5647      -758.3801      -592.8721       17.04980       1386.169
       2464.145       3274.938       5192.019       5817.573       3370.054
       1283.956       112.5513      -1742.963      -2685.975      -1450.898
      -238.2783      -1245.340      -1770.029       150.6279       2479.684
       4402.750       5679.125       5186.630       3881.832       2841.938
       1772.603       979.4460       543.5383       799.0999       507.0137
      -769.3472      -674.1057      -263.8016      -421.3436      -89.52393
       380.8135       1400.968       2332.613       2785.644       4289.352
       5190.342       4671.705       3658.924       1521.820      -448.9287
      -1342.076      -3033.830      -5690.021      -6689.021      -5955.422
      -4537.855      -1692.528       1154.406       1826.216       467.6229
      -359.4871       126.1507      -215.8279      -54.64258       1673.974
       1191.190      -1608.008      -2925.010      -3374.160      -3558.237
      -1915.444      -314.1147       825.1926       1339.579      -50.15741
      -452.1965       553.2367       348.1140      -181.4377      -571.7615
      -821.0457      -636.2905      -1406.837      -872.2124       1307.096
       1230.321       424.5814       762.7554       445.8457      -547.5569
      -1170.901      -1513.000      -803.4152       567.9272       365.4976
       496.7393       2783.635       3329.939       1363.699       105.0088
      -1320.461      -3604.816      -4479.869      -4184.040      -4391.420
      -5106.063      -5122.496      -3939.017      -1583.443       1765.141
       4002.155       4123.088       3841.808       3466.786       3245.125
       4097.324       4558.369       4156.101       4238.258       3980.466
       2517.048       517.1748      -1344.939      -2510.770      -3198.146
      -4086.697      -4819.023      -4708.848      -4341.313      -3440.126
      -2101.628      -1474.061      -1655.986      -2218.595      -2478.703
      -2631.012      -2225.021      -1121.948      -268.3452       949.7549
       1711.462       1566.174       2088.954       1995.173       957.5767
       1640.632       2700.732       2381.988       1423.942       147.3020
      -685.3076      -1959.045      -3027.919      -2182.437      -1509.667
      -1415.868      -769.5088      -426.2955      -280.1167      -254.6866
      -591.1503      -473.6802      -164.0505       254.8379       819.5337
       1887.514       2769.010       1379.067      -197.0920      -48.89771
      -482.4280      -1056.313      -267.0956      -230.1676      -640.7526
       254.8575       249.2183      -311.9528       236.4403       14.46289
